{
"type": "FeatureCollection",
"name": "ALGODAO_2026_algodao",
"crs": { "type": "name", "properties": { "name": "urn:ogc:def:crs:OGC:1.3:CRS84" } },
"features": [
{ "type": "Feature", "properties": { }, "geometry": { "type": "MultiPolygon", "coordinates": [ [ [ [ -56.909917210466858, -13.122123193283626 ], [ -56.909548951068643, -13.122127069698344 ], [ -56.908979118105087, -13.122425553631636 ], [ -56.908672881342355, -13.122662014929439 ], [ -56.908440296459275, -13.122638756441132 ], [ -56.908161194599572, -13.12254184607318 ], [ -56.907920856887053, -13.122534093243743 ], [ -56.907540968244675, -13.122487576267126 ], [ -56.907130068284559, -13.122568980976206 ], [ -56.906459448538314, -13.122859712080063 ], [ -56.905664783521104, -13.122976004521604 ], [ -56.904257644978443, -13.123146566769201 ], [ -56.904005678021768, -13.123084544133711 ], [ -56.903683935600164, -13.123445050702491 ], [ -56.903501744108418, -13.123375275237567 ], [ -56.903319552616665, -13.123297746943205 ], [ -56.903183878101537, -13.123297746943205 ], [ -56.902970675292039, -13.123421792214184 ], [ -56.902862135679932, -13.123433421458339 ], [ -56.90295129321845, -13.123309376187359 ], [ -56.902982304536195, -13.123235724307715 ], [ -56.902900899827117, -13.123208589404689 ], [ -56.902753596067825, -13.12332875826095 ], [ -56.902679944188186, -13.123363645993413 ], [ -56.902664438529314, -13.123278364869615 ], [ -56.902617921552697, -13.123189207331098 ], [ -56.902505505525866, -13.123169825257508 ], [ -56.90237758384017, -13.123235724307715 ], [ -56.902292302716376, -13.123173701672226 ], [ -56.902203145177857, -13.12312718469561 ], [ -56.90210235839519, -13.123220218648843 ], [ -56.902017077271388, -13.12326673562546 ], [ -56.901970560294771, -13.123196960160534 ], [ -56.901842638609075, -13.123196960160534 ], [ -56.901637188629017, -13.123518702582135 ], [ -56.90152864901691, -13.123828815759582 ], [ -56.901311569792703, -13.123875332736199 ], [ -56.900861905685403, -13.123906344053939 ], [ -56.899795891637929, -13.123840445003733 ], [ -56.898974091717697, -13.12382493934486 ], [ -56.897051390017523, -13.123898591224505 ], [ -56.896741276840075, -13.123852074247887 ], [ -56.896062904264411, -13.12358460163234 ], [ -56.895078294926016, -13.123762916709369 ], [ -56.89439216952092, -13.123894714809785 ], [ -56.893899864851718, -13.12428623269631 ], [ -56.893442447914985, -13.124433536455598 ], [ -56.892833850804251, -13.124545952482421 ], [ -56.892213624449347, -13.124764969913993 ], [ -56.891513931592733, -13.125061515639926 ], [ -56.890816176943474, -13.125410392964554 ], [ -56.890688255257778, -13.125689494824256 ], [ -56.890630109037005, -13.125953091025085 ], [ -56.890661120354771, -13.126429890035414 ], [ -56.890622356207587, -13.126724497553989 ], [ -56.890529322254352, -13.126945453192919 ], [ -56.890393647739231, -13.127135397514104 ], [ -56.890362636421486, -13.127263319199802 ], [ -56.890261849638811, -13.127333094664728 ], [ -56.890102916635371, -13.127278824858674 ], [ -56.889893590240597, -13.127201296564312 ], [ -56.889579600648432, -13.127119891855232 ], [ -56.889374150668374, -13.126988093754818 ], [ -56.889083419564514, -13.126643092844908 ], [ -56.888354653597517, -13.125732135386155 ], [ -56.887784820633961, -13.125565449553278 ], [ -56.886530800472649, -13.125127414690134 ], [ -56.886086950987419, -13.124856065659872 ], [ -56.885873748177922, -13.124854127452512 ], [ -56.885722568003914, -13.12485800386723 ], [ -56.885581078866707, -13.124883200562897 ], [ -56.885511303401785, -13.124755278877201 ], [ -56.88558883169614, -13.124633171813581 ], [ -56.885586893488785, -13.124530446823552 ], [ -56.885575264244629, -13.124499435505808 ], [ -56.885296162384932, -13.124332749672927 ], [ -56.884978296378051, -13.124313367599337 ], [ -56.88479804309366, -13.124249406756489 ], [ -56.884716638384582, -13.124181569498923 ], [ -56.884621666223993, -13.124109855826639 ], [ -56.884172002116692, -13.123332634675659 ], [ -56.88293348761426, -13.121134707530505 ], [ -56.88258848670435, -13.120739313229262 ], [ -56.881948878275871, -13.119960153870922 ], [ -56.881689158489756, -13.119615152961014 ], [ -56.881317022676825, -13.119223635074487 ], [ -56.88105730289071, -13.119049196412174 ], [ -56.880510728415459, -13.118820487943808 ], [ -56.879894378475285, -13.118510374766361 ], [ -56.879444714367992, -13.118204138003632 ], [ -56.879072578555053, -13.118095598391525 ], [ -56.878576397471143, -13.118018070097159 ], [ -56.878215890902361, -13.1178979012409 ], [ -56.877273922125873, -13.117452113548319 ], [ -56.877025831583914, -13.117192393762208 ], [ -56.876926018879544, -13.11687633085786 ], [ -56.873309828041776, -13.115630538487231 ], [ -56.873226945160191, -13.115754243901797 ], [ -56.87285480934726, -13.115975199540728 ], [ -56.872688123514379, -13.116083739152835 ], [ -56.872548572584527, -13.116397728745 ], [ -56.872308234872008, -13.116796999460961 ], [ -56.87150000240328, -13.117682760224044 ], [ -56.871143372249215, -13.117983182364695 ], [ -56.870610365225481, -13.118198323381549 ], [ -56.870296375633316, -13.118366947421785 ], [ -56.869994015285322, -13.118549138913535 ], [ -56.869877722843775, -13.118791414833415 ], [ -56.869850587940753, -13.119068578485757 ], [ -56.869833144074505, -13.119285657709968 ], [ -56.869984324248506, -13.119522119007771 ], [ -56.870152948288741, -13.119733383609907 ], [ -56.870412668074849, -13.120239255730615 ], [ -56.870662696824162, -13.120671475971681 ], [ -56.870837135486475, -13.121090128761233 ], [ -56.871123990175619, -13.121708416908767 ], [ -56.871418597694195, -13.122055356026035 ], [ -56.871889582082424, -13.122805442273986 ], [ -56.87205045329322, -13.123055471023303 ], [ -56.872465229668066, -13.123634995023659 ], [ -56.872986607447643, -13.124119546863417 ], [ -56.87321919233073, -13.124181569498907 ], [ -56.873709558792569, -13.124191260535701 ], [ -56.874901556318378, -13.124140867144366 ], [ -56.8754209958906, -13.124148619973802 ], [ -56.876060604319079, -13.124239715719677 ], [ -56.876512206633734, -13.12437539023481 ], [ -56.87677774104192, -13.124509126542584 ], [ -56.877349512212824, -13.124795981231721 ], [ -56.877642181524045, -13.124906459051186 ], [ -56.87885937574552, -13.125137105726909 ], [ -56.879456343612105, -13.125251459961092 ], [ -56.879830417632412, -13.125278594864119 ], [ -56.880074631759648, -13.125361937780557 ], [ -56.880448705779948, -13.125425898623405 ], [ -56.880566936428849, -13.125501488710407 ], [ -56.881222050516179, -13.125860057071829 ], [ -56.881534101900982, -13.126067445259247 ], [ -56.882061294302645, -13.126536491440136 ], [ -56.882286126356291, -13.12679621122625 ], [ -56.882565228216002, -13.127383488056038 ], [ -56.882673767828109, -13.127658713501022 ], [ -56.882809442343238, -13.128131636096626 ], [ -56.882855959319855, -13.128736356792647 ], [ -56.882786183854918, -13.129364335976977 ], [ -56.882677644242804, -13.129643437836677 ], [ -56.882662138583932, -13.13010085477341 ], [ -56.882677644242804, -13.130511754733527 ], [ -56.882790060269627, -13.130713328298867 ], [ -56.882821071587379, -13.131112599014831 ], [ -56.882886970637607, -13.132031309303017 ], [ -56.883016830530657, -13.132343360687823 ], [ -56.883332758330184, -13.133167098815413 ], [ -56.883505258785142, -13.133421003979448 ], [ -56.884071215333968, -13.13404510674906 ], [ -56.88435613181575, -13.134281568046863 ], [ -56.885081021368038, -13.13482814252211 ], [ -56.885205066639017, -13.134851401010419 ], [ -56.885340741154153, -13.13495218779309 ], [ -56.885406640204359, -13.135082047686145 ], [ -56.885505488779671, -13.135165390602584 ], [ -56.886391249542761, -13.135611178295163 ], [ -56.88677695280721, -13.135733285358782 ], [ -56.887366167844355, -13.135752667432376 ], [ -56.887577432446491, -13.135775925920685 ], [ -56.888184091349864, -13.135969746656587 ], [ -56.889083419564443, -13.136527950375992 ], [ -56.889222970494295, -13.136655872061688 ], [ -56.889296622373941, -13.136659748476406 ], [ -56.889521454427587, -13.136460113118426 ], [ -56.889800556287291, -13.135874774495994 ], [ -56.889800556287291, -13.135347582094335 ], [ -56.889897466655242, -13.13497156986668 ], [ -56.889953674668661, -13.134333899645553 ], [ -56.889850949678618, -13.133793139792383 ], [ -56.889959489290725, -13.133455891711909 ], [ -56.890226961906272, -13.13327370022016 ], [ -56.89048668169238, -13.133296958708469 ], [ -56.890761907137367, -13.133440386053037 ], [ -56.890951851458553, -13.13369622942443 ], [ -56.89099061560573, -13.133928814307515 ], [ -56.89093634579968, -13.134204039752499 ], [ -56.890858817505318, -13.134452130294456 ], [ -56.890851064675893, -13.13476999630134 ], [ -56.890789042040403, -13.135045221746324 ], [ -56.890692131672452, -13.135568537733265 ], [ -56.890595221304501, -13.136111235793795 ], [ -56.890568086401473, -13.136314747566495 ], [ -56.890519631217494, -13.136423287178602 ], [ -56.89025797322401, -13.136756658844355 ], [ -56.890108731257357, -13.137072586643882 ], [ -56.890194012381158, -13.13737882340661 ], [ -56.890748339685842, -13.138033937493967 ], [ -56.891097217010469, -13.13828978086536 ], [ -56.891876376368799, -13.138797591193427 ], [ -56.892085702763573, -13.138999164758769 ], [ -56.892434580088199, -13.139096075126719 ], [ -56.892736940436208, -13.139123210029746 ], [ -56.892915255513245, -13.139084445882565 ], [ -56.893143963981601, -13.139107704370875 ], [ -56.893322279058644, -13.139284081240548 ], [ -56.893407560182439, -13.139441076036631 ], [ -56.893523852623979, -13.139691104785946 ], [ -56.893628515821369, -13.139851975996747 ], [ -56.893719611567242, -13.139919813254313 ], [ -56.894100792347842, -13.14017048807275 ], [ -56.89436051213395, -13.140236387122957 ], [ -56.894493602372606, -13.140258999542146 ], [ -56.894998828424185, -13.140393381919036 ], [ -56.895257256072057, -13.140460573107484 ], [ -56.895495009508096, -13.140597539760854 ], [ -56.895652650373293, -13.140651809566908 ], [ -56.896236696857471, -13.140949001361959 ], [ -56.896815574788704, -13.141207429009832 ], [ -56.897071418160095, -13.141375406980947 ], [ -56.89762186905007, -13.14168552015839 ], [ -56.898053443222011, -13.141832823917676 ], [ -56.898216252640168, -13.141912936488517 ], [ -56.898531534370562, -13.142261813813143 ], [ -56.898864906036295, -13.142716646473392 ], [ -56.899115580854733, -13.142982826950698 ], [ -56.899374008502605, -13.143163726304207 ], [ -56.899865021033541, -13.143432491057993 ], [ -56.900487831664918, -13.143827885359235 ], [ -56.900859967477835, -13.144083728730626 ], [ -56.901146822166972, -13.144241369595829 ], [ -56.902258061052819, -13.144652269555939 ], [ -56.902728399371945, -13.144773730550439 ], [ -56.903131546502621, -13.144796989038747 ], [ -56.903493345209647, -13.144817663250578 ], [ -56.904023121887768, -13.144722045020865 ], [ -56.904317729406344, -13.144530808561441 ], [ -56.904689865219289, -13.143826593220997 ], [ -56.905047787511585, -13.143030636065552 ], [ -56.905637002548737, -13.141888385861956 ], [ -56.905648631792886, -13.141682935881898 ], [ -56.906071160997158, -13.140977428403211 ], [ -56.906637117545984, -13.139798998328926 ], [ -56.907121669385738, -13.138767872013917 ], [ -56.907627541506429, -13.13780652116384 ], [ -56.908365998510213, -13.136321854326825 ], [ -56.90684256752602, -13.135771403436861 ], [ -56.906133183632605, -13.137271575932745 ], [ -56.905431552568636, -13.137007979731917 ], [ -56.905102057317599, -13.136938204266993 ], [ -56.904931495070009, -13.136887810875658 ], [ -56.904881101678676, -13.136662978822011 ], [ -56.905009023364372, -13.136081516614302 ], [ -56.905303630882948, -13.134616231850876 ], [ -56.905408294080331, -13.13448831016518 ], [ -56.90862184188159, -13.135709380801369 ], [ -56.908835044691081, -13.135399267623926 ], [ -56.912164884933887, -13.129414083299238 ], [ -56.912459492452456, -13.128751216382449 ], [ -56.913746462138846, -13.125793511952567 ], [ -56.914374441323154, -13.12439024982463 ], [ -56.914506239423574, -13.123917327229028 ], [ -56.914407390848261, -13.123742888566715 ], [ -56.912046654284964, -13.122907521194971 ], [ -56.909917210466858, -13.122123193283626 ] ], [ [ -56.891771713171011, -13.129570432026163 ], [ -56.891885421336077, -13.129616949002781 ], [ -56.891564971052716, -13.130459423134839 ], [ -56.890955081803746, -13.131725718609404 ], [ -56.890898227721209, -13.131808415456723 ], [ -56.890763845344317, -13.131808415456723 ], [ -56.890613957308553, -13.131736055715319 ], [ -56.890551934673063, -13.131544819255895 ], [ -56.890531260461238, -13.131177851995918 ], [ -56.890629462967418, -13.130598974064688 ], [ -56.890665642838123, -13.130325040757945 ], [ -56.8908258679798, -13.13005627600416 ], [ -56.891006767333309, -13.129901219415437 ], [ -56.891172161027953, -13.130030433239373 ], [ -56.891435757228777, -13.130211332592882 ], [ -56.891771713171011, -13.129570432026163 ] ] ], [ [ [ -56.886700070581796, -13.136794130853293 ], [ -56.884311553046189, -13.135346289956088 ], [ -56.883117617313033, -13.134419826838473 ], [ -56.882361716443015, -13.133016564710534 ], [ -56.88205547968029, -13.132295551572975 ], [ -56.881830647626636, -13.130919424348063 ], [ -56.881706602355663, -13.130252681016557 ], [ -56.881795759894182, -13.129240936775151 ], [ -56.881842276870799, -13.12838424912246 ], [ -56.881764748576437, -13.127961719918193 ], [ -56.881660085379046, -13.127841551061934 ], [ -56.881229803345356, -13.127108908680221 ], [ -56.881078623171348, -13.126996492653397 ], [ -56.880784015652779, -13.126884076626574 ], [ -56.880508790207791, -13.126705761549543 ], [ -56.880159912883165, -13.126488682325332 ], [ -56.87992345158537, -13.12633362573661 ], [ -56.879667608213978, -13.126256097442248 ], [ -56.879407888427863, -13.126186321977324 ], [ -56.878938842246981, -13.126170816318451 ], [ -56.878043390447111, -13.125980871997266 ], [ -56.877341759383143, -13.125849073896852 ], [ -56.876260239676824, -13.125608736184331 ], [ -56.87605091328205, -13.125523455060534 ], [ -56.875717541616297, -13.125368398471812 ], [ -56.874624392665801, -13.125314128665758 ], [ -56.87430652665892, -13.125333510739349 ], [ -56.874155346484919, -13.125465308839763 ], [ -56.873573884277207, -13.12577154560249 ], [ -56.87340332202961, -13.125876208799877 ], [ -56.873209501293722, -13.126546828546102 ], [ -56.873128096584644, -13.126988739823961 ], [ -56.872930399434026, -13.127702000132084 ], [ -56.872736578698117, -13.128159417068812 ], [ -56.872721073039244, -13.128252451022044 ], [ -56.872682308892067, -13.128395878366613 ], [ -56.87284899472494, -13.128888183035807 ], [ -56.873147478658225, -13.129965826327432 ], [ -56.873337422979411, -13.130539535705704 ], [ -56.87352349088588, -13.131314818649312 ], [ -56.873583575314022, -13.131812937940586 ], [ -56.873645597949512, -13.132603726543071 ], [ -56.873761890391052, -13.133061143479802 ], [ -56.874165037521742, -13.13374339247018 ], [ -56.87423868940138, -13.133871314155876 ], [ -56.874296835622154, -13.134057382062343 ], [ -56.874296835622154, -13.134278337701272 ], [ -56.874552678993552, -13.134914069715034 ], [ -56.874762005388327, -13.135390868725354 ], [ -56.874909309147647, -13.135848285662084 ], [ -56.874920938391803, -13.136453006358103 ], [ -56.874944196880122, -13.138263292031434 ], [ -56.874948073294838, -13.138608292941342 ], [ -56.875056612906945, -13.138755596700628 ], [ -56.875308579863621, -13.138906776874633 ], [ -56.875669086432396, -13.138895147630478 ], [ -56.875932682633227, -13.138868012727452 ], [ -56.876219537322363, -13.138755596700628 ], [ -56.876529650499805, -13.138771102359501 ], [ -56.876878527824445, -13.139069586292791 ], [ -56.877374708908356, -13.139887509798301 ], [ -56.877828249430387, -13.140910883283874 ], [ -56.87799493526326, -13.14137605305004 ], [ -56.878001395954449, -13.142109987569992 ], [ -56.877985890295577, -13.142221111458577 ], [ -56.878099598460636, -13.142358078111947 ], [ -56.878365778937948, -13.142425269300393 ], [ -56.878774094621598, -13.142582910165597 ], [ -56.878939488316234, -13.142949877425574 ], [ -56.87899634239875, -13.143378867321037 ], [ -56.87912038766973, -13.143502912592014 ], [ -56.879376231041121, -13.143707070433832 ], [ -56.880011963054883, -13.143996509399447 ], [ -56.88022904227909, -13.143981003740576 ], [ -56.882007024496453, -13.140065824875332 ], [ -56.882131069767425, -13.139755711697887 ], [ -56.881686574213084, -13.139047619942723 ], [ -56.879748366854066, -13.135600195120134 ], [ -56.879696681324496, -13.135429632872539 ], [ -56.883511073407071, -13.136173904498403 ], [ -56.886700070581796, -13.136794130853293 ] ] ], [ [ [ -56.896909900879855, -13.142362600595774 ], [ -56.896154646078891, -13.14187675661776 ], [ -56.895255317864297, -13.141556306334399 ], [ -56.894960710345721, -13.141551137781443 ], [ -56.894376663861536, -13.141566643440314 ], [ -56.893404975905547, -13.141375406980892 ], [ -56.893187896681333, -13.141225518945125 ], [ -56.893038008645568, -13.140951585638383 ], [ -56.892779580997697, -13.140667315225725 ], [ -56.891626993688192, -13.140243493883219 ], [ -56.891332386169623, -13.140010909000136 ], [ -56.890980924568517, -13.1398816951762 ], [ -56.890794856662048, -13.139933380705774 ], [ -56.88963710079959, -13.143008669715433 ], [ -56.888293277030684, -13.146668005209285 ], [ -56.888112377677174, -13.147365759858536 ], [ -56.887988332406195, -13.147469130917683 ], [ -56.881788653133775, -13.143667660217504 ], [ -56.880798875242427, -13.142995748333041 ], [ -56.880163143228678, -13.144473954478862 ], [ -56.881408764491411, -13.145331934269791 ], [ -56.882695734177823, -13.146117554319318 ], [ -56.88408607492336, -13.146954859898422 ], [ -56.884618435877975, -13.14731665860544 ], [ -56.884876863525847, -13.14769137869485 ], [ -56.8851016955795, -13.148073851613699 ], [ -56.885216695882804, -13.148318065740938 ], [ -56.885158549662037, -13.14839430189706 ], [ -56.884773492466707, -13.148846550280833 ], [ -56.884755402531354, -13.148947337063502 ], [ -56.884773492466707, -13.149110146481661 ], [ -56.885034504391051, -13.14949261940051 ], [ -56.885499674157224, -13.150092171543578 ], [ -56.885586893488394, -13.150348014914968 ], [ -56.885617904806139, -13.150479813015382 ], [ -56.885730320832963, -13.150526329991999 ], [ -56.886032681180964, -13.150568970553895 ], [ -56.886079198157582, -13.150611611115794 ], [ -56.886090827401738, -13.150762791289798 ], [ -56.886059816083993, -13.150871330901904 ], [ -56.885792343468445, -13.151072904467243 ], [ -56.885617904806132, -13.151227961055966 ], [ -56.885629534050288, -13.151336500668071 ], [ -56.888164709275905, -13.1529529656055 ], [ -56.888389541329552, -13.153154539170838 ], [ -56.888769429971937, -13.156782863346942 ], [ -56.888808194119122, -13.156852638811866 ], [ -56.888971003537279, -13.156922414276792 ], [ -56.88923459973811, -13.15712398784213 ], [ -56.889273363885287, -13.157232527454235 ], [ -56.889304375203032, -13.15746511233732 ], [ -56.88934313935021, -13.157573651949425 ], [ -56.889521454427246, -13.157596910437734 ], [ -56.88983932043412, -13.157457359507884 ], [ -56.890909210896311, -13.157139493501003 ], [ -56.892048876823402, -13.156666570905401 ], [ -56.892320225853666, -13.156620053928783 ], [ -56.893397869145289, -13.156519267146114 ], [ -56.893808769105405, -13.156418480363445 ], [ -56.89383202759371, -13.156286682263032 ], [ -56.893754499299348, -13.156224659627542 ], [ -56.893552925734014, -13.156154884162618 ], [ -56.892545057907334, -13.155837018155736 ], [ -56.892428765465795, -13.15568971439645 ], [ -56.892467529612972, -13.155441623854495 ], [ -56.892676856007746, -13.154836903158477 ], [ -56.892948205038017, -13.154015103238251 ], [ -56.895305065186584, -13.14783609817767 ], [ -56.896064842471318, -13.145758339888792 ], [ -56.896902148050422, -13.143292940128108 ], [ -56.897018440491962, -13.14257192699055 ], [ -56.896909900879855, -13.142362600595774 ] ] ], [ [ [ -56.893851384536077, -13.122707214677508 ], [ -56.882539055162567, -13.118810051475023 ], [ -56.882675059965983, -13.119088606628535 ], [ -56.883408994485933, -13.120080968796362 ], [ -56.88417394032362, -13.121150859258545 ], [ -56.885037088667509, -13.122324120779878 ], [ -56.885776191740412, -13.123182100570808 ], [ -56.88625686716545, -13.123735135737251 ], [ -56.886784059567105, -13.124091765891313 ], [ -56.887652376463947, -13.124412216174672 ], [ -56.888536199019676, -13.124577609869309 ], [ -56.889146088268646, -13.124582778422267 ], [ -56.88942519012835, -13.124531092892694 ], [ -56.889621595140731, -13.124401879068758 ], [ -56.889833505811986, -13.12427783379778 ], [ -56.889957551082965, -13.124298508009609 ], [ -56.89004541648324, -13.124381204856927 ], [ -56.89009710201281, -13.124510418680863 ], [ -56.890195304519004, -13.124510418680863 ], [ -56.890872384956424, -13.123616259019231 ], [ -56.891683847770736, -13.123078729511663 ], [ -56.891921601206775, -13.122923672922941 ], [ -56.892893289162764, -13.122830638969708 ], [ -56.893851384536077, -13.122707214677508 ] ] ] ] } },
{ "type": "Feature", "properties": { }, "geometry": { "type": "MultiPolygon", "coordinates": [ [ [ [ -56.571208260199235, -11.614918294940267 ], [ -56.570381356816192, -11.614923771121612 ], [ -56.568237824070188, -11.61950836166355 ], [ -56.568772016773451, -11.620705223796181 ], [ -56.574192216245294, -11.621377784198318 ], [ -56.574433985247865, -11.621308707340441 ], [ -56.574977965503642, -11.620419342795278 ], [ -56.575280176756856, -11.619624958929698 ], [ -56.575625561046238, -11.61936592071266 ], [ -56.575789618583698, -11.619340016890956 ], [ -56.575880281959627, -11.616352442787795 ], [ -56.573535986095443, -11.616365394698645 ], [ -56.57242212176218, -11.616417202342054 ], [ -56.571450728448291, -11.616222923679276 ], [ -56.571165786409544, -11.615394001384756 ], [ -56.571208260199235, -11.614918294940267 ] ] ], [ [ [ -56.568592825550226, -11.62067817606437 ], [ -56.568197252472494, -11.619802505746994 ], [ -56.568051870914012, -11.620039173400338 ], [ -56.56795044191972, -11.620336698450258 ], [ -56.567906489355529, -11.620536175472363 ], [ -56.567960584819147, -11.620620699634271 ], [ -56.568129633142966, -11.620651128332559 ], [ -56.568592825550226, -11.62067817606437 ] ] ] ] } },
{ "type": "Feature", "properties": { }, "geometry": { "type": "Polygon", "coordinates": [ [ [ -56.284469491449045, -11.888160648096004 ], [ -56.283530018062613, -11.895062200936271 ], [ -56.283546922895297, -11.895189832420781 ], [ -56.284437807561808, -11.895152641789542 ], [ -56.284542617522575, -11.895091784392967 ], [ -56.285127524722988, -11.893776588433665 ], [ -56.28573609868873, -11.893357348590596 ], [ -56.286632054804969, -11.892468154407316 ], [ -56.286943103720795, -11.892332915748263 ], [ -56.287074961413367, -11.892231486753971 ], [ -56.288092632322758, -11.891207053911637 ], [ -56.288778968517462, -11.890547765448748 ], [ -56.289211732226441, -11.890064287242629 ], [ -56.289465304712152, -11.889418522645645 ], [ -56.289367256684358, -11.889029711500866 ], [ -56.288099394255724, -11.888532709428842 ], [ -56.287909214891165, -11.888535245153667 ], [ -56.284469491449045, -11.888160648096004 ] ] ] } },
{ "type": "Feature", "properties": { }, "geometry": { "type": "Polygon", "coordinates": [ [ [ -56.27683570443947, -11.882452041221075 ], [ -56.288126871790567, -11.88284568018504 ], [ -56.288170394551692, -11.88264982775998 ], [ -56.288170394551692, -11.876219229521952 ], [ -56.288535538931136, -11.872060640756034 ], [ -56.288285347411943, -11.872045426406848 ], [ -56.280576743845842, -11.87058484888906 ], [ -56.277493302419401, -11.869935703325599 ], [ -56.276783299459368, -11.874418864873251 ], [ -56.277087586442235, -11.874702866057266 ], [ -56.277067300643381, -11.875250582626435 ], [ -56.276925300051374, -11.876893732333947 ], [ -56.2766210130685, -11.877583449495125 ], [ -56.276438440878778, -11.878110880265437 ], [ -56.275992153303896, -11.880768319915859 ], [ -56.276195011292479, -11.881153750094164 ], [ -56.276602417752606, -11.882056468143341 ], [ -56.27683570443947, -11.882452041221075 ] ] ] } },
{ "type": "Feature", "properties": { }, "geometry": { "type": "Polygon", "coordinates": [ [ [ -56.320841995551703, -11.87828390645454 ], [ -56.318438496930966, -11.867138798808046 ], [ -56.318343829869605, -11.86701370304842 ], [ -56.30991846141054, -11.865384077206816 ], [ -56.308221216239396, -11.865147409553471 ], [ -56.308070609183595, -11.865164417084257 ], [ -56.308113030241138, -11.865228048670572 ], [ -56.307978098245712, -11.865638977929375 ], [ -56.307941298610594, -11.865994707735506 ], [ -56.307683701164784, -11.867613891680648 ], [ -56.30763463498463, -11.868356017655504 ], [ -56.307720500799903, -11.86874854709675 ], [ -56.308070097333513, -11.869104276902879 ], [ -56.308640491677828, -11.869343474531139 ], [ -56.308934888758763, -11.86966853797467 ], [ -56.309523682920627, -11.870012001235761 ], [ -56.31024127580541, -11.87013466668615 ], [ -56.310480473433671, -11.870281865226618 ], [ -56.31049887325122, -11.870797060118253 ], [ -56.310394607618392, -11.871441053732799 ], [ -56.309971411814558, -11.873440500574144 ], [ -56.309407150742757, -11.876059407939962 ], [ -56.309493016558029, -11.876359938293417 ], [ -56.31038234107335, -11.876537803196483 ], [ -56.311559929397092, -11.876832200277416 ], [ -56.314350568393465, -11.877328995351489 ], [ -56.316699611768428, -11.877696991702658 ], [ -56.31783426718453, -11.877850323515645 ], [ -56.320318242554912, -11.878255119501935 ], [ -56.320753704903794, -11.878273519319492 ], [ -56.320841995551703, -11.87828390645454 ] ] ] } },
{ "type": "Feature", "properties": { }, "geometry": { "type": "Polygon", "coordinates": [ [ [ -56.274518196168152, -11.886985671822794 ], [ -56.288117149710764, -11.888440703889081 ], [ -56.288322538043147, -11.887376418893925 ], [ -56.288292109344859, -11.886625844336175 ], [ -56.288008108160845, -11.886280985755587 ], [ -56.287916822065739, -11.886123770814402 ], [ -56.287972608012595, -11.883618474655423 ], [ -56.28779003582288, -11.883063150911683 ], [ -56.276763013660506, -11.882685327907943 ], [ -56.276763013660506, -11.882736042405101 ], [ -56.276397869281055, -11.883182329979981 ], [ -56.276012966863114, -11.883264809069541 ], [ -56.275545865729015, -11.883364902169705 ], [ -56.275140149751856, -11.883364902169705 ], [ -56.274856148567835, -11.884906622882925 ], [ -56.274518196168152, -11.886985671822794 ] ] ] } },
{ "type": "Feature", "properties": { }, "geometry": { "type": "Polygon", "coordinates": [ [ [ -56.290290260532046, -11.905674209463937 ], [ -56.282226655485921, -11.905894817526519 ], [ -56.280760668838923, -11.91655831332136 ], [ -56.280995983688889, -11.916545707168684 ], [ -56.281313794537667, -11.916606564565257 ], [ -56.281983225899985, -11.916674183894784 ], [ -56.282828467519074, -11.91666066002888 ], [ -56.283119230636039, -11.916674183894784 ], [ -56.294847803342527, -11.917221900463952 ], [ -56.294874851074333, -11.916856756084504 ], [ -56.294868089141389, -11.916336087247146 ], [ -56.294746374348243, -11.915267701840618 ], [ -56.294854565275486, -11.913982934579602 ], [ -56.295179138057208, -11.911406638124621 ], [ -56.295131804526541, -11.911142922739465 ], [ -56.294671993085757, -11.910926540884979 ], [ -56.291892838642191, -11.910554634572579 ], [ -56.291203121481018, -11.910426157846478 ], [ -56.29105435895606, -11.910290919187423 ], [ -56.290581023649366, -11.909472725300146 ], [ -56.290418737258499, -11.908512530820863 ], [ -56.290405213392596, -11.907417097682522 ], [ -56.290391689526686, -11.905713090578439 ], [ -56.290290260532046, -11.905674209463937 ] ] ] } },
{ "type": "Feature", "properties": { }, "geometry": { "type": "MultiPolygon", "coordinates": [ [ [ [ -56.282496315944591, -11.902373862642895 ], [ -56.273206234639844, -11.901290322488082 ], [ -56.272979712173459, -11.901383763005464 ], [ -56.272518210249437, -11.901343191407747 ], [ -56.272411709805432, -11.901662692739764 ], [ -56.272036422526568, -11.903468128838135 ], [ -56.271610420750534, -11.906368998074852 ], [ -56.271468420158527, -11.907535431509196 ], [ -56.271593515918163, -11.908066243245985 ], [ -56.271982327062943, -11.907947909419311 ], [ -56.272411709805439, -11.907772099162541 ], [ -56.272675425190592, -11.907728146598348 ], [ -56.272935759609275, -11.907701098866537 ], [ -56.273229903692716, -11.907694336933584 ], [ -56.273415856848914, -11.907653765335869 ], [ -56.273459809413112, -11.90763347953701 ], [ -56.274991387226883, -11.906964048174691 ], [ -56.276005677169792, -11.906517760599813 ], [ -56.276377583482187, -11.906308140678279 ], [ -56.276932061984311, -11.905902424701116 ], [ -56.277344539894429, -11.905882138902259 ], [ -56.277513588218248, -11.906098520756744 ], [ -56.277547397883012, -11.90648395093505 ], [ -56.277331016028526, -11.90708576296784 ], [ -56.277060538710415, -11.907295382889375 ], [ -56.27667510853211, -11.907511764743861 ], [ -56.275234816813182, -11.908228529636849 ], [ -56.274470718389523, -11.908600435949248 ], [ -56.273300903988705, -11.909276629244518 ], [ -56.272496233967331, -11.909479487233099 ], [ -56.271590134951666, -11.909858155478451 ], [ -56.271170895108597, -11.910148918595418 ], [ -56.270929156005195, -11.910252883314532 ], [ -56.270219923706875, -11.91592094931176 ], [ -56.270359463154279, -11.916153515057426 ], [ -56.270596130807618, -11.916241420185811 ], [ -56.272225756649227, -11.916309039515339 ], [ -56.280617315443543, -11.916565992967541 ], [ -56.280760668838923, -11.91655831332136 ], [ -56.282044083296192, -11.905849174479089 ], [ -56.282496315944591, -11.902373862642895 ] ] ], [ [ [ -56.27369816754932, -11.901232464755616 ], [ -56.282508966186725, -11.902158849570135 ], [ -56.284347569747311, -11.888147370426593 ], [ -56.274503621695416, -11.887075332503175 ], [ -56.274054859512958, -11.889836072005462 ], [ -56.274115716909535, -11.889957786798611 ], [ -56.27465329057928, -11.890008501295755 ], [ -56.274886577266145, -11.890140358988335 ], [ -56.274947434662721, -11.890383788574631 ], [ -56.274967720461582, -11.89073879005465 ], [ -56.274734433774697, -11.892361653963299 ], [ -56.273385428150632, -11.901216405164885 ], [ -56.27369816754932, -11.901232464755616 ] ] ] ] } },
{ "type": "Feature", "properties": { }, "geometry": { "type": "Polygon", "coordinates": [ [ [ -56.282475860246393, -11.905780053929487 ], [ -56.291272813391949, -11.905552766334422 ], [ -56.295016851666347, -11.905429089394426 ], [ -56.295165614191305, -11.905145088210411 ], [ -56.295828283620665, -11.895529619551656 ], [ -56.28348196776669, -11.895315830532539 ], [ -56.28269099165712, -11.901979763987804 ], [ -56.283083730487675, -11.902118277972418 ], [ -56.28304315888996, -11.902551041681392 ], [ -56.282600013942407, -11.902746246602696 ], [ -56.282267227083636, -11.905549958945931 ], [ -56.282475860246393, -11.905780053929487 ] ] ] } },
{ "type": "Feature", "properties": { }, "geometry": { "type": "Polygon", "coordinates": [ [ [ -56.335843712351291, -11.882371743267267 ], [ -56.334575849922679, -11.889326391309131 ], [ -56.332996938578198, -11.896517707004341 ], [ -56.332865080885668, -11.897112757104182 ], [ -56.333117615643985, -11.897262131039781 ], [ -56.333467212177595, -11.897455329124146 ], [ -56.333697209897082, -11.897593327755834 ], [ -56.333734009532193, -11.897786525840196 ], [ -56.333614410718063, -11.898007323650898 ], [ -56.333366013181028, -11.89820972164404 ], [ -56.332556421208444, -11.898384519910847 ], [ -56.332630553461016, -11.898612052172085 ], [ -56.337947567753055, -11.898375320002067 ], [ -56.337965967570611, -11.897271330948561 ], [ -56.338260364651546, -11.896332940253082 ], [ -56.338996357353892, -11.893674166615885 ], [ -56.33930915425239, -11.891659386593236 ], [ -56.340072746681066, -11.888264620253706 ], [ -56.340256744856646, -11.887261830196772 ], [ -56.340311944309327, -11.885845044244771 ], [ -56.339980747593273, -11.88540344862337 ], [ -56.339824349144024, -11.884998652637083 ], [ -56.340063546772285, -11.883949863036253 ], [ -56.34023834503909, -11.883618666320201 ], [ -56.340403943397114, -11.883324269239266 ], [ -56.340440743032232, -11.883259869877811 ], [ -56.340229911789358, -11.883195470516362 ], [ -56.336034753386038, -11.882336812363636 ], [ -56.335843712351291, -11.882371743267267 ] ] ] } },
{ "type": "Feature", "properties": { }, "geometry": { "type": "MultiPolygon", "coordinates": [ [ [ [ -56.246772150531868, -11.886245485607576 ], [ -56.235898962343882, -11.892300796566722 ], [ -56.234418099027231, -11.903721701323853 ], [ -56.234418099027231, -11.904340418189028 ], [ -56.234945529797542, -11.904117274401587 ], [ -56.241021126555566, -11.901764121734042 ], [ -56.242035416498474, -11.901287405460875 ], [ -56.242197702889342, -11.901094690371723 ], [ -56.242096273895044, -11.900333972914542 ], [ -56.241873130107606, -11.898944395692759 ], [ -56.241812272711037, -11.897458460926403 ], [ -56.241852844308752, -11.897138959594388 ], [ -56.242217988688196, -11.896966530304093 ], [ -56.243440208069394, -11.896875244209234 ], [ -56.244459569462016, -11.896991887552668 ], [ -56.246665650087841, -11.897554818470981 ], [ -56.247233652455868, -11.897367174831544 ], [ -56.247324938550733, -11.897042602049813 ], [ -56.247527796539316, -11.895713882224605 ], [ -56.247507510740483, -11.892980370828475 ], [ -56.247198152307888, -11.88912606904543 ], [ -56.247035865917027, -11.886914916969895 ], [ -56.246772150531868, -11.886245485607576 ] ] ], [ [ [ -56.235645389858156, -11.892427582809583 ], [ -56.223712268679847, -11.899111753533338 ], [ -56.222855193678093, -11.904545811902459 ], [ -56.225776348713666, -11.904464668707027 ], [ -56.234220312488347, -11.904398739860733 ], [ -56.235062173140967, -11.898089856415858 ], [ -56.235731604503279, -11.892526476079011 ], [ -56.235645389858156, -11.892427582809583 ] ] ], [ [ [ -56.236289463971886, -11.871728460799709 ], [ -56.228149787180037, -11.870648242010505 ], [ -56.22380101904983, -11.898389071949008 ], [ -56.223773126076402, -11.898523465366445 ], [ -56.223755376002401, -11.898713644730739 ], [ -56.223839054922692, -11.898845502423317 ], [ -56.234991172844957, -11.892546761877867 ], [ -56.235254888230109, -11.888646817047391 ], [ -56.23512810198725, -11.888550459502815 ], [ -56.23498102994553, -11.888428744709666 ], [ -56.234940458347808, -11.888251243969657 ], [ -56.235031744442672, -11.888109243377651 ], [ -56.235285316928397, -11.888033171631932 ], [ -56.235320817076399, -11.887992600034215 ], [ -56.236289463971886, -11.871728460799709 ] ] ] ] } },
{ "type": "Feature", "properties": { }, "geometry": { "type": "Polygon", "coordinates": [ [ [ -56.321079031749008, -11.880644069397849 ], [ -56.335708473692208, -11.882148599479827 ], [ -56.336341417012008, -11.878583249581718 ], [ -56.336623547547894, -11.877258462717514 ], [ -56.336623547547894, -11.876669668555644 ], [ -56.33699154389906, -11.8755534129571 ], [ -56.337052876624256, -11.874780620619648 ], [ -56.336942477718907, -11.874621155534141 ], [ -56.334734499611898, -11.874792887164686 ], [ -56.330195877947489, -11.875203816423491 ], [ -56.32880362508557, -11.875246749331128 ], [ -56.327313239863336, -11.875173150060894 ], [ -56.325997652907915, -11.875001418430349 ], [ -56.325623523284222, -11.874789820528427 ], [ -56.325485524652535, -11.874314491908168 ], [ -56.325181927662818, -11.873323968396271 ], [ -56.325022462577309, -11.87299277168022 ], [ -56.324893663854404, -11.872465310243545 ], [ -56.324678999316212, -11.871698651178608 ], [ -56.324384602235277, -11.87109145719918 ], [ -56.324108604971919, -11.870373864314406 ], [ -56.324225137149789, -11.869680804519705 ], [ -56.324378468962777, -11.869208542535706 ], [ -56.324660599498678, -11.868487883014668 ], [ -56.324927396853269, -11.868236418841368 ], [ -56.324997929487246, -11.86809535357342 ], [ -56.324810864675399, -11.867935888487914 ], [ -56.32451340095821, -11.867868422490201 ], [ -56.324099405063144, -11.867733490494771 ], [ -56.322311556123715, -11.867368560779861 ], [ -56.321293432885483, -11.867218295603134 ], [ -56.32036117546253, -11.867022030882513 ], [ -56.318962789328076, -11.866528302444696 ], [ -56.318662258974619, -11.866194039092385 ], [ -56.318122530992902, -11.866080573550775 ], [ -56.317797467549376, -11.86602230746184 ], [ -56.317622669282585, -11.865994707735501 ], [ -56.317432537834478, -11.866025374098099 ], [ -56.317122807572247, -11.865948708191604 ], [ -56.316107750970275, -11.865826042741215 ], [ -56.315359491722901, -11.865752443470981 ], [ -56.313611509054844, -11.865387513756072 ], [ -56.31216099010399, -11.865037917222462 ], [ -56.310823936694746, -11.864743520141532 ], [ -56.309088220571738, -11.864590188328545 ], [ -56.308263295417866, -11.864611654782363 ], [ -56.307967301987247, -11.864972122029549 ], [ -56.310303891588838, -11.865323219810241 ], [ -56.318536544958775, -11.866875083422888 ], [ -56.321002960003291, -11.878280773830877 ], [ -56.321066501802285, -11.878310318954609 ], [ -56.321115567982446, -11.878512716947752 ], [ -56.321041968712208, -11.879027911839387 ], [ -56.321017435622132, -11.879561506548582 ], [ -56.320966836123866, -11.880131900892897 ], [ -56.320856437218517, -11.880527496970403 ], [ -56.320980983721192, -11.880618712149277 ], [ -56.321079031749008, -11.880644069397849 ] ] ] } },
{ "type": "Feature", "properties": { }, "geometry": { "type": "Polygon", "coordinates": [ [ [ -56.332952986014043, -11.895919275938025 ], [ -56.333882751795031, -11.892014259657833 ], [ -56.33448118286136, -11.889025485292738 ], [ -56.335667902094528, -11.882439362596795 ], [ -56.335691290124949, -11.882287746183481 ], [ -56.335505615703617, -11.882229742675259 ], [ -56.335099899726451, -11.882222980742306 ], [ -56.321038460151286, -11.880745498392141 ], [ -56.320939236397528, -11.880858693686454 ], [ -56.320966836123866, -11.88102889199887 ], [ -56.321077235029215, -11.88124968980957 ], [ -56.321318732634658, -11.881879883560947 ], [ -56.321790227959575, -11.883075871702239 ], [ -56.32245952132326, -11.884888253731743 ], [ -56.323027615690393, -11.886314239592522 ], [ -56.323144914527333, -11.886567237083952 ], [ -56.323561210399582, -11.88772872556733 ], [ -56.324179904264994, -11.889159311382491 ], [ -56.32457550034249, -11.890221900846491 ], [ -56.324616899932003, -11.890488698201088 ], [ -56.324474301345923, -11.890737095738126 ], [ -56.32420290403693, -11.891208591063064 ], [ -56.323388712109974, -11.892450578748253 ], [ -56.323236913615119, -11.892855374734539 ], [ -56.322712518814704, -11.8945113583148 ], [ -56.322629719635692, -11.89498055366254 ], [ -56.322712518814704, -11.895164551838123 ], [ -56.323126514709763, -11.895136952111786 ], [ -56.324147704584263, -11.895219751290799 ], [ -56.325095295188518, -11.895504948462955 ], [ -56.326236083877141, -11.895790145635111 ], [ -56.327119275119948, -11.895882144722902 ], [ -56.327735669008156, -11.895983343719474 ], [ -56.328789058563366, -11.896125942305551 ], [ -56.329768848848353, -11.89624094116529 ], [ -56.330187444697806, -11.896273140846018 ], [ -56.332087225860704, -11.896480138793553 ], [ -56.332579420980395, -11.896383539751371 ], [ -56.33282781851743, -11.896332940253085 ], [ -56.332952986014043, -11.895919275938025 ] ] ] } },
{ "type": "Feature", "properties": { }, "geometry": { "type": "MultiPolygon", "coordinates": [ [ [ [ -56.554000574238266, -11.610180275155281 ], [ -56.553984498344128, -11.618486751572128 ], [ -56.555774599013922, -11.618718325170068 ], [ -56.560650935297254, -11.619335932373254 ], [ -56.562057417351419, -11.618565072016644 ], [ -56.563463899405583, -11.617888878721374 ], [ -56.56378118544734, -11.617887992286342 ], [ -56.564824145835132, -11.609314570806504 ], [ -56.558131846788989, -11.608335209970484 ], [ -56.556715771202512, -11.609423170482041 ], [ -56.556992078634018, -11.609846266236536 ], [ -56.557475616639159, -11.610519765600834 ], [ -56.557937568126228, -11.611353005198971 ], [ -56.55822682746858, -11.611853812418579 ], [ -56.558386567702421, -11.612216465922426 ], [ -56.558697413562868, -11.61305402282418 ], [ -56.558874423011169, -11.613839772082526 ], [ -56.558813980760526, -11.614573713697467 ], [ -56.558857153796701, -11.615229943847295 ], [ -56.558874423011169, -11.615722116459667 ], [ -56.558632654008598, -11.615825731746481 ], [ -56.55824409668304, -11.615532155100505 ], [ -56.558054135323879, -11.614841386521739 ], [ -56.557553328104277, -11.613805233653588 ], [ -56.557233847636596, -11.612898599893958 ], [ -56.556879828739973, -11.612052408384971 ], [ -56.556793482667622, -11.611508428129191 ], [ -56.55644809837824, -11.610834928764895 ], [ -56.555800502835645, -11.610135525578894 ], [ -56.554626196251746, -11.609721064431634 ], [ -56.554013139138085, -11.610040544899313 ], [ -56.554000574238266, -11.610180275155281 ] ] ], [ [ [ -56.563791853153816, -11.618037641246337 ], [ -56.563433470707324, -11.618024117380431 ], [ -56.560890983917105, -11.619335932373257 ], [ -56.563467280372087, -11.619721362551562 ], [ -56.56357547129933, -11.619586123892509 ], [ -56.563791853153816, -11.618037641246337 ] ] ] ] } },
{ "type": "Feature", "properties": { }, "geometry": { "type": "Polygon", "coordinates": [ [ [ -56.563632947729438, -11.620238650422444 ], [ -56.562531571288019, -11.628798797587997 ], [ -56.5653633303478, -11.629119788909987 ], [ -56.575388109347152, -11.630266033020376 ], [ -56.575621243742482, -11.630188321555265 ], [ -56.575686003296745, -11.630000518847913 ], [ -56.575737810940154, -11.629767384452579 ], [ -56.575763714761855, -11.624638427755237 ], [ -56.57575076285098, -11.623699414218473 ], [ -56.575524104411073, -11.623492183644844 ], [ -56.574351956478978, -11.622779828547991 ], [ -56.573603983627294, -11.62231032177961 ], [ -56.573422656875366, -11.622090139295128 ], [ -56.573354659343394, -11.621857004899795 ], [ -56.573328755521814, -11.621481399485134 ], [ -56.567746481944653, -11.620704284834023 ], [ -56.563632947729438, -11.620238650422444 ] ] ] } },
{ "type": "Feature", "properties": { }, "geometry": null },
{ "type": "Feature", "properties": { }, "geometry": { "type": "MultiPolygon", "coordinates": [ [ [ [ -56.568176966673619, -11.619420456535165 ], [ -56.570323880386098, -11.614835865993228 ], [ -56.571213968674577, -11.614854360016466 ], [ -56.571230545963807, -11.61466869437705 ], [ -56.571567295645956, -11.61431899278405 ], [ -56.571839285773848, -11.614150617942975 ], [ -56.572007660614922, -11.614370800427457 ], [ -56.572227843099398, -11.61452622335768 ], [ -56.57249983322729, -11.614344896605754 ], [ -56.573108573037331, -11.613852723993382 ], [ -56.573613697560553, -11.613787964439123 ], [ -56.574067014440367, -11.613930435458494 ], [ -56.574481475587625, -11.614176521764678 ], [ -56.574947744378292, -11.614293088962345 ], [ -56.575569436099187, -11.614344896605754 ], [ -56.575983897246445, -11.614280137051495 ], [ -56.576061608711555, -11.614241281318938 ], [ -56.576054618563525, -11.609855702373553 ], [ -56.565212224721357, -11.609371362838635 ], [ -56.564988108065023, -11.60933856527917 ], [ -56.563959585478543, -11.617762127845278 ], [ -56.564440998717245, -11.61763530623565 ], [ -56.565705480179396, -11.617648830101556 ], [ -56.566909104244978, -11.618149213140056 ], [ -56.56772053619931, -11.618825406435327 ], [ -56.568176966673619, -11.619420456535165 ] ] ], [ [ [ -56.567987632550953, -11.619684171920319 ], [ -56.567345248920446, -11.618676643910366 ], [ -56.566784008485371, -11.618243880201392 ], [ -56.565796766274275, -11.617804354559466 ], [ -56.565174668442623, -11.617777306827655 ], [ -56.564336188756485, -11.61779083069356 ], [ -56.563937234712277, -11.617912545486709 ], [ -56.56371409092484, -11.619745029316894 ], [ -56.566398578307066, -11.620022268567954 ], [ -56.566743436887656, -11.619494837797644 ], [ -56.566973342608044, -11.619515123596502 ], [ -56.567081533535287, -11.619670648054413 ], [ -56.567318201188634, -11.619812648646421 ], [ -56.567494011445405, -11.619826172512326 ], [ -56.567811822294182, -11.619819410579373 ], [ -56.567987632550953, -11.619684171920319 ] ] ] ] } },
{ "type": "Feature", "properties": { }, "geometry": { "type": "MultiPolygon", "coordinates": [ [ [ [ -56.55384432714299, -11.616641081841244 ], [ -56.553889264461404, -11.610285326014935 ], [ -56.553408716631665, -11.610714044263611 ], [ -56.55252798669374, -11.611586139594305 ], [ -56.552061717903072, -11.611741562524527 ], [ -56.551310507073666, -11.611750197131762 ], [ -56.550697449960012, -11.612026504563268 ], [ -56.550265719598279, -11.612251004351368 ], [ -56.549700152824414, -11.612302811994779 ], [ -56.549281374373535, -11.61239779267436 ], [ -56.549043922674585, -11.612622292462458 ], [ -56.548651048045414, -11.612907234501199 ], [ -56.548132971611338, -11.613567781954643 ], [ -56.54745947224702, -11.614936367201324 ], [ -56.547278145495092, -11.615411270599227 ], [ -56.546440588593342, -11.616317904358858 ], [ -56.546388780949933, -11.61744040329935 ], [ -56.546559067023843, -11.617425686314116 ], [ -56.547640976296265, -11.61716197092896 ], [ -56.548675552038034, -11.616796826549512 ], [ -56.550663560326136, -11.616499301499593 ], [ -56.552103852045057, -11.616533111164356 ], [ -56.55384432714299, -11.616641081841244 ] ] ], [ [ [ -56.553838287847427, -11.616732588186462 ], [ -56.550866418314719, -11.616621016292742 ], [ -56.549179316043016, -11.616803588482465 ], [ -56.548225883496684, -11.617060541934668 ], [ -56.547012116531668, -11.617449353079451 ], [ -56.546670638917554, -11.617537258207834 ], [ -56.553770668517892, -11.618389261759877 ], [ -56.553838287847427, -11.616732588186462 ] ] ] ] } },
{ "type": "Feature", "properties": { }, "geometry": { "type": "Polygon", "coordinates": [ [ [ -56.546218434651365, -11.618204999086913 ], [ -56.545144132553517, -11.626646427136752 ], [ -56.545196537533897, -11.626761379996948 ], [ -56.545171301329724, -11.626911488109743 ], [ -56.545566334610704, -11.62693091597602 ], [ -56.554665051984145, -11.627869929512784 ], [ -56.561192815053488, -11.628647044163896 ], [ -56.562410198048426, -11.628785039441272 ], [ -56.563589808543384, -11.620197711948727 ], [ -56.563476676028429, -11.620183924513682 ], [ -56.559988287344368, -11.619758795341834 ], [ -56.54635640117278, -11.617893720179163 ], [ -56.546220406108837, -11.618139806485349 ], [ -56.546218434651365, -11.618204999086913 ] ] ] } },
{ "type": "Feature", "properties": { }, "geometry": { "type": "Polygon", "coordinates": [ [ [ -56.5380660792353, -11.617142530371714 ], [ -56.53756400571357, -11.621203071109816 ], [ -56.537574698358497, -11.621300973986735 ], [ -56.537979752829216, -11.621274168911468 ], [ -56.538462211508445, -11.621319500599448 ], [ -56.538711535792345, -11.621439305774828 ], [ -56.53867268005979, -11.621688630058728 ], [ -56.538562588817548, -11.621950906253478 ], [ -56.537717476634484, -11.62230060784648 ], [ -56.537471390328292, -11.622592025840646 ], [ -56.537374250996905, -11.622980583166203 ], [ -56.5371994002004, -11.62366703444135 ], [ -56.536901506250807, -11.624100923454888 ], [ -56.536642468033776, -11.624495956735871 ], [ -56.536474093192687, -11.625169456100167 ], [ -56.536525900836097, -11.625700484445094 ], [ -56.537167020423261, -11.625927142885002 ], [ -56.538222601157692, -11.626043710082669 ], [ -56.543999153397628, -11.626801396867503 ], [ -56.544588465341384, -11.62685320451091 ], [ -56.544672652761925, -11.626684829669836 ], [ -56.544951118845241, -11.626607118204724 ], [ -56.544995370028559, -11.626484140745887 ], [ -56.546013175535201, -11.618211041995034 ], [ -56.54583184878328, -11.618126854574497 ], [ -56.545818896872426, -11.617880768268311 ], [ -56.544013199267191, -11.617663199209073 ], [ -56.543735960016129, -11.617602341812498 ], [ -56.538120174698903, -11.617047863310376 ], [ -56.5380660792353, -11.617142530371714 ] ] ] } },
{ "type": "Feature", "properties": { }, "geometry": { "type": "Polygon", "coordinates": [ [ [ -56.530551035999878, -11.605158483385846 ], [ -56.530477499978993, -11.608792177106311 ], [ -56.530548593977962, -11.608850048426815 ], [ -56.53072992072989, -11.608927759891927 ], [ -56.530988958946928, -11.608973091579909 ], [ -56.532047777659066, -11.608998995401615 ], [ -56.532410431162923, -11.609105848666143 ], [ -56.532569092070858, -11.60919003608668 ], [ -56.532802226466195, -11.609474978125418 ], [ -56.532750418822786, -11.609802013874427 ], [ -56.532426621051485, -11.610135525578864 ], [ -56.531798453375174, -11.610786359099173 ], [ -56.531328946606791, -11.610825214831728 ], [ -56.530593925665947, -11.611110156870469 ], [ -56.530551036000013, -11.611159910191796 ], [ -56.530026140954547, -11.615508678322012 ], [ -56.530158818802263, -11.61586703673769 ], [ -56.544013199267191, -11.617541484415923 ], [ -56.543973249576034, -11.616345966832363 ], [ -56.543647571435201, -11.606346954976901 ], [ -56.530564733806017, -11.604644699644933 ], [ -56.530538357375711, -11.605089384883499 ], [ -56.530551035999878, -11.605158483385846 ] ] ] } },
{ "type": "Feature", "properties": { }, "geometry": { "type": "Polygon", "coordinates": [ [ [ -56.529893008623873, -11.616208241886142 ], [ -56.529371923941376, -11.620762700226265 ], [ -56.529437967622407, -11.620856469786498 ], [ -56.529956044056476, -11.620843517875645 ], [ -56.530215082273514, -11.621018368672146 ], [ -56.530364029248311, -11.621432829819407 ], [ -56.530441740713421, -11.621808435234112 ], [ -56.530461168579706, -11.622151660871685 ], [ -56.530558307911093, -11.622307083801909 ], [ -56.530700778930459, -11.622320035712759 ], [ -56.530959817147497, -11.62217756469339 ], [ -56.53138723020561, -11.622229372336797 ], [ -56.532008921926504, -11.622459268754417 ], [ -56.533200497724863, -11.622847826079973 ], [ -56.534223698682162, -11.623032390809612 ], [ -56.535648408875886, -11.62298705912163 ], [ -56.536166485309955, -11.622702117082888 ], [ -56.536441713415563, -11.622475458642981 ], [ -56.53672989343201, -11.621672440170162 ], [ -56.53713464064613, -11.621445781730255 ], [ -56.537503018567747, -11.621316112701845 ], [ -56.537902437183206, -11.617019039902662 ], [ -56.530299999239148, -11.615980323145457 ], [ -56.529893008623873, -11.616208241886142 ] ] ] } },
{ "type": "Feature", "properties": { }, "geometry": { "type": "Polygon", "coordinates": [ [ [ -56.529253731648559, -11.620929307264532 ], [ -56.529802997167124, -11.616183181134039 ], [ -56.529584822193151, -11.615917980182706 ], [ -56.519146937104288, -11.614597523082933 ], [ -56.519157388383732, -11.614665456399303 ], [ -56.518924253988395, -11.615041061814008 ], [ -56.518950157810103, -11.616064262771307 ], [ -56.518898350166701, -11.621154363736094 ], [ -56.518788258924452, -11.623634654664231 ], [ -56.5215211121142, -11.623951976480102 ], [ -56.528126586648639, -11.624709663264934 ], [ -56.528715898592402, -11.624644903710674 ], [ -56.528949032987732, -11.622941727433652 ], [ -56.52872237454784, -11.622728020904596 ], [ -56.528100682826953, -11.622430126955003 ], [ -56.528035923272697, -11.622161374804827 ], [ -56.528764468258103, -11.621212647334925 ], [ -56.529159501539091, -11.620966561028739 ], [ -56.529253731648559, -11.620929307264532 ] ] ] } },
{ "type": "Feature", "properties": { }, "geometry": { "type": "Polygon", "coordinates": [ [ [ -56.529952941345918, -11.615398156172503 ], [ -56.530419980038076, -11.611122212508043 ], [ -56.529939854167928, -11.611155488558449 ], [ -56.528923129166053, -11.611045397316207 ], [ -56.528411528687407, -11.611278531711541 ], [ -56.527692697635125, -11.612113929961488 ], [ -56.527213476933603, -11.612599626618433 ], [ -56.526656544766979, -11.61268381403897 ], [ -56.525905333937565, -11.611511666106875 ], [ -56.525872954160434, -11.610902926296838 ], [ -56.525698103363936, -11.61054674874841 ], [ -56.523599893805923, -11.607282867213733 ], [ -56.523211336480365, -11.606829550333918 ], [ -56.522654404313734, -11.606466896830065 ], [ -56.52233060654244, -11.605573214981286 ], [ -56.522239943166475, -11.605456647783619 ], [ -56.519325763224806, -11.60524941720999 ], [ -56.519273955581397, -11.606518704473473 ], [ -56.519105580740323, -11.614328706717155 ], [ -56.51913055016562, -11.614491007981561 ], [ -56.529593722449626, -11.615798738896581 ], [ -56.529952941345918, -11.615398156172503 ] ] ] } },
{ "type": "Feature", "properties": { }, "geometry": { "type": "Polygon", "coordinates": [ [ [ -56.542643639093342, -11.568241539410762 ], [ -56.542963409176274, -11.575573547544909 ], [ -56.542963000529575, -11.575767630133434 ], [ -56.544530181742651, -11.575897149241953 ], [ -56.553156154370001, -11.575910101152806 ], [ -56.553376336854484, -11.575223649877655 ], [ -56.553505855963003, -11.574653765800173 ], [ -56.55322091392425, -11.573151344141356 ], [ -56.553382812809893, -11.57210871531778 ], [ -56.553719562492041, -11.571746061813927 ], [ -56.554198783193563, -11.571493499552316 ], [ -56.554542008831135, -11.571195605602723 ], [ -56.554781619181895, -11.571014278850797 ], [ -56.556037954534517, -11.569660804166778 ], [ -56.556458891637206, -11.568741218496294 ], [ -56.556530127146885, -11.567951151934331 ], [ -56.556581934790294, -11.566649484893716 ], [ -56.556497747369761, -11.5649722124384 ], [ -56.556730881765098, -11.564505943647733 ], [ -56.557326669664285, -11.563741780907472 ], [ -56.557417333040249, -11.563145993008286 ], [ -56.557482092594491, -11.560477899372799 ], [ -56.557397905173957, -11.559059665134516 ], [ -56.556750309631362, -11.559208612109312 ], [ -56.555319123482228, -11.559467650326351 ], [ -56.547664544168768, -11.561054259405704 ], [ -56.547573880792804, -11.563022949855188 ], [ -56.546252785885919, -11.564305189029525 ], [ -56.545397959769687, -11.565444957184491 ], [ -56.544957594800721, -11.566040745083678 ], [ -56.544251715659293, -11.566720720403401 ], [ -56.543617072027551, -11.567484883143658 ], [ -56.542762245911327, -11.568177810374234 ], [ -56.542643639093342, -11.568241539410762 ] ] ] } },
{ "type": "Feature", "properties": { }, "geometry": { "type": "Polygon", "coordinates": [ [ [ -56.543262519326561, -11.594178277345232 ], [ -56.531032505288934, -11.593940619868219 ], [ -56.530621260890676, -11.604607148590695 ], [ -56.543644962028516, -11.606266840639746 ], [ -56.543364509765979, -11.597656359473108 ], [ -56.543262519326561, -11.594178277345232 ] ] ] } },
{ "type": "Feature", "properties": { }, "geometry": { "type": "Polygon", "coordinates": [ [ [ -56.526716729144113, -11.575416893053577 ], [ -56.542243263316806, -11.575786548432923 ], [ -56.54240047825796, -11.575659762190057 ], [ -56.542750408288263, -11.575456904201475 ], [ -56.542643639093342, -11.568241539410762 ], [ -56.542328356897791, -11.568410944769568 ], [ -56.540877742882373, -11.569447097637719 ], [ -56.538721249725533, -11.570891235697701 ], [ -56.537795188099629, -11.571467595730608 ], [ -56.537095784913625, -11.571603590794552 ], [ -56.53608553586718, -11.571998624075535 ], [ -56.535489747967993, -11.572205854649164 ], [ -56.534191318905094, -11.571836725189886 ], [ -56.533647338649317, -11.571726633947645 ], [ -56.533028884906138, -11.571843201145311 ], [ -56.531332184584528, -11.572332135779968 ], [ -56.530082325187323, -11.572953827500857 ], [ -56.528294961489763, -11.574184259031787 ], [ -56.526716729144113, -11.575416893053577 ] ] ] } },
{ "type": "Feature", "properties": { }, "geometry": null },
{ "type": "Feature", "properties": { }, "geometry": { "type": "Polygon", "coordinates": [ [ [ -56.542998416739707, -11.585171840148325 ], [ -56.531382624320116, -11.58485951209313 ], [ -56.531039008355307, -11.593771948526964 ], [ -56.543259083975528, -11.594061124864018 ], [ -56.542998416739707, -11.585171840148325 ] ] ] } },
{ "type": "Feature", "properties": { }, "geometry": { "type": "Polygon", "coordinates": [ [ [ -56.531386341365845, -11.584763102329967 ], [ -56.54299456656986, -11.585040541499092 ], [ -56.542729866134245, -11.576013716439618 ], [ -56.542228048967665, -11.575938691924355 ], [ -56.542106334174512, -11.575900656051498 ], [ -56.531837066141968, -11.575652614250512 ], [ -56.531735219508285, -11.576121264114077 ], [ -56.531719785355691, -11.576114498458146 ], [ -56.531386341365845, -11.584763102329967 ] ] ] } },
{ "type": "Feature", "properties": { }, "geometry": { "type": "Polygon", "coordinates": [ [ [ -56.530332963662126, -11.608779498482026 ], [ -56.530500563861132, -11.605080241291262 ], [ -56.53022392749341, -11.605013313137782 ], [ -56.530214529388104, -11.604601269137971 ], [ -56.525076358208629, -11.603964060217239 ], [ -56.525157361085881, -11.604232692208127 ], [ -56.525743435051915, -11.605123136079191 ], [ -56.527258808621589, -11.607146872149794 ], [ -56.527472515150642, -11.60756780925248 ], [ -56.527537274704905, -11.608267212438481 ], [ -56.527640889991716, -11.608830620560537 ], [ -56.52794525989674, -11.609063754955871 ], [ -56.528320865311443, -11.609102610688428 ], [ -56.53012765687528, -11.60877881291713 ], [ -56.530332963662126, -11.608779498482026 ] ] ] } }
]
}
