{"type":"FeatureCollection","features":[{"type":"Feature","geometry":{"type":"Polygon","coordinates":[[[-56.5023,-12.8832],[-56.502,-12.8865],[-56.5032,-12.8894],[-56.5063,-12.8926],[-56.5093,-12.8952],[-56.5146,-12.8987],[-56.5189,-12.9027],[-56.5197,-12.904],[-56.5206,-12.9076],[-56.523,-12.9115],[-56.5244,-12.9134],[-56.5251,-12.9152],[-56.5271,-12.9185],[-56.5287,-12.9233],[-56.5382,-12.9277],[-56.5396,-12.9305],[-56.5407,-12.9313],[-56.5418,-12.9337],[-56.5424,-12.9363],[-56.5442,-12.9405],[-56.5456,-12.9431],[-56.5464,-12.9473],[-56.549,-12.948],[-56.5513,-12.9479],[-56.553,-12.9471],[-56.5575,-12.9464],[-56.5627,-12.946],[-56.5663,-12.9467],[-56.569,-12.9477],[-56.5727,-12.948],[-56.5753,-12.9488],[-56.5766,-12.95],[-56.5787,-12.951],[-56.5811,-12.9516],[-56.5836,-12.9517],[-56.5876,-12.9513],[-56.5923,-12.9512],[-56.595,-12.9519],[-56.5963,-12.9532],[-56.5966,-12.9546],[-56.599,-12.956],[-56.6025,-12.956],[-56.6076,-12.9572],[-56.6112,-12.9572],[-56.6175,-12.9594],[-56.6219,-12.9597],[-56.6233,-12.9601],[-56.628,-12.9623],[-56.6334,-12.9638],[-56.6341,-12.9642],[-56.6362,-12.967],[-56.6393,-12.9698],[-56.6443,-12.9721],[-56.6467,-12.9737],[-56.6501,-12.9767],[-56.653,-12.9813],[-56.6545,-12.9825],[-56.6559,-12.9828],[-56.6588,-12.983],[-56.6587,-12.9843],[-56.6573,-12.9859],[-56.6575,-12.9885],[-56.6555,-12.9879],[-56.6549,-12.9891],[-56.6533,-12.9881],[-56.6521,-12.989],[-56.6508,-12.9891],[-56.6505,-12.9913],[-56.6497,-12.992],[-56.6481,-12.9919],[-56.6464,-12.9936],[-56.6459,-12.9952],[-56.6431,-12.9974],[-56.6416,-12.9996],[-56.6388,-13.0001],[-56.638,-13.0013],[-56.636,-13.0013],[-56.634,-13.0023],[-56.6343,-13.0041],[-56.6331,-13.0039],[-56.6319,-13.0066],[-56.6307,-13.0058],[-56.6286,-13.0077],[-56.6263,-13.0071],[-56.6243,-13.0089],[-56.6229,-13.0095],[-56.6218,-13.0107],[-56.6203,-13.0108],[-56.6198,-13.0122],[-56.6178,-13.0128],[-56.6172,-13.0145],[-56.6177,-13.0152],[-56.6168,-13.0165],[-56.6158,-13.0163],[-56.6143,-13.0172],[-56.615,-13.0184],[-56.6146,-13.0193],[-56.6122,-13.0188],[-56.6109,-13.0212],[-56.6069,-13.0208],[-56.6058,-13.0212],[-56.6052,-13.0196],[-56.6028,-13.0214],[-56.6017,-13.021],[-56.5991,-13.0192],[-56.5972,-13.0203],[-56.5936,-13.0213],[-56.593,-13.0239],[-56.5922,-13.0242],[-56.59,-13.0283],[-56.5911,-13.0295],[-56.5889,-13.0307],[-56.5873,-13.0299],[-56.5868,-13.0312],[-56.5854,-13.0306],[-56.5843,-13.0317],[-56.5824,-13.0325],[-56.5811,-13.0321],[-56.5789,-13.0327],[-56.5778,-13.0319],[-56.5758,-13.0329],[-56.5735,-13.0313],[-56.5718,-13.031],[-56.5715,-13.0321],[-56.5694,-13.0326],[-56.568,-13.0334],[-56.5667,-13.0328],[-56.5634,-13.0339],[-56.5619,-13.0353],[-56.5589,-13.0344],[-56.5575,-13.0348],[-56.5562,-13.0342],[-56.5558,-13.0354],[-56.5525,-13.0344],[-56.5514,-13.0348],[-56.5481,-13.033],[-56.5466,-13.0333],[-56.5453,-13.0321],[-56.5443,-13.0338],[-56.5423,-13.0323],[-56.5404,-13.0315],[-56.5383,-13.0314],[-56.5358,-13.0297],[-56.5347,-13.0302],[-56.5332,-13.0289],[-56.5316,-13.0298],[-56.5308,-13.0279],[-56.5288,-13.0282],[-56.527,-13.0275],[-56.5255,-13.028],[-56.5239,-13.0262],[-56.5228,-13.0282],[-56.5212,-13.0283],[-56.5199,-13.0299],[-56.5176,-13.0294],[-56.517,-13.0301],[-56.5146,-13.0299],[-56.5128,-13.0309],[-56.512,-13.0324],[-56.5101,-13.0319],[-56.5087,-13.0337],[-56.5073,-13.0343],[-56.5062,-13.0339],[-56.5038,-13.0346],[-56.5032,-13.0363],[-56.504,-13.0376],[-56.503,-13.0392],[-56.5013,-13.0394],[-56.5009,-13.0404],[-56.4989,-13.0408],[-56.4979,-13.0415],[-56.4965,-13.0403],[-56.4947,-13.0413],[-56.4932,-13.0405],[-56.4925,-13.0417],[-56.4912,-13.0423],[-56.4889,-13.0416],[-56.4858,-13.0422],[-56.4833,-13.0408],[-56.4833,-13.0399],[-56.4809,-13.0407],[-56.4788,-13.0405],[-56.4762,-13.0418],[-56.4751,-13.0411],[-56.4743,-13.0421],[-56.4731,-13.0417],[-56.4727,-13.0431],[-56.4717,-13.0431],[-56.4688,-13.0439],[-56.4681,-13.0471],[-56.4664,-13.0469],[-56.4645,-13.0474],[-56.4644,-13.0462],[-56.4626,-13.047],[-56.4619,-13.0463],[-56.4599,-13.046],[-56.4589,-13.0469],[-56.4564,-13.0479],[-56.4568,-13.0495],[-56.4551,-13.051],[-56.4517,-13.0527],[-56.4494,-13.0548],[-56.4483,-13.0573],[-56.4475,-13.0577],[-56.4434,-13.0572],[-56.4431,-13.0593],[-56.4435,-13.0605],[-56.4423,-13.0623],[-56.4423,-13.0636],[-56.441,-13.0636],[-56.4389,-13.0662],[-56.4398,-13.0678],[-56.4397,-13.0687],[-56.4378,-13.0693],[-56.4353,-13.0707],[-56.4362,-13.0733],[-56.4341,-13.0753],[-56.4344,-13.077],[-56.4323,-13.0771],[-56.432,-13.078],[-56.4327,-13.0795],[-56.4319,-13.0806],[-56.4308,-13.0803],[-56.4297,-13.0814],[-56.4306,-13.0848],[-56.429,-13.0846],[-56.428,-13.0851],[-56.4269,-13.0816],[-56.426,-13.0832],[-56.4255,-13.086],[-56.4247,-13.0877],[-56.422,-13.0883],[-56.4216,-13.0901],[-56.4225,-13.0917],[-56.422,-13.0938],[-56.4175,-13.0936],[-56.4167,-13.0953],[-56.413,-13.0942],[-56.4116,-13.0948],[-56.4104,-13.0963],[-56.4103,-13.0975],[-56.4054,-13.0987],[-56.406,-13.0998],[-56.4051,-13.1013],[-56.4042,-13.1013],[-56.4028,-13.1037],[-56.4017,-13.103],[-56.4008,-13.1041],[-56.3995,-13.1039],[-56.3979,-13.1049],[-56.3967,-13.1066],[-56.3924,-13.1065],[-56.3899,-13.1094],[-56.3892,-13.1111],[-56.3904,-13.1119],[-56.3888,-13.1132],[-56.3869,-13.1123],[-56.3842,-13.1121],[-56.3845,-13.1136],[-56.382,-13.1138],[-56.3804,-13.1135],[-56.3782,-13.1122],[-56.3768,-13.1123],[-56.3744,-13.1138],[-56.3738,-13.1131],[-56.3689,-13.111],[-56.3673,-13.112],[-56.3649,-13.1115],[-56.3619,-13.1119],[-56.3605,-13.1101],[-56.357,-13.11],[-56.3531,-13.1116],[-56.3499,-13.1112],[-56.3493,-13.112],[-56.3475,-13.1119],[-56.3456,-13.1114],[-56.3443,-13.1121],[-56.3441,-13.1136],[-56.3431,-13.1142],[-56.3429,-13.1165],[-56.3435,-13.1174],[-56.3421,-13.1187],[-56.341,-13.1214],[-56.3391,-13.1222],[-56.3393,-13.123],[-56.3373,-13.1237],[-56.3368,-13.123],[-56.3331,-13.1259],[-56.3327,-13.1251],[-56.3305,-13.1249],[-56.3306,-13.1261],[-56.3295,-13.1274],[-56.3283,-13.1273],[-56.326,-13.1317],[-56.3237,-13.1332],[-56.3223,-13.1353],[-56.3229,-13.1365],[-56.324,-13.1368],[-56.3244,-13.1386],[-56.3224,-13.1408],[-56.3202,-13.1419],[-56.3196,-13.1439],[-56.3206,-13.1454],[-56.3196,-13.1462],[-56.3187,-13.1455],[-56.3173,-13.1469],[-56.3163,-13.1472],[-56.3149,-13.1496],[-56.3148,-13.151],[-56.3126,-13.1522],[-56.3138,-13.1535],[-56.3135,-13.1543],[-56.3117,-13.1547],[-56.3111,-13.1573],[-56.3097,-13.1577],[-56.3091,-13.1596],[-56.3075,-13.1598],[-56.3067,-13.1612],[-56.3035,-13.1637],[-56.303,-13.1655],[-56.3039,-13.167],[-56.3049,-13.1665],[-56.306,-13.1687],[-56.3061,-13.1703],[-56.3037,-13.171],[-56.2987,-13.1707],[-56.2979,-13.1712],[-56.2963,-13.1709],[-56.2948,-13.1756],[-56.295,-13.1765],[-56.2932,-13.1783],[-56.2935,-13.1795],[-56.295,-13.1798],[-56.2961,-13.1812],[-56.2955,-13.1832],[-56.2958,-13.1848],[-56.2945,-13.1877],[-56.295,-13.1896],[-56.2936,-13.1932],[-56.2925,-13.1939],[-56.2894,-13.1948],[-56.288,-13.1975],[-56.2869,-13.1979],[-56.2844,-13.1975],[-56.2827,-13.1986],[-56.2822,-13.2002],[-56.2817,-13.203],[-56.2824,-13.2042],[-56.2802,-13.2046],[-56.2799,-13.2056],[-56.2813,-13.2065],[-56.2824,-13.2082],[-56.2824,-13.2101],[-56.2833,-13.2109],[-56.2852,-13.2113],[-56.2856,-13.2127],[-56.2808,-13.2134],[-56.2787,-13.2159],[-56.2765,-13.2172],[-56.2751,-13.2153],[-56.2733,-13.2157],[-56.2714,-13.2167],[-56.2707,-13.2178],[-56.2709,-13.2193],[-56.2708,-13.2223],[-56.2689,-13.2225],[-56.2676,-13.2234],[-56.2659,-13.2236],[-56.265,-13.2251],[-56.2633,-13.2264],[-56.2601,-13.228],[-56.2608,-13.2292],[-56.2611,-13.2318],[-56.2595,-13.2342],[-56.2577,-13.2357],[-56.2561,-13.2364],[-56.2503,-13.2354],[-56.2498,-13.2389],[-56.2504,-13.2396],[-56.2518,-13.2388],[-56.2537,-13.2389],[-56.2528,-13.2406],[-56.2498,-13.2412],[-56.2479,-13.2405],[-56.2468,-13.2407],[-56.2445,-13.2431],[-56.2434,-13.2435],[-56.2434,-13.2447],[-56.2446,-13.2449],[-56.245,-13.2472],[-56.244,-13.2484],[-56.2422,-13.2491],[-56.2424,-13.2507],[-56.2403,-13.2507],[-56.2398,-13.252],[-56.2359,-13.2534],[-56.2332,-13.2534],[-56.2326,-13.254],[-56.2329,-13.2558],[-56.2347,-13.2583],[-56.2351,-13.2607],[-56.2331,-13.2654],[-56.2337,-13.2681],[-56.2334,-13.2701],[-56.2312,-13.2752],[-56.2322,-13.2756],[-56.233,-13.279],[-56.2315,-13.2796],[-56.2301,-13.2792],[-56.2302,-13.2774],[-56.2272,-13.2799],[-56.2259,-13.2842],[-56.2267,-13.2853],[-56.2241,-13.2852],[-56.2231,-13.2861],[-56.2208,-13.2872],[-56.2182,-13.2878],[-56.2156,-13.2888],[-56.2123,-13.2912],[-56.2109,-13.2932],[-56.2096,-13.2966],[-56.2092,-13.3001],[-56.2077,-13.3018],[-56.2063,-13.3026],[-56.2045,-13.3058],[-56.2018,-13.3073],[-56.2001,-13.3102],[-56.1995,-13.3135],[-56.1987,-13.3159],[-56.1975,-13.3171],[-56.1975,-13.3179],[-56.1989,-13.3187],[-56.2019,-13.3217],[-56.2039,-13.3251],[-56.2042,-13.3266],[-56.2037,-13.3275],[-56.2002,-13.3303],[-56.1966,-13.3341],[-56.1951,-13.3368],[-56.1939,-13.34],[-56.1933,-13.3433],[-56.1935,-13.3472],[-56.1934,-13.3492],[-56.1926,-13.3501],[-56.1888,-13.3526],[-56.1872,-13.3551],[-56.185,-13.3601],[-56.1822,-13.3638],[-56.1818,-13.3675],[-56.1812,-13.3692],[-56.1772,-13.373],[-56.1742,-13.3766],[-56.1722,-13.3786],[-56.1709,-13.3814],[-56.1686,-13.3853],[-56.167,-13.3875],[-56.1661,-13.3893],[-56.1656,-13.3923],[-56.1635,-13.3934],[-56.1617,-13.3935],[-56.1593,-13.3926],[-56.1579,-13.3927],[-56.1559,-13.3937],[-56.1544,-13.3935],[-56.1537,-13.3923],[-56.1523,-13.3922],[-56.1487,-13.3939],[-56.1448,-13.3953],[-56.1432,-13.3964],[-56.1408,-13.3987],[-56.1393,-13.4014],[-56.1373,-13.4026],[-56.1344,-13.4057],[-56.1316,-13.4074],[-56.1286,-13.408],[-56.1262,-13.4079],[-56.1224,-13.4068],[-56.1163,-13.4068],[-56.112,-13.4072],[-56.1088,-13.409],[-56.1065,-13.4095],[-56.1061,-13.4116],[-56.1054,-13.4124],[-56.1041,-13.4122],[-56.1028,-13.4134],[-56.1025,-13.4161],[-56.1029,-13.4186],[-56.1049,-13.4231],[-56.106,-13.4264],[-56.1093,-13.4306],[-56.1116,-13.4368],[-56.1116,-13.4423],[-56.1103,-13.4465],[-56.11,-13.4484],[-56.0806,-13.452],[-56.0762,-13.4535],[-56.0677,-13.4549],[-56.0639,-13.4546],[-56.0622,-13.4525],[-56.0575,-13.4434],[-56.0556,-13.4403],[-56.0537,-13.436],[-56.0515,-13.433],[-56.049,-13.4317],[-56.0466,-13.4318],[-56.0419,-13.4342],[-56.0374,-13.4356],[-56.0354,-13.4372],[-56.0331,-13.4394],[-56.0278,-13.4439],[-56.0256,-13.4454],[-56.0214,-13.4472],[-56.0191,-13.4478],[-56.0142,-13.4472],[-56.0071,-13.4458],[-56.0034,-13.4458],[-56.0006,-13.446],[-55.9967,-13.4492],[-55.9959,-13.4503],[-55.9944,-13.4541],[-55.9922,-13.4564],[-55.9892,-13.4575],[-55.9853,-13.4565],[-55.9814,-13.4545],[-55.9805,-13.4549],[-55.9772,-13.4534],[-55.9766,-13.4526],[-55.9758,-13.4486],[-55.9769,-13.4452],[-55.9767,-13.4437],[-55.9754,-13.4429],[-55.9755,-13.442],[-55.9773,-13.4419],[-55.9781,-13.4396],[-55.9762,-13.4396],[-55.9747,-13.4387],[-55.9743,-13.4368],[-55.9755,-13.4359],[-55.9763,-13.4343],[-55.9772,-13.4342],[-55.9785,-13.4314],[-55.9768,-13.4298],[-55.9766,-13.4283],[-55.9756,-13.4285],[-55.9744,-13.4276],[-55.9747,-13.4264],[-55.9762,-13.425],[-55.977,-13.4192],[-55.9762,-13.4172],[-55.9762,-13.4155],[-55.9752,-13.4147],[-55.9754,-13.4129],[-55.9726,-13.411],[-55.9713,-13.408],[-55.9689,-13.4078],[-55.9706,-13.4051],[-55.9697,-13.4018],[-55.9678,-13.401],[-55.9687,-13.3986],[-55.9672,-13.397],[-55.9666,-13.3943],[-55.9652,-13.3911],[-55.9642,-13.39],[-55.965,-13.3888],[-55.9663,-13.3882],[-55.9655,-13.3862],[-55.9628,-13.3827],[-55.9626,-13.3809],[-55.9636,-13.3799],[-55.9625,-13.3787],[-55.9628,-13.3772],[-55.9628,-13.3741],[-55.9637,-13.3727],[-55.9658,-13.3719],[-55.9659,-13.3713],[-55.9644,-13.3693],[-55.9629,-13.3699],[-55.9628,-13.3682],[-55.9635,-13.3676],[-55.9661,-13.3676],[-55.9686,-13.3665],[-55.9674,-13.3651],[-55.965,-13.3641],[-55.9666,-13.3635],[-55.9675,-13.3611],[-55.9664,-13.3593],[-55.9685,-13.3588],[-55.9693,-13.3574],[-55.9717,-13.3568],[-55.974,-13.3575],[-55.9728,-13.3555],[-55.9708,-13.3544],[-55.9706,-13.3525],[-55.9716,-13.3518],[-55.9736,-13.3516],[-55.9742,-13.3507],[-55.9717,-13.3503],[-55.9702,-13.3511],[-55.9681,-13.3513],[-55.9673,-13.3523],[-55.9656,-13.353],[-55.9639,-13.3522],[-55.9648,-13.3509],[-55.9663,-13.3515],[-55.9663,-13.3492],[-55.9672,-13.3484],[-55.9644,-13.3472],[-55.9642,-13.346],[-55.9663,-13.3453],[-55.9636,-13.3425],[-55.9645,-13.3415],[-55.9665,-13.3416],[-55.9673,-13.3409],[-55.9669,-13.3364],[-55.968,-13.3321],[-55.9674,-13.3304],[-55.9641,-13.329],[-55.965,-13.3271],[-55.9628,-13.3267],[-55.9599,-13.3254],[-55.9592,-13.3236],[-55.9601,-13.3224],[-55.9566,-13.3223],[-55.9546,-13.3215],[-55.9499,-13.3187],[-55.9482,-13.3181],[-55.9467,-13.317],[-55.9443,-13.3158],[-55.9429,-13.313],[-55.9419,-13.3128],[-55.9411,-13.3139],[-55.9401,-13.3142],[-55.9384,-13.3119],[-55.9336,-13.3101],[-55.9319,-13.3084],[-55.9309,-13.306],[-55.9299,-13.3053],[-55.9287,-13.3065],[-55.9253,-13.3068],[-55.9255,-13.3055],[-55.9246,-13.3047],[-55.922,-13.3046],[-55.9211,-13.3039],[-55.9215,-13.3019],[-55.9203,-13.3007],[-55.9182,-13.3],[-55.917,-13.3024],[-55.9155,-13.3022],[-55.915,-13.3009],[-55.9131,-13.3001],[-55.9123,-13.2982],[-55.9128,-13.2972],[-55.9151,-13.2963],[-55.9134,-13.295],[-55.9128,-13.2937],[-55.9102,-13.2943],[-55.9097,-13.2937],[-55.9103,-13.2915],[-55.9099,-13.2895],[-55.9081,-13.2879],[-55.9072,-13.286],[-55.9076,-13.2837],[-55.9071,-13.2827],[-55.9052,-13.2826],[-55.9053,-13.2798],[-55.9034,-13.2782],[-55.9031,-13.2764],[-55.902,-13.2761],[-55.8981,-13.2775],[-55.896,-13.2773],[-55.8941,-13.2759],[-55.8912,-13.275],[-55.8897,-13.2742],[-55.8885,-13.2729],[-55.8877,-13.2711],[-55.888,-13.268],[-55.8863,-13.2678],[-55.8874,-13.2665],[-55.887,-13.2651],[-55.8847,-13.2635],[-55.8839,-13.2649],[-55.8827,-13.2655],[-55.8819,-13.2645],[-55.8823,-13.2625],[-55.8808,-13.2599],[-55.8811,-13.2584],[-55.8789,-13.2577],[-55.8792,-13.2566],[-55.8832,-13.256],[-55.8849,-13.254],[-55.8848,-13.2523],[-55.8828,-13.2509],[-55.8802,-13.2477],[-55.8762,-13.2443],[-55.876,-13.2433],[-55.8769,-13.2417],[-55.8788,-13.2393],[-55.8821,-13.2375],[-55.884,-13.2359],[-55.8847,-13.2347],[-55.8842,-13.2318],[-55.8824,-13.2279],[-55.8811,-13.2261],[-55.8778,-13.2237],[-55.8772,-13.2222],[-55.8772,-13.2203],[-55.8781,-13.2189],[-55.8803,-13.2171],[-55.8791,-13.2137],[-55.8792,-13.2125],[-55.8815,-13.2086],[-55.8851,-13.2051],[-55.8843,-13.2026],[-55.8887,-13.2003],[-55.8894,-13.1997],[-55.8905,-13.1965],[-55.893,-13.1942],[-55.8965,-13.1927],[-55.8974,-13.1915],[-55.8966,-13.1901],[-55.8929,-13.1916],[-55.8921,-13.1911],[-55.8906,-13.1885],[-55.8901,-13.1869],[-55.8899,-13.1824],[-55.8901,-13.1811],[-55.889,-13.18],[-55.8875,-13.1799],[-55.8859,-13.1769],[-55.886,-13.1741],[-55.8853,-13.1721],[-55.8854,-13.1682],[-55.883,-13.1643],[-55.88,-13.1626],[-55.8797,-13.1612],[-55.8807,-13.1574],[-55.8808,-13.1551],[-55.8836,-13.1529],[-55.8839,-13.1515],[-55.8835,-13.1498],[-55.885,-13.1467],[-55.8891,-13.1424],[-55.889,-13.1405],[-55.8875,-13.1386],[-55.8848,-13.1366],[-55.8829,-13.1318],[-55.8809,-13.13],[-55.8808,-13.1283],[-55.8818,-13.1268],[-55.883,-13.1266],[-55.8863,-13.1278],[-55.8878,-13.1269],[-55.886,-13.1242],[-55.8859,-13.1202],[-55.8849,-13.1167],[-55.885,-13.114],[-55.8863,-13.1105],[-55.8887,-13.1083],[-55.8943,-13.1091],[-55.8947,-13.107],[-55.897,-13.105],[-55.8971,-13.1025],[-55.8966,-13.1013],[-55.8947,-13.101],[-55.8927,-13.1023],[-55.8914,-13.1026],[-55.8887,-13.102],[-55.888,-13.1005],[-55.8885,-13.0989],[-55.8931,-13.0945],[-55.8933,-13.0914],[-55.8918,-13.088],[-55.8895,-13.0844],[-55.8893,-13.0833],[-55.8901,-13.0822],[-55.8929,-13.0806],[-55.8935,-13.0792],[-55.8917,-13.0778],[-55.8902,-13.078],[-55.8888,-13.079],[-55.8872,-13.0817],[-55.8838,-13.0835],[-55.8784,-13.085],[-55.876,-13.0846],[-55.876,-13.0818],[-55.8743,-13.0776],[-55.8748,-13.0758],[-55.8772,-13.0734],[-55.8806,-13.0734],[-55.8816,-13.0741],[-55.8835,-13.0764],[-55.8832,-13.0781],[-55.8837,-13.0788],[-55.8881,-13.0771],[-55.8897,-13.0754],[-55.8892,-13.0739],[-55.8875,-13.073],[-55.8862,-13.0684],[-55.8863,-13.0676],[-55.8852,-13.0658],[-55.885,-13.0647],[-55.8863,-13.0634],[-55.8898,-13.0618],[-55.8905,-13.0597],[-55.8889,-13.0569],[-55.8893,-13.0559],[-55.8922,-13.055],[-55.8941,-13.0564],[-55.8938,-13.0575],[-55.8951,-13.0585],[-55.896,-13.057],[-55.8953,-13.0536],[-55.8926,-13.0519],[-55.8901,-13.0531],[-55.8898,-13.0501],[-55.8903,-13.0461],[-55.8929,-13.0428],[-55.8946,-13.0431],[-55.8951,-13.0449],[-55.8963,-13.0461],[-55.8981,-13.047],[-55.8997,-13.0463],[-55.9008,-13.0444],[-55.9027,-13.0442],[-55.9037,-13.0455],[-55.9039,-13.0471],[-55.9035,-13.0498],[-55.9042,-13.0512],[-55.9064,-13.0522],[-55.9084,-13.0516],[-55.9097,-13.0487],[-55.9095,-13.0469],[-55.9075,-13.0441],[-55.9074,-13.0429],[-55.9082,-13.0414],[-55.9081,-13.0382],[-55.9092,-13.0361],[-55.9088,-13.033],[-55.9068,-13.0288],[-55.9069,-13.0273],[-55.9079,-13.0253],[-55.9082,-13.0233],[-55.9078,-13.0204],[-55.9071,-13.0166],[-55.9074,-13.0142],[-55.907,-13.0122],[-55.907,-13.0097],[-55.906,-13.0073],[-55.9064,-13.0059],[-55.9085,-13.0045],[-55.9094,-13.003],[-55.9118,-13.0004],[-55.912,-12.9994],[-55.9136,-12.9966],[-55.9141,-12.9934],[-55.914,-12.9917],[-55.9146,-12.9908],[-55.9174,-12.9907],[-55.9194,-12.9909],[-55.9206,-12.9894],[-55.9201,-12.9875],[-55.9202,-12.9862],[-55.9218,-12.9828],[-55.9229,-12.978],[-55.9232,-12.9707],[-55.9242,-12.9694],[-55.9209,-12.9686],[-55.9209,-12.9678],[-55.9243,-12.9667],[-55.9291,-12.963],[-55.932,-12.9598],[-55.9323,-12.9571],[-55.9353,-12.9554],[-55.9354,-12.9533],[-55.9375,-12.9511],[-55.9379,-12.9452],[-55.9395,-12.942],[-55.9379,-12.9403],[-55.9368,-12.9381],[-55.9397,-12.9363],[-55.9435,-12.9349],[-55.9445,-12.9343],[-55.9458,-12.9311],[-55.9477,-12.9301],[-55.9481,-12.9287],[-55.9474,-12.9274],[-55.9474,-12.9255],[-55.9459,-12.9242],[-55.9453,-12.9224],[-55.9456,-12.9195],[-55.9465,-12.9177],[-55.9481,-12.9166],[-55.9504,-12.9166],[-55.952,-12.9157],[-55.9538,-12.9129],[-55.9559,-12.9116],[-55.9574,-12.9115],[-55.9581,-12.9123],[-55.9568,-12.9143],[-55.9584,-12.9162],[-55.9599,-12.9165],[-55.9623,-12.9133],[-55.9621,-12.9112],[-55.9608,-12.9102],[-55.9585,-12.9091],[-55.958,-12.908],[-55.9585,-12.9064],[-55.9605,-12.9047],[-55.9615,-12.9011],[-55.9629,-12.9005],[-55.9654,-12.9004],[-55.9674,-12.897],[-55.9703,-12.897],[-55.9727,-12.8983],[-55.974,-12.8983],[-55.9763,-12.8997],[-55.978,-12.9],[-55.9812,-12.8974],[-55.9816,-12.8954],[-55.9791,-12.8941],[-55.9773,-12.8938],[-55.9748,-12.8926],[-55.9743,-12.8912],[-55.9747,-12.8896],[-55.9742,-12.8883],[-55.9746,-12.8867],[-55.9767,-12.8851],[-55.9802,-12.8833],[-55.9809,-12.8823],[-55.9847,-12.8797],[-55.9868,-12.8787],[-55.9899,-12.8768],[-55.9929,-12.8734],[-55.995,-12.8732],[-55.9974,-12.8737],[-55.9986,-12.8734],[-55.9988,-12.8717],[-55.9949,-12.8695],[-55.9931,-12.8704],[-55.9922,-12.8682],[-55.9922,-12.8643],[-55.9905,-12.8617],[-55.9894,-12.8572],[-55.9887,-12.8564],[-55.987,-12.8567],[-55.9851,-12.8559],[-55.984,-12.8537],[-55.9838,-12.8518],[-55.9846,-12.8502],[-55.9855,-12.8497],[-55.9875,-12.8502],[-55.9897,-12.8496],[-55.9922,-12.8496],[-55.9951,-12.8502],[-55.9953,-12.8478],[-55.9944,-12.8461],[-55.9922,-12.844],[-55.9918,-12.8425],[-55.9932,-12.8386],[-55.9951,-12.8378],[-55.9975,-12.8383],[-55.9989,-12.8377],[-55.9996,-12.8364],[-55.9998,-12.8301],[-55.9973,-12.8265],[-55.9948,-12.8238],[-55.9918,-12.821],[-55.9918,-12.8191],[-55.9941,-12.8165],[-55.9971,-12.8164],[-55.9983,-12.8161],[-55.999,-12.8144],[-55.9983,-12.8132],[-55.9985,-12.8118],[-56.0001,-12.8089],[-56.0001,-12.8076],[-55.9991,-12.8058],[-55.9984,-12.8037],[-55.9995,-12.8028],[-55.9984,-12.7995],[-55.997,-12.7996],[-55.9959,-12.7981],[-55.9957,-12.7944],[-55.9967,-12.7946],[-55.998,-12.7958],[-56.0007,-12.7943],[-56.0037,-12.795],[-56.0056,-12.7945],[-56.0087,-12.793],[-56.0126,-12.7931],[-56.0125,-12.7911],[-56.0115,-12.789],[-56.0116,-12.7866],[-56.0125,-12.7844],[-56.0114,-12.7793],[-56.0113,-12.777],[-56.0119,-12.7732],[-56.0126,-12.7712],[-56.0148,-12.7692],[-56.0175,-12.7691],[-56.0203,-12.7726],[-56.0219,-12.7723],[-56.0218,-12.7689],[-56.0224,-12.768],[-56.0257,-12.7659],[-56.028,-12.7669],[-56.0314,-12.7659],[-56.0335,-12.7695],[-56.0337,-12.771],[-56.0352,-12.772],[-56.0361,-12.7737],[-56.0361,-12.7764],[-56.0378,-12.7768],[-56.0399,-12.7765],[-56.0404,-12.7743],[-56.0389,-12.7724],[-56.0397,-12.7702],[-56.0393,-12.7685],[-56.0369,-12.7666],[-56.0354,-12.7644],[-56.0349,-12.7626],[-56.0351,-12.7604],[-56.0334,-12.7589],[-56.0332,-12.7576],[-56.0342,-12.7566],[-56.0341,-12.7545],[-56.0329,-12.7525],[-56.0327,-12.7501],[-56.033,-12.7479],[-56.0325,-12.7459],[-56.0327,-12.7437],[-56.0306,-12.7417],[-56.0257,-12.7406],[-56.0232,-12.7381],[-56.0237,-12.7361],[-56.026,-12.7341],[-56.0273,-12.7341],[-56.0283,-12.7353],[-56.0299,-12.7353],[-56.0327,-12.736],[-56.034,-12.7357],[-56.0366,-12.7328],[-56.0353,-12.7275],[-56.0354,-12.7266],[-56.0377,-12.722],[-56.0384,-12.7188],[-56.0402,-12.717],[-56.0408,-12.7152],[-56.0407,-12.7135],[-56.0395,-12.7103],[-56.0382,-12.7086],[-56.0378,-12.706],[-56.0402,-12.7037],[-56.0407,-12.7021],[-56.0405,-12.7005],[-56.0416,-12.6986],[-56.0431,-12.6986],[-56.0457,-12.6997],[-56.0475,-12.7026],[-56.0519,-12.7039],[-56.0539,-12.7034],[-56.0552,-12.7021],[-56.0552,-12.7001],[-56.0539,-12.6984],[-56.0517,-12.6965],[-56.0509,-12.6944],[-56.054,-12.6928],[-56.0548,-12.6919],[-56.0547,-12.6877],[-56.0555,-12.6857],[-56.0572,-12.6843],[-56.0588,-12.684],[-56.0605,-12.6855],[-56.0628,-12.6843],[-56.0661,-12.6837],[-56.0688,-12.6811],[-56.0708,-12.6789],[-56.0728,-12.6778],[-56.075,-12.6774],[-56.0765,-12.6778],[-56.0779,-12.6794],[-56.084,-12.683],[-56.0839,-12.6841],[-56.0828,-12.6846],[-56.0782,-12.6839],[-56.0759,-12.6842],[-56.0761,-12.6859],[-56.0773,-12.6873],[-56.0803,-12.6889],[-56.0816,-12.6925],[-56.0822,-12.6933],[-56.0838,-12.6931],[-56.0866,-12.689],[-56.0887,-12.6878],[-56.0914,-12.6845],[-56.0947,-12.6823],[-56.0953,-12.6743],[-56.0951,-12.6713],[-56.0938,-12.6696],[-56.0919,-12.6688],[-56.0904,-12.6674],[-56.0892,-12.6646],[-56.0891,-12.6635],[-56.093,-12.6598],[-56.0949,-12.6558],[-56.0973,-12.6539],[-56.0991,-12.6537],[-56.1006,-12.654],[-56.1029,-12.6554],[-56.1046,-12.6554],[-56.1058,-12.6541],[-56.1055,-12.6519],[-56.1046,-12.6487],[-56.1059,-12.6463],[-56.1075,-12.6456],[-56.1097,-12.6467],[-56.111,-12.6464],[-56.1122,-12.6451],[-56.1154,-12.643],[-56.1163,-12.6413],[-56.1167,-12.6382],[-56.1197,-12.6385],[-56.1206,-12.6409],[-56.1214,-12.642],[-56.1226,-12.6408],[-56.1236,-12.6423],[-56.125,-12.6429],[-56.1255,-12.644],[-56.1267,-12.6439],[-56.1293,-12.646],[-56.1321,-12.6458],[-56.133,-12.6466],[-56.1343,-12.6465],[-56.1351,-12.6455],[-56.1375,-12.6464],[-56.1374,-12.6476],[-56.1387,-12.6482],[-56.1378,-12.6498],[-56.1398,-12.6516],[-56.1424,-12.6521],[-56.1473,-12.6514],[-56.1489,-12.6525],[-56.1496,-12.6546],[-56.1505,-12.6548],[-56.1513,-12.6524],[-56.1526,-12.6522],[-56.1553,-12.6532],[-56.1579,-12.6551],[-56.1599,-12.658],[-56.1607,-12.6599],[-56.1599,-12.6611],[-56.1611,-12.6633],[-56.1633,-12.6661],[-56.1639,-12.6682],[-56.1655,-12.6692],[-56.1668,-12.6723],[-56.1693,-12.6732],[-56.1713,-12.6745],[-56.1727,-12.6745],[-56.1745,-12.6763],[-56.1759,-12.6814],[-56.1756,-12.6827],[-56.1767,-12.684],[-56.1764,-12.6851],[-56.1775,-12.686],[-56.1795,-12.6883],[-56.1799,-12.6896],[-56.1822,-12.6907],[-56.184,-12.691],[-56.1853,-12.692],[-56.1867,-12.6913],[-56.1893,-12.692],[-56.1903,-12.6903],[-56.1923,-12.6905],[-56.1951,-12.6886],[-56.1963,-12.69],[-56.1997,-12.6914],[-56.2003,-12.6924],[-56.2017,-12.6925],[-56.2023,-12.6936],[-56.2048,-12.6934],[-56.2045,-12.6964],[-56.2057,-12.6969],[-56.2079,-12.6962],[-56.2122,-12.6973],[-56.2134,-12.697],[-56.2152,-12.6976],[-56.2168,-12.6967],[-56.218,-12.695],[-56.2206,-12.6937],[-56.2221,-12.6925],[-56.2236,-12.6922],[-56.2283,-12.6919],[-56.2305,-12.6912],[-56.2334,-12.6922],[-56.2348,-12.6934],[-56.2385,-12.6933],[-56.2412,-12.6941],[-56.2461,-12.6976],[-56.2493,-12.7015],[-56.2536,-12.7027],[-56.2551,-12.7023],[-56.2595,-12.702],[-56.2618,-12.701],[-56.2647,-12.7022],[-56.2685,-12.7021],[-56.2712,-12.705],[-56.2734,-12.7063],[-56.2763,-12.7089],[-56.2787,-12.7119],[-56.2821,-12.7145],[-56.2838,-12.7153],[-56.2853,-12.7166],[-56.2872,-12.7194],[-56.2873,-12.7213],[-56.2882,-12.7228],[-56.2892,-12.7255],[-56.2905,-12.7273],[-56.2917,-12.7279],[-56.2935,-12.7278],[-56.2948,-12.7285],[-56.2973,-12.7312],[-56.2969,-12.7331],[-56.2972,-12.7374],[-56.2994,-12.7392],[-56.3011,-12.7444],[-56.3035,-12.7468],[-56.3059,-12.7482],[-56.3027,-12.7523],[-56.3012,-12.7571],[-56.3012,-12.7603],[-56.3024,-12.7618],[-56.3043,-12.7628],[-56.3069,-12.7618],[-56.3078,-12.7619],[-56.3095,-12.7632],[-56.3113,-12.7658],[-56.3129,-12.7669],[-56.3156,-12.7673],[-56.3197,-12.77],[-56.321,-12.7704],[-56.3234,-12.7703],[-56.3255,-12.7713],[-56.3267,-12.7732],[-56.3294,-12.7752],[-56.3344,-12.7773],[-56.3371,-12.7825],[-56.338,-12.786],[-56.3389,-12.7936],[-56.339,-12.798],[-56.3387,-12.8013],[-56.3389,-12.8062],[-56.3411,-12.8126],[-56.3428,-12.8152],[-56.3444,-12.8182],[-56.3464,-12.8206],[-56.349,-12.8226],[-56.353,-12.8244],[-56.3571,-12.8273],[-56.3591,-12.8297],[-56.3619,-12.8324],[-56.3649,-12.8364],[-56.3669,-12.8386],[-56.3703,-12.8438],[-56.3733,-12.8512],[-56.3738,-12.8537],[-56.3764,-12.8584],[-56.3768,-12.8605],[-56.3765,-12.8651],[-56.3772,-12.8668],[-56.3771,-12.8726],[-56.3775,-12.8756],[-56.3783,-12.8784],[-56.3794,-12.8805],[-56.3814,-12.8822],[-56.3847,-12.8842],[-56.3877,-12.8864],[-56.3892,-12.8878],[-56.3917,-12.8892],[-56.3968,-12.8896],[-56.4016,-12.889],[-56.4025,-12.8886],[-56.4042,-12.8867],[-56.4061,-12.8829],[-56.4093,-12.8775],[-56.4111,-12.8749],[-56.4127,-12.8686],[-56.4144,-12.8638],[-56.4148,-12.8615],[-56.4161,-12.8586],[-56.4185,-12.8519],[-56.4182,-12.8489],[-56.4606,-12.901],[-56.5023,-12.8832]]]},"properties":{"codarea":"5105259"}}]}