{"type":"FeatureCollection","features":[{"type":"Feature","geometry":{"type":"Polygon","coordinates":[[[-56.2723,-9.4008],[-56.6719,-9.3674],[-56.6916,-9.3712],[-56.6979,-9.3741],[-56.7084,-9.3732],[-56.7163,-9.3775],[-56.7183,-9.3839],[-56.7377,-9.3968],[-56.7543,-9.4064],[-56.7611,-9.405],[-56.7723,-9.391],[-56.7701,-9.3755],[-56.7756,-9.3662],[-56.7768,-9.3522],[-56.7755,-9.3295],[-56.7792,-9.3172],[-56.7852,-9.3166],[-56.7922,-9.2936],[-56.8003,-9.2805],[-56.8034,-9.2675],[-56.8125,-9.2536],[-56.8201,-9.2463],[-56.8442,-9.2408],[-56.8603,-9.2316],[-56.8724,-9.2392],[-56.8795,-9.2397],[-56.8954,-9.2354],[-56.9417,-9.2293],[-56.9493,-9.224],[-56.964,-9.2245],[-56.9726,-9.2294],[-56.9856,-9.2302],[-56.9955,-9.2338],[-57.0082,-9.2233],[-57.0226,-9.2197],[-57.034,-9.2097],[-57.0393,-9.197],[-57.0473,-9.1943],[-57.0598,-9.1824],[-57.0586,-9.1696],[-57.0524,-9.1585],[-57.0604,-9.1371],[-57.0415,-9.1151],[-57.0392,-9.0983],[-57.0463,-9.089],[-57.0632,-9.0786],[-57.0596,-9.0643],[-57.0763,-9.0545],[-57.09,-9.0382],[-57.0946,-9.0171],[-57.1079,-9.0117],[-57.1383,-8.9946],[-57.1475,-8.9822],[-57.1623,-8.9691],[-57.1823,-8.9407],[-57.1889,-8.9332],[-57.2038,-8.9208],[-57.2163,-8.9141],[-57.2355,-8.9074],[-57.2455,-8.9061],[-57.2624,-8.9078],[-57.2895,-8.9158],[-57.306,-8.9099],[-57.312,-8.8899],[-57.3179,-8.8857],[-57.3496,-8.8808],[-57.3771,-8.8818],[-57.3844,-8.8796],[-57.4034,-8.8625],[-57.4162,-8.859],[-57.4199,-8.853],[-57.4197,-8.8425],[-57.4142,-8.8305],[-57.414,-8.8125],[-57.4175,-8.7926],[-57.4276,-8.7832],[-57.4395,-8.7829],[-57.4496,-8.7862],[-57.4635,-8.7847],[-57.4849,-8.7694],[-57.5072,-8.761],[-57.523,-8.7497],[-57.5304,-8.7482],[-57.5442,-8.7521],[-57.5624,-8.7613],[-57.5863,-8.7594],[-57.5929,-8.7565],[-57.5969,-8.7452],[-57.6011,-8.7412],[-57.5936,-8.7074],[-57.5982,-8.688],[-57.6033,-8.6786],[-57.6053,-8.6628],[-57.6106,-8.6593],[-57.6226,-8.645],[-57.6247,-8.6388],[-57.6251,-8.6214],[-57.6209,-8.6035],[-57.6222,-8.5912],[-57.6309,-8.5854],[-57.6448,-8.582],[-57.6486,-8.5764],[-57.6474,-8.5669],[-57.6505,-8.5534],[-57.6388,-8.5406],[-57.6334,-8.5268],[-57.6376,-8.5136],[-57.6591,-8.5004],[-57.6595,-8.49],[-57.6518,-8.4788],[-57.654,-8.4651],[-57.6639,-8.4569],[-57.6831,-8.4301],[-57.6869,-8.4163],[-57.6866,-8.407],[-57.6702,-8.3793],[-57.6678,-8.3639],[-57.6764,-8.341],[-57.6802,-8.3269],[-57.6779,-8.3121],[-57.6691,-8.3014],[-57.6638,-8.291],[-57.6631,-8.2685],[-57.6591,-8.2582],[-57.6455,-8.2348],[-57.6417,-8.2199],[-57.6456,-8.2063],[-57.6582,-8.1865],[-57.6729,-8.1726],[-57.6931,-8.1707],[-57.7046,-8.168],[-57.7151,-8.1579],[-57.7187,-8.1512],[-57.7257,-8.1183],[-57.7267,-8.098],[-57.7325,-8.0892],[-57.7497,-8.0738],[-57.7765,-8.0522],[-57.7916,-8.0274],[-57.8019,-8.0067],[-57.817,-7.9905],[-57.8288,-7.9729],[-57.8319,-7.9615],[-57.8322,-7.9328],[-57.8338,-7.9085],[-57.8332,-7.8949],[-57.835,-7.8814],[-57.841,-7.8615],[-57.8547,-7.8337],[-57.8684,-7.8127],[-57.8738,-7.8012],[-57.8796,-7.7819],[-57.883,-7.7467],[-57.8873,-7.7276],[-57.8891,-7.7122],[-57.8967,-7.6779],[-57.9014,-7.6683],[-57.9162,-7.6573],[-57.9344,-7.6568],[-57.9396,-7.6531],[-57.9422,-7.6427],[-57.9423,-7.6188],[-57.9451,-7.6022],[-57.9521,-7.5801],[-57.9644,-7.5548],[-57.9726,-7.5346],[-57.9872,-7.5151],[-57.9938,-7.5004],[-58.0022,-7.4881],[-58.0196,-7.4726],[-58.0351,-7.4541],[-58.0398,-7.4463],[-58.0483,-7.4222],[-58.0614,-7.3952],[-58.069,-7.3887],[-58.0916,-7.3742],[-58.1134,-7.3566],[-58.1214,-7.3518],[-58.1384,-7.349],[-58.1371,-7.3561],[-58.1466,-7.3704],[-58.1606,-7.3818],[-58.1734,-7.3944],[-58.2,-7.4346],[-58.2131,-7.4585],[-58.2141,-7.4666],[-58.2119,-7.4843],[-58.2131,-7.4933],[-58.2227,-7.524],[-58.2208,-7.5421],[-58.2167,-7.5579],[-58.2044,-7.5887],[-58.2005,-7.6126],[-58.2022,-7.6209],[-58.2398,-7.6536],[-58.2518,-7.6768],[-58.276,-7.6997],[-58.2826,-7.7149],[-58.2831,-7.7409],[-58.2898,-7.7643],[-58.3004,-7.7775],[-58.3142,-7.7871],[-58.3341,-7.8044],[-58.3405,-7.8083],[-58.3646,-7.8168],[-58.3782,-7.8274],[-58.3847,-7.844],[-58.384,-7.8521],[-58.3747,-7.8648],[-58.3736,-7.8725],[-58.3751,-7.899],[-58.3732,-7.9072],[-58.3647,-7.9212],[-58.355,-7.944],[-58.3315,-7.9688],[-58.3245,-7.9927],[-58.3255,-8.0097],[-58.3217,-8.025],[-58.3099,-8.0452],[-58.2931,-8.0709],[-58.2864,-8.0885],[-58.2921,-8.1041],[-58.2919,-8.1127],[-58.2872,-8.1285],[-58.2902,-8.1356],[-58.3174,-8.1545],[-58.3225,-8.17],[-58.3219,-8.1784],[-58.3175,-8.1853],[-58.3129,-8.2091],[-58.3205,-8.2241],[-58.3222,-8.2321],[-58.3201,-8.2479],[-58.3218,-8.2558],[-58.3206,-8.2719],[-58.3281,-8.2858],[-58.326,-8.2941],[-58.3158,-8.3064],[-58.3149,-8.3231],[-58.3186,-8.3301],[-58.3256,-8.3347],[-58.3448,-8.3407],[-58.3525,-8.3526],[-58.3497,-8.3684],[-58.355,-8.3819],[-58.3546,-8.3928],[-58.3612,-8.3993],[-58.3681,-8.4142],[-58.3811,-8.4322],[-58.3902,-8.439],[-58.3962,-8.4501],[-58.397,-8.4604],[-58.4046,-8.4637],[-58.4178,-8.4895],[-58.42,-8.5022],[-58.4152,-8.5234],[-58.4076,-8.5284],[-58.4051,-8.5376],[-58.4104,-8.5577],[-58.4105,-8.5704],[-58.3985,-8.5801],[-58.3895,-8.5948],[-58.3909,-8.603],[-58.3975,-8.6082],[-58.4011,-8.6159],[-58.4035,-8.6312],[-58.4143,-8.6439],[-58.4247,-8.674],[-58.4331,-8.6881],[-58.4373,-8.7034],[-58.4335,-8.7104],[-58.412,-8.7206],[-58.4042,-8.718],[-58.3911,-8.7087],[-58.3759,-8.7037],[-58.351,-8.7016],[-58.3284,-8.7122],[-58.3262,-8.72],[-58.3321,-8.7265],[-58.3484,-8.7326],[-58.3661,-8.7491],[-58.388,-8.7748],[-58.4159,-8.7928],[-58.4227,-8.7887],[-58.4301,-8.7899],[-58.4419,-8.7987],[-58.4429,-8.7994],[-58.5579,-8.8002],[-58.9628,-8.8028],[-59.1274,-8.8033],[-59.2888,-8.8033],[-59.4814,-8.8033],[-60.0005,-8.8009],[-60.0852,-8.8],[-60.3301,-8.7975],[-60.4202,-8.7966],[-60.5151,-8.797],[-60.8352,-8.7981],[-61.0144,-8.7984],[-61.1846,-8.7986],[-61.3104,-8.7985],[-61.4666,-8.7986],[-61.5831,-8.7987],[-61.5801,-8.8027],[-61.5684,-8.8011],[-61.5632,-8.8067],[-61.5532,-8.8095],[-61.5431,-8.8191],[-61.5332,-8.8202],[-61.5272,-8.8169],[-61.5208,-8.8216],[-61.5205,-8.8276],[-61.5137,-8.837],[-61.5144,-8.849],[-61.5125,-8.8606],[-61.5052,-8.8721],[-61.4921,-8.8848],[-61.4846,-8.9059],[-61.4703,-8.9151],[-61.4692,-8.9201],[-61.4895,-8.9373],[-61.5057,-8.9662],[-61.512,-8.9802],[-61.5137,-8.9901],[-61.519,-8.9962],[-61.5226,-9.0101],[-61.528,-9.0194],[-61.5299,-9.0394],[-61.5416,-9.054],[-61.5461,-9.0653],[-61.5494,-9.0811],[-61.5558,-9.0924],[-61.5564,-9.1069],[-61.5589,-9.1176],[-61.5554,-9.1315],[-61.5395,-9.152],[-61.5319,-9.171],[-61.5236,-9.179],[-61.5196,-9.1973],[-61.5222,-9.2124],[-61.5274,-9.2265],[-61.5249,-9.2429],[-61.5293,-9.2487],[-61.5391,-9.244],[-61.552,-9.2439],[-61.5684,-9.2371],[-61.577,-9.2375],[-61.5891,-9.2437],[-61.5996,-9.256],[-61.6164,-9.2556],[-61.6283,-9.2571],[-61.6325,-9.2643],[-61.6334,-9.2743],[-61.6253,-9.2841],[-61.6154,-9.2787],[-61.612,-9.2807],[-61.6154,-9.3062],[-61.6113,-9.3157],[-61.6162,-9.3268],[-61.6237,-9.3345],[-61.6279,-9.3516],[-61.6259,-9.363],[-61.6148,-9.3563],[-61.6101,-9.3625],[-61.5946,-9.3687],[-61.5794,-9.3684],[-61.5633,-9.3782],[-61.5589,-9.3855],[-61.5603,-9.4035],[-61.5505,-9.4147],[-61.5559,-9.4218],[-61.5567,-9.4356],[-61.5647,-9.4384],[-61.5817,-9.4591],[-61.5725,-9.4636],[-61.5785,-9.4695],[-61.5691,-9.4769],[-61.5627,-9.4858],[-61.5499,-9.4895],[-61.5386,-9.4972],[-61.5265,-9.5011],[-61.5491,-9.5125],[-61.5447,-9.5202],[-61.5362,-9.5244],[-61.5271,-9.5333],[-61.5134,-9.5285],[-61.5141,-9.5392],[-61.508,-9.5405],[-61.5104,-9.5651],[-61.5032,-9.573],[-61.4965,-9.5744],[-61.4949,-9.5849],[-61.5011,-9.6092],[-61.5037,-9.6126],[-61.4969,-9.6241],[-61.4875,-9.6265],[-61.4786,-9.6243],[-61.477,-9.6299],[-61.481,-9.64],[-61.4862,-9.6447],[-61.495,-9.6599],[-61.5069,-9.662],[-61.5021,-9.6828],[-61.5053,-9.6914],[-61.5197,-9.697],[-61.5324,-9.7118],[-61.5461,-9.7154],[-61.5531,-9.7072],[-61.5746,-9.7178],[-61.5668,-9.7294],[-61.5552,-9.7291],[-61.5394,-9.7381],[-61.5315,-9.7399],[-61.5326,-9.758],[-61.5462,-9.7848],[-61.5384,-9.7934],[-61.5249,-9.7957],[-61.5253,-9.8076],[-61.5313,-9.8216],[-61.5197,-9.8215],[-61.5163,-9.8279],[-61.5165,-9.8382],[-61.5127,-9.8535],[-61.5079,-9.8611],[-61.5103,-9.879],[-61.5084,-9.8888],[-61.5111,-9.8956],[-61.525,-9.9066],[-61.5261,-9.9148],[-61.5231,-9.928],[-61.5287,-9.9361],[-61.5228,-9.9467],[-61.5324,-9.9526],[-61.5394,-9.9641],[-61.528,-9.9704],[-61.5312,-9.9899],[-61.5402,-10.0002],[-61.5455,-10.0188],[-61.5559,-10.039],[-61.5717,-10.0465],[-61.5849,-10.0616],[-61.5799,-10.0692],[-61.5787,-10.0792],[-61.5831,-10.0825],[-61.5833,-10.0957],[-61.5887,-10.1041],[-61.592,-10.1172],[-61.5902,-10.1215],[-61.5956,-10.1366],[-61.5955,-10.1442],[-61.6012,-10.1501],[-61.6016,-10.1566],[-61.5968,-10.1624],[-61.5786,-10.1632],[-61.5724,-10.1688],[-61.5625,-10.1719],[-61.5578,-10.1823],[-61.5598,-10.1931],[-61.5523,-10.1994],[-61.5657,-10.203],[-61.574,-10.209],[-61.5736,-10.2193],[-61.5776,-10.2266],[-61.5755,-10.241],[-61.5767,-10.2486],[-61.5719,-10.2592],[-61.5546,-10.2796],[-61.5516,-10.2902],[-61.5454,-10.2985],[-61.5462,-10.3043],[-61.5533,-10.307],[-61.5481,-10.3164],[-61.5409,-10.3202],[-61.5376,-10.3278],[-61.5301,-10.3333],[-61.5215,-10.3308],[-61.5148,-10.3368],[-61.5132,-10.3486],[-61.5017,-10.3538],[-61.5031,-10.3759],[-61.4957,-10.3902],[-61.4896,-10.3903],[-61.4841,-10.4002],[-61.4715,-10.4051],[-61.4769,-10.4106],[-61.4618,-10.4199],[-61.4661,-10.4352],[-61.4671,-10.4485],[-61.4761,-10.4547],[-61.4702,-10.4614],[-61.4735,-10.475],[-61.4808,-10.4877],[-61.479,-10.5006],[-61.481,-10.5164],[-61.478,-10.5316],[-61.4663,-10.5412],[-61.4701,-10.5565],[-61.48,-10.5692],[-61.481,-10.5765],[-61.4779,-10.592],[-61.4815,-10.5968],[-61.4762,-10.6077],[-61.4815,-10.6196],[-61.4896,-10.6311],[-61.479,-10.643],[-61.4824,-10.6533],[-61.4805,-10.6594],[-61.4845,-10.6738],[-61.4906,-10.6732],[-61.498,-10.6863],[-61.4994,-10.6986],[-61.4943,-10.7053],[-61.4858,-10.708],[-61.4764,-10.7225],[-61.4853,-10.7263],[-61.4884,-10.7365],[-61.4809,-10.7442],[-61.4815,-10.7602],[-61.4764,-10.7678],[-61.4796,-10.7877],[-61.4738,-10.7975],[-61.486,-10.8006],[-61.4918,-10.7959],[-61.4933,-10.7845],[-61.5053,-10.7848],[-61.5109,-10.7937],[-61.5034,-10.8084],[-61.5125,-10.8222],[-61.509,-10.8322],[-61.5122,-10.8387],[-61.5205,-10.8419],[-61.5251,-10.8558],[-61.5229,-10.8789],[-61.5255,-10.8871],[-61.5206,-10.8903],[-61.52,-10.8987],[-61.5244,-10.9034],[-61.5147,-10.9116],[-61.5205,-10.9194],[-61.5233,-10.9403],[-61.5195,-10.9497],[-61.5258,-10.955],[-61.5301,-10.979],[-61.5386,-10.9759],[-61.5468,-10.9776],[-61.5503,-10.9861],[-61.429,-10.9875],[-61.372,-10.9882],[-61.1032,-10.9911],[-61.0006,-10.9922],[-61.0006,-10.9884],[-60.7952,-10.9891],[-60.4912,-10.99],[-60.4601,-10.9899],[-60.4525,-10.9933],[-60.4502,-11.0085],[-60.445,-11.0111],[-60.4384,-11.0238],[-60.4438,-11.0278],[-60.4466,-11.0422],[-60.4357,-11.0418],[-60.4297,-11.0375],[-60.4182,-11.0409],[-60.4115,-11.0468],[-60.4148,-11.059],[-60.4144,-11.0675],[-60.4041,-11.0694],[-60.3959,-11.0804],[-60.3916,-11.0938],[-60.3837,-11.0962],[-60.3732,-11.0941],[-60.3703,-11.099],[-60.3557,-11.1038],[-60.35,-11.1083],[-60.342,-11.0826],[-60.3345,-11.0829],[-60.3277,-11.0781],[-60.3175,-11.0651],[-60.3092,-11.064],[-60.3012,-11.0572],[-60.2914,-11.0655],[-60.2824,-11.064],[-60.278,-11.0796],[-60.2808,-11.0915],[-60.271,-11.0987],[-60.2652,-11.0937],[-60.2412,-11.0969],[-60.2389,-11.0949],[-60.2275,-11.1054],[-60.2106,-11.1068],[-60.2072,-11.1118],[-60.1915,-11.1141],[-60.1856,-11.1044],[-60.1764,-11.0988],[-60.1674,-11.0992],[-60.1593,-11.0957],[-60.1462,-11.1041],[-60.1306,-11.1009],[-60.1204,-11.1069],[-60.1127,-11.1025],[-60.1049,-11.1092],[-60.0962,-11.1108],[-60.0877,-11.107],[-60.0899,-11.1005],[-60.0842,-11.0968],[-60.075,-11.105],[-60.0664,-11.121],[-60.0667,-11.1255],[-60.0534,-11.1261],[-60.0374,-11.1174],[-60.032,-11.1278],[-60.0194,-11.1291],[-60.0161,-11.1237],[-59.9912,-11.1236],[-59.9869,-11.1145],[-59.9768,-11.1224],[-59.9799,-11.1398],[-59.9849,-11.147],[-59.995,-11.1482],[-59.9959,-11.157],[-59.9906,-11.1592],[-59.9876,-11.1711],[-59.964,-11.1891],[-59.9679,-11.1979],[-59.9759,-11.1986],[-59.9811,-11.2038],[-59.9844,-11.2152],[-59.9817,-11.2219],[-59.9797,-11.2395],[-59.9679,-11.2529],[-59.9685,-11.2664],[-59.9604,-11.2774],[-59.9595,-11.2947],[-59.95,-11.3044],[-59.9271,-11.3113],[-59.9172,-11.3384],[-59.9179,-11.3464],[-59.9245,-11.3523],[-59.9254,-11.3618],[-59.9199,-11.376],[-59.9206,-11.398],[-59.9344,-11.4237],[-59.942,-11.4228],[-59.9448,-11.4323],[-59.9524,-11.4364],[-59.9762,-11.4392],[-59.979,-11.4533],[-59.9854,-11.4693],[-60.0024,-11.4787],[-60.0079,-11.4865],[-60.0156,-11.4886],[-60.018,-11.496],[-60.0313,-11.497],[-60.0314,-11.5116],[-60.0415,-11.5166],[-60.0521,-11.5305],[-60.0575,-11.5421],[-60.077,-11.553],[-60.0787,-11.5563],[-60.0942,-11.5628],[-60.1016,-11.5774],[-60.0944,-11.5859],[-60.1109,-11.5825],[-60.1149,-11.5915],[-60.1106,-11.5955],[-60.1141,-11.6034],[-60.1099,-11.6155],[-60.1142,-11.6358],[-60.1116,-11.6429],[-60.1179,-11.6458],[-60.1146,-11.6614],[-60.1157,-11.6691],[-60.1224,-11.6824],[-60.1175,-11.689],[-60.1217,-11.7121],[-60.1125,-11.7223],[-60.1167,-11.7293],[-60.1074,-11.749],[-60.1124,-11.7593],[-60.1056,-11.7637],[-60.1071,-11.7701],[-60.1032,-11.7866],[-60.1037,-11.7933],[-60.0969,-11.7953],[-60.1034,-11.8192],[-60.0979,-11.8399],[-60.0885,-11.8626],[-60.0825,-11.8665],[-60.0749,-11.8797],[-60.0768,-11.883],[-60.0659,-11.8908],[-60.0504,-11.8979],[-60.0444,-11.8936],[-60.0377,-11.8966],[-60.0247,-11.8975],[-60.0121,-11.893],[-60.0069,-11.8947],[-59.9954,-11.9093],[-59.9842,-11.9148],[-59.9887,-11.9295],[-59.9804,-11.9416],[-59.987,-11.9601],[-59.9714,-11.9699],[-59.9736,-11.9747],[-59.969,-11.9845],[-59.9796,-11.9913],[-59.9672,-12.0026],[-59.9703,-12.0134],[-59.9747,-12.0151],[-59.9794,-12.0295],[-59.9696,-12.0325],[-59.962,-12.0564],[-59.9536,-12.0591],[-59.9518,-12.0656],[-59.9293,-12.0785],[-59.923,-12.0947],[-59.9125,-12.0992],[-59.8998,-12.1172],[-59.8996,-12.1663],[-59.9026,-12.175],[-59.9108,-12.1865],[-59.9066,-12.2051],[-59.9013,-12.2152],[-59.9017,-12.2239],[-59.8941,-12.2314],[-59.8923,-12.2455],[-59.8868,-12.2451],[-59.7744,-12.341],[-59.7794,-12.3415],[-59.7929,-12.3458],[-59.8021,-12.3574],[-59.8055,-12.3686],[-59.8193,-12.3787],[-59.8188,-12.3899],[-59.8238,-12.3905],[-59.8325,-12.4014],[-59.8351,-12.4132],[-59.8425,-12.4248],[-59.8435,-12.434],[-59.8405,-12.4407],[-59.8436,-12.4467],[-59.8414,-12.4594],[-59.8442,-12.4672],[-59.8559,-12.4786],[-59.871,-12.4839],[-59.883,-12.4915],[-59.8929,-12.5002],[-59.8982,-12.5016],[-59.8958,-12.519],[-59.8927,-12.5237],[-59.8961,-12.5364],[-59.9034,-12.5461],[-59.9099,-12.5501],[-59.9176,-12.5645],[-59.9284,-12.5782],[-59.9477,-12.5993],[-59.9727,-12.6099],[-59.9774,-12.6065],[-59.9816,-12.5921],[-59.9975,-12.5908],[-60.0033,-12.5923],[-60.004,-12.6017],[-60.0117,-12.6093],[-60.0289,-12.6186],[-60.0325,-12.6283],[-60.0454,-12.6417],[-60.0474,-12.6481],[-60.0458,-12.6615],[-60.0598,-12.6642],[-60.067,-12.6775],[-60.0658,-12.6938],[-60.056,-12.7049],[-60.0622,-12.7157],[-60.0692,-12.7205],[-60.0748,-12.7345],[-60.0694,-12.7491],[-60.0625,-12.7574],[-60.0669,-12.7674],[-60.0592,-12.7869],[-60.0685,-12.7899],[-60.0656,-12.8107],[-60.0718,-12.8252],[-60.0736,-12.8367],[-60.0828,-12.8526],[-60.0791,-12.8811],[-60.0881,-12.9024],[-60.1015,-12.9134],[-60.1055,-12.9255],[-60.1158,-12.9486],[-60.1172,-12.9596],[-60.1309,-12.9617],[-60.1398,-12.9702],[-60.1506,-12.9641],[-60.1566,-12.9687],[-60.1674,-12.9706],[-60.1833,-12.9676],[-60.1893,-12.9711],[-60.1921,-12.9821],[-60.2014,-12.9881],[-60.2059,-13.0004],[-60.2137,-13.0071],[-60.2153,-13.027],[-60.2247,-13.0335],[-60.2413,-13.0385],[-60.2476,-13.0531],[-60.2562,-13.0638],[-60.2688,-13.076],[-60.2784,-13.0778],[-60.2844,-13.0848],[-60.2846,-13.0976],[-60.2771,-13.1127],[-60.281,-13.1199],[-60.2761,-13.1268],[-60.2806,-13.1356],[-60.2685,-13.145],[-60.2786,-13.1596],[-60.2857,-13.1631],[-60.2893,-13.1704],[-60.3038,-13.1784],[-60.3093,-13.1923],[-60.3082,-13.1995],[-60.3153,-13.2117],[-60.3235,-13.2201],[-60.3298,-13.2355],[-60.3248,-13.2505],[-60.3332,-13.258],[-60.339,-13.2723],[-60.3518,-13.273],[-60.3518,-13.2917],[-60.3608,-13.2985],[-60.3716,-13.3186],[-60.3735,-13.3244],[-60.3661,-13.3322],[-60.3712,-13.3484],[-60.3713,-13.3675],[-60.3796,-13.3752],[-60.3789,-13.3944],[-60.3732,-13.4123],[-60.3793,-13.4153],[-60.38,-13.4305],[-60.3829,-13.4347],[-60.3879,-13.4547],[-60.3999,-13.4563],[-60.4,-13.4608],[-60.4115,-13.4617],[-60.4304,-13.482],[-60.4387,-13.4881],[-60.4512,-13.4928],[-60.4656,-13.4891],[-60.469,-13.4921],[-60.4864,-13.4942],[-60.4956,-13.4997],[-60.5012,-13.4985],[-60.5109,-13.5036],[-60.5203,-13.5127],[-60.5317,-13.5181],[-60.5303,-13.5277],[-60.5358,-13.5373],[-60.544,-13.5365],[-60.5484,-13.5484],[-60.5777,-13.5652],[-60.6003,-13.5727],[-60.6096,-13.5688],[-60.6241,-13.5691],[-60.6348,-13.5745],[-60.6455,-13.5928],[-60.6555,-13.6024],[-60.6693,-13.6083],[-60.6743,-13.6171],[-60.686,-13.6252],[-60.6864,-13.6392],[-60.6935,-13.6533],[-60.7021,-13.6603],[-60.6986,-13.6688],[-60.7097,-13.6717],[-60.7139,-13.676],[-60.7147,-13.6873],[-60.7093,-13.693],[-60.7047,-13.7047],[-60.6972,-13.715],[-60.6956,-13.7015],[-60.6866,-13.7032],[-60.686,-13.712],[-60.6808,-13.7199],[-60.6596,-13.734],[-60.6462,-13.7387],[-60.6415,-13.7309],[-60.6309,-13.7284],[-60.6235,-13.7195],[-60.619,-13.7252],[-60.6117,-13.7253],[-60.6122,-13.7348],[-60.6059,-13.7394],[-60.6067,-13.7463],[-60.6004,-13.7489],[-60.592,-13.7432],[-60.587,-13.7468],[-60.5748,-13.7474],[-60.5789,-13.7557],[-60.5664,-13.7579],[-60.5694,-13.7687],[-60.5577,-13.7709],[-60.5502,-13.7817],[-60.5482,-13.7703],[-60.5319,-13.7716],[-60.523,-13.7689],[-60.5174,-13.7779],[-60.5285,-13.7918],[-60.5116,-13.7911],[-60.5041,-13.7956],[-60.5004,-13.7889],[-60.4871,-13.7961],[-60.4727,-13.7937],[-60.4707,-13.8001],[-60.479,-13.8055],[-60.4747,-13.8105],[-60.4664,-13.8117],[-60.4692,-13.8222],[-60.4758,-13.8236],[-60.4869,-13.819],[-60.4888,-13.8265],[-60.481,-13.8333],[-60.4791,-13.8393],[-60.4854,-13.8496],[-60.4685,-13.8562],[-60.4609,-13.8522],[-60.4554,-13.8571],[-60.4645,-13.8649],[-60.4648,-13.8726],[-60.4735,-13.8792],[-60.476,-13.8863],[-60.4686,-13.8917],[-60.4656,-13.8827],[-60.4533,-13.8814],[-60.451,-13.8881],[-60.4566,-13.893],[-60.4529,-13.9061],[-60.4509,-13.9268],[-60.4333,-13.9373],[-60.4294,-13.9423],[-60.4188,-13.9372],[-60.4187,-13.9528],[-60.4217,-13.9664],[-60.4155,-13.9804],[-60.3946,-13.9772],[-60.382,-13.9867],[-60.3831,-13.9929],[-60.3943,-13.9931],[-60.4046,-13.9981],[-60.4021,-14.011],[-60.4086,-14.0254],[-60.4075,-14.0315],[-60.4174,-14.0377],[-60.4179,-14.0441],[-60.4282,-14.0501],[-60.4284,-14.0578],[-60.4415,-14.0787],[-60.4477,-14.085],[-60.4627,-14.0937],[-60.4716,-14.0893],[-60.4806,-14.0958],[-60.4762,-14.1112],[-60.4845,-14.1148],[-60.4754,-14.1313],[-60.4832,-14.1351],[-60.479,-14.1458],[-60.4742,-14.1497],[-60.4753,-14.1603],[-60.4844,-14.1641],[-60.4893,-14.1738],[-60.4882,-14.1817],[-60.4931,-14.1882],[-60.485,-14.1937],[-60.4742,-14.191],[-60.4676,-14.2056],[-60.4702,-14.214],[-60.4619,-14.2237],[-60.4659,-14.234],[-60.451,-14.2389],[-60.4496,-14.2501],[-60.4625,-14.2578],[-60.4664,-14.2641],[-60.4601,-14.2729],[-60.4626,-14.278],[-60.4561,-14.2996],[-60.4513,-14.3052],[-60.4536,-14.3141],[-60.4413,-14.3204],[-60.441,-14.3258],[-60.4333,-14.3362],[-60.4249,-14.3425],[-60.4164,-14.3538],[-60.4061,-14.3597],[-60.4032,-14.3674],[-60.3944,-14.3693],[-60.3975,-14.3768],[-60.3966,-14.3881],[-60.4065,-14.3987],[-60.4009,-14.403],[-60.4023,-14.4114],[-60.3943,-14.4222],[-60.4015,-14.4327],[-60.3917,-14.4332],[-60.3837,-14.4392],[-60.3782,-14.4571],[-60.379,-14.4645],[-60.3617,-14.4711],[-60.3607,-14.4848],[-60.3653,-14.489],[-60.3493,-14.4941],[-60.3477,-14.5064],[-60.3396,-14.5104],[-60.3428,-14.5243],[-60.3359,-14.5365],[-60.3381,-14.5447],[-60.3304,-14.5544],[-60.3316,-14.5684],[-60.325,-14.582],[-60.3282,-14.5868],[-60.3231,-14.6105],[-60.2968,-14.6231],[-60.2813,-14.6242],[-60.2736,-14.621],[-60.2639,-14.7824],[-60.2551,-14.9297],[-60.245,-15.0975],[-60.4595,-15.0975],[-60.5757,-15.0975],[-60.4956,-15.1877],[-60.3839,-15.313],[-60.2395,-15.4746],[-60.2246,-15.6565],[-60.2127,-15.8023],[-60.1947,-16.0193],[-60.1836,-16.152],[-60.1741,-16.2669],[-59.98,-16.2704],[-59.8231,-16.2732],[-59.7052,-16.2753],[-59.4692,-16.2796],[-59.2681,-16.288],[-59.0996,-16.295],[-58.9613,-16.3007],[-58.7857,-16.308],[-58.6217,-16.3149],[-58.4306,-16.3227],[-58.4239,-16.3166],[-58.4001,-16.3036],[-58.3943,-16.2961],[-58.3912,-16.2851],[-58.3916,-16.2695],[-58.3887,-16.2614],[-58.3659,-16.2737],[-58.3538,-16.2697],[-58.3467,-16.2738],[-58.3273,-16.2705],[-58.3222,-16.2664],[-58.3176,-16.2923],[-58.304,-16.3091],[-58.3035,-16.3299],[-58.3067,-16.339],[-58.3089,-16.3605],[-58.3073,-16.3707],[-58.3149,-16.3723],[-58.3246,-16.3785],[-58.3342,-16.3896],[-58.3421,-16.3887],[-58.346,-16.393],[-58.3474,-16.4035],[-58.3564,-16.426],[-58.3484,-16.4549],[-58.335,-16.4787],[-58.3342,-16.4903],[-58.3441,-16.5184],[-58.3541,-16.5241],[-58.3695,-16.544],[-58.3879,-16.5527],[-58.3936,-16.5637],[-58.4014,-16.5685],[-58.4216,-16.5746],[-58.4284,-16.5868],[-58.4362,-16.5929],[-58.4508,-16.6283],[-58.4631,-16.6532],[-58.4614,-16.6677],[-58.4717,-16.7082],[-58.4668,-16.7172],[-58.4679,-16.7284],[-58.4728,-16.7489],[-58.4674,-16.7565],[-58.4657,-16.7775],[-58.4595,-16.7864],[-58.4618,-16.7943],[-58.4722,-16.7931],[-58.4786,-16.8142],[-58.4756,-16.8221],[-58.4687,-16.8218],[-58.4582,-16.8266],[-58.4645,-16.8354],[-58.4636,-16.8547],[-58.466,-16.865],[-58.4644,-16.8784],[-58.4687,-16.8863],[-58.4615,-16.892],[-58.4605,-16.9014],[-58.4656,-16.9113],[-58.4768,-16.9132],[-58.472,-16.921],[-58.4768,-16.9367],[-58.4689,-16.9429],[-58.4588,-16.9382],[-58.4587,-16.9478],[-58.4625,-16.9514],[-58.4631,-16.962],[-58.4583,-16.969],[-58.4491,-16.9739],[-58.4447,-16.9838],[-58.4359,-16.9866],[-58.4319,-16.9917],[-58.417,-16.9818],[-58.4005,-16.9978],[-58.394,-17.015],[-58.392,-17.0401],[-58.3937,-17.096],[-58.3974,-17.116],[-58.3995,-17.1455],[-58.3981,-17.1724],[-58.3989,-17.184],[-58.3677,-17.1991],[-58.3606,-17.2112],[-58.3526,-17.2187],[-58.3466,-17.2341],[-58.3393,-17.2412],[-58.3283,-17.2475],[-58.3203,-17.256],[-58.3229,-17.2606],[-58.3154,-17.2689],[-58.309,-17.2673],[-58.305,-17.279],[-58.2933,-17.288],[-58.3003,-17.298],[-58.2907,-17.3024],[-58.2783,-17.2998],[-58.2762,-17.3051],[-58.2805,-17.3191],[-58.2766,-17.3254],[-58.2633,-17.3316],[-58.2645,-17.3451],[-58.2575,-17.346],[-58.2544,-17.3538],[-58.2416,-17.349],[-58.2333,-17.3511],[-58.2274,-17.3578],[-58.2201,-17.3602],[-58.2092,-17.355],[-58.2022,-17.357],[-58.1951,-17.369],[-58.2001,-17.3787],[-58.1981,-17.3861],[-58.1854,-17.3915],[-58.1772,-17.3916],[-58.1532,-17.3836],[-58.1498,-17.3878],[-58.1525,-17.402],[-58.1455,-17.4137],[-58.1393,-17.4156],[-58.1299,-17.4115],[-58.1229,-17.4147],[-58.1187,-17.4344],[-58.1207,-17.4476],[-58.0914,-17.4609],[-58.0764,-17.4563],[-58.0724,-17.4521],[-58.0601,-17.4507],[-58.0495,-17.463],[-58.0441,-17.4789],[-58.0434,-17.4927],[-58.0301,-17.4963],[-58.0232,-17.4944],[-58.0164,-17.4999],[-58.0103,-17.4998],[-57.9998,-17.5076],[-57.9964,-17.5156],[-57.9809,-17.5108],[-57.9626,-17.5003],[-57.8834,-17.4495],[-57.7523,-17.5645],[-57.7478,-17.5575],[-57.7401,-17.5363],[-57.7281,-17.5297],[-57.7121,-17.5431],[-57.7109,-17.5661],[-57.7016,-17.5778],[-57.7035,-17.5883],[-57.7021,-17.6012],[-57.6969,-17.6206],[-57.6927,-17.627],[-57.6877,-17.6282],[-57.6866,-17.6427],[-57.6827,-17.6427],[-57.6794,-17.6577],[-57.6718,-17.6641],[-57.672,-17.6821],[-57.6807,-17.6849],[-57.6831,-17.6963],[-57.6801,-17.704],[-57.6846,-17.7165],[-57.6724,-17.7197],[-57.6717,-17.7283],[-57.6636,-17.7299],[-57.646,-17.7244],[-57.6403,-17.7174],[-57.6231,-17.7364],[-57.6186,-17.7478],[-57.6197,-17.7564],[-57.6149,-17.7668],[-57.6034,-17.7717],[-57.6027,-17.779],[-57.6126,-17.7794],[-57.6093,-17.7975],[-57.6024,-17.8049],[-57.5779,-17.8002],[-57.5697,-17.8166],[-57.5576,-17.8162],[-57.552,-17.8282],[-57.531,-17.8391],[-57.5352,-17.8522],[-57.5164,-17.8628],[-57.4853,-17.8622],[-57.4794,-17.8687],[-57.4777,-17.8789],[-57.4671,-17.8886],[-57.4603,-17.8999],[-57.4525,-17.9026],[-57.4459,-17.892],[-57.4473,-17.8757],[-57.4364,-17.8697],[-57.4263,-17.8564],[-57.4098,-17.8539],[-57.4006,-17.8478],[-57.3847,-17.8434],[-57.3801,-17.8273],[-57.3681,-17.8262],[-57.3632,-17.8336],[-57.3501,-17.8371],[-57.3426,-17.8313],[-57.3252,-17.8292],[-57.3248,-17.8245],[-57.3114,-17.8178],[-57.3065,-17.8105],[-57.2998,-17.8168],[-57.2833,-17.8227],[-57.2838,-17.8129],[-57.2648,-17.8203],[-57.2455,-17.8063],[-57.2517,-17.798],[-57.24,-17.7962],[-57.2351,-17.7883],[-57.2252,-17.7828],[-57.2111,-17.7889],[-57.1912,-17.7858],[-57.1749,-17.7762],[-57.1601,-17.7788],[-57.154,-17.7773],[-57.1481,-17.7685],[-57.1347,-17.7742],[-57.128,-17.7741],[-57.119,-17.781],[-57.1148,-17.7742],[-57.1015,-17.7722],[-57.0965,-17.7608],[-57.0892,-17.7508],[-57.0798,-17.7491],[-57.0753,-17.7368],[-57.0642,-17.735],[-57.0567,-17.7295],[-57.0478,-17.7325],[-57.0366,-17.7111],[-57.0373,-17.7036],[-57.0334,-17.6947],[-57.0193,-17.6922],[-57.0196,-17.6851],[-57.0133,-17.6724],[-57.0004,-17.6707],[-56.9882,-17.6593],[-56.9852,-17.6448],[-56.977,-17.6365],[-56.9736,-17.628],[-56.9647,-17.6217],[-56.958,-17.608],[-56.9624,-17.6054],[-56.9728,-17.6136],[-56.9823,-17.6096],[-56.9813,-17.602],[-56.976,-17.596],[-56.9824,-17.5802],[-56.9735,-17.5804],[-56.9668,-17.5714],[-56.952,-17.5694],[-56.9473,-17.5653],[-56.9462,-17.5548],[-56.9238,-17.5419],[-56.9149,-17.5393],[-56.9096,-17.5325],[-56.8958,-17.5394],[-56.876,-17.533],[-56.8615,-17.5052],[-56.8662,-17.4996],[-56.8652,-17.49],[-56.8579,-17.4828],[-56.8515,-17.487],[-56.846,-17.4806],[-56.8499,-17.4707],[-56.8454,-17.4624],[-56.8322,-17.4637],[-56.8254,-17.4589],[-56.8255,-17.4531],[-56.8409,-17.442],[-56.8332,-17.435],[-56.8227,-17.4376],[-56.8196,-17.4302],[-56.8244,-17.4231],[-56.8343,-17.4235],[-56.842,-17.4182],[-56.8314,-17.4097],[-56.8287,-17.39],[-56.8213,-17.3907],[-56.8044,-17.3866],[-56.791,-17.3911],[-56.786,-17.3875],[-56.789,-17.3741],[-56.7843,-17.3687],[-56.7675,-17.3646],[-56.7629,-17.3606],[-56.7609,-17.3516],[-56.7689,-17.3409],[-56.7572,-17.3368],[-56.7578,-17.3267],[-56.7435,-17.3273],[-56.7365,-17.3207],[-56.7339,-17.3099],[-56.7233,-17.3085],[-56.7161,-17.3166],[-56.7017,-17.3199],[-56.6944,-17.3169],[-56.6909,-17.3245],[-56.6832,-17.3166],[-56.6739,-17.3252],[-56.6725,-17.3346],[-56.6621,-17.3389],[-56.6552,-17.3318],[-56.6627,-17.3268],[-56.6567,-17.3214],[-56.6439,-17.3369],[-56.6408,-17.327],[-56.6304,-17.3342],[-56.6286,-17.3238],[-56.62,-17.322],[-56.6119,-17.3319],[-56.6057,-17.3288],[-56.5959,-17.3325],[-56.5749,-17.3281],[-56.5794,-17.3203],[-56.5676,-17.3149],[-56.551,-17.3229],[-56.5324,-17.313],[-56.5139,-17.3128],[-56.5112,-17.3024],[-56.514,-17.2982],[-56.4992,-17.2896],[-56.4991,-17.2977],[-56.4901,-17.2983],[-56.4774,-17.3054],[-56.465,-17.3048],[-56.4656,-17.3141],[-56.456,-17.3102],[-56.451,-17.3119],[-56.4509,-17.3264],[-56.4406,-17.3304],[-56.435,-17.3211],[-56.4173,-17.3116],[-56.4081,-17.3161],[-56.4029,-17.3063],[-56.3889,-17.3019],[-56.3831,-17.288],[-56.3607,-17.2808],[-56.3625,-17.2717],[-56.3544,-17.2666],[-56.343,-17.273],[-56.3503,-17.279],[-56.3359,-17.2899],[-56.3322,-17.2817],[-56.3233,-17.2857],[-56.3232,-17.2762],[-56.3135,-17.2694],[-56.2978,-17.2766],[-56.295,-17.2713],[-56.2866,-17.2704],[-56.2817,-17.2634],[-56.2834,-17.2467],[-56.2735,-17.2484],[-56.2722,-17.2414],[-56.2581,-17.2378],[-56.2517,-17.2323],[-56.255,-17.2225],[-56.2513,-17.219],[-56.2379,-17.2222],[-56.2337,-17.2273],[-56.2209,-17.2288],[-56.213,-17.2259],[-56.2122,-17.2095],[-56.2055,-17.2141],[-56.2004,-17.2063],[-56.1905,-17.2113],[-56.1845,-17.1946],[-56.1749,-17.1951],[-56.1708,-17.1887],[-56.1633,-17.1947],[-56.1572,-17.1871],[-56.1411,-17.1814],[-56.1288,-17.1794],[-56.1185,-17.1744],[-56.1123,-17.1663],[-56.1021,-17.1741],[-56.0827,-17.1777],[-56.0696,-17.1703],[-56.0601,-17.1717],[-56.0564,-17.1819],[-56.0472,-17.1848],[-56.0494,-17.1743],[-56.0441,-17.1714],[-56.0302,-17.1867],[-56.0161,-17.1902],[-56.0055,-17.2042],[-56.0171,-17.2086],[-56.0085,-17.2171],[-56.0127,-17.2226],[-56.012,-17.2367],[-56.0038,-17.2337],[-56.0038,-17.2448],[-55.9921,-17.2399],[-55.9827,-17.2495],[-55.9668,-17.2547],[-55.9602,-17.2502],[-55.9501,-17.263],[-55.947,-17.2713],[-55.9382,-17.2785],[-55.9315,-17.2738],[-55.9314,-17.2647],[-55.9263,-17.2579],[-55.9201,-17.2645],[-55.8895,-17.2632],[-55.9019,-17.2734],[-55.8866,-17.2848],[-55.8755,-17.2806],[-55.8799,-17.2733],[-55.8748,-17.2686],[-55.8696,-17.2754],[-55.8582,-17.2835],[-55.8511,-17.2806],[-55.8505,-17.2903],[-55.8452,-17.2986],[-55.8383,-17.3005],[-55.8351,-17.2914],[-55.8262,-17.292],[-55.8317,-17.3016],[-55.8248,-17.3055],[-55.821,-17.2977],[-55.8065,-17.298],[-55.8025,-17.3013],[-55.805,-17.3094],[-55.7989,-17.3139],[-55.7899,-17.3268],[-55.7807,-17.3214],[-55.774,-17.3315],[-55.7612,-17.3235],[-55.7403,-17.3371],[-55.7299,-17.3399],[-55.7197,-17.3489],[-55.7091,-17.3376],[-55.7044,-17.3517],[-55.6893,-17.3404],[-55.6752,-17.3403],[-55.6681,-17.3507],[-55.6581,-17.3391],[-55.6487,-17.3583],[-55.6359,-17.353],[-55.6263,-17.364],[-55.6123,-17.3673],[-55.6039,-17.3667],[-55.6028,-17.3674],[-55.5933,-17.3744],[-55.5856,-17.3736],[-55.5838,-17.3828],[-55.5866,-17.3982],[-55.5856,-17.4088],[-55.5886,-17.4138],[-55.5774,-17.4241],[-55.5749,-17.4347],[-55.5683,-17.4351],[-55.5562,-17.4434],[-55.5574,-17.4519],[-55.5427,-17.4565],[-55.5369,-17.4645],[-55.5271,-17.4721],[-55.525,-17.4785],[-55.515,-17.4836],[-55.4976,-17.4865],[-55.483,-17.4787],[-55.4768,-17.4843],[-55.4654,-17.4869],[-55.4538,-17.5004],[-55.4539,-17.5077],[-55.4453,-17.5059],[-55.4327,-17.5117],[-55.4233,-17.5099],[-55.4177,-17.5146],[-55.4052,-17.5124],[-55.3866,-17.5191],[-55.3806,-17.5239],[-55.3719,-17.5227],[-55.3538,-17.5316],[-55.3541,-17.5408],[-55.3483,-17.5469],[-55.3316,-17.5493],[-55.3256,-17.5462],[-55.31,-17.5455],[-55.2997,-17.5412],[-55.2923,-17.5445],[-55.2844,-17.5541],[-55.2808,-17.563],[-55.2751,-17.5588],[-55.2631,-17.5648],[-55.2635,-17.5716],[-55.2541,-17.5769],[-55.2507,-17.5834],[-55.2524,-17.5923],[-55.2453,-17.6004],[-55.2413,-17.5954],[-55.2319,-17.5956],[-55.2181,-17.6075],[-55.2215,-17.6171],[-55.2048,-17.6138],[-55.1741,-17.6306],[-55.1706,-17.6408],[-55.149,-17.6429],[-55.139,-17.6478],[-55.1371,-17.6502],[-55.1273,-17.6527],[-55.1139,-17.644],[-55.1114,-17.6312],[-55.1043,-17.6285],[-55.0934,-17.636],[-55.0879,-17.633],[-55.0726,-17.6316],[-55.0625,-17.6391],[-55.0473,-17.6403],[-55.0117,-17.6311],[-54.9959,-17.6385],[-54.9849,-17.6241],[-54.9789,-17.6254],[-54.967,-17.6156],[-54.9598,-17.6163],[-54.9445,-17.6132],[-54.9434,-17.609],[-54.9205,-17.6104],[-54.9143,-17.6085],[-54.9022,-17.6116],[-54.897,-17.6203],[-54.8806,-17.6169],[-54.8674,-17.6195],[-54.8609,-17.6239],[-54.8516,-17.613],[-54.8391,-17.6139],[-54.825,-17.6097],[-54.8154,-17.5957],[-54.8008,-17.5826],[-54.7916,-17.5823],[-54.7788,-17.5714],[-54.7588,-17.5657],[-54.7622,-17.5544],[-54.756,-17.5452],[-54.757,-17.5345],[-54.7469,-17.5199],[-54.7301,-17.5155],[-54.7205,-17.5187],[-54.7155,-17.5131],[-54.6901,-17.5032],[-54.6813,-17.5069],[-54.6768,-17.5015],[-54.6567,-17.4969],[-54.6564,-17.4914],[-54.6463,-17.4906],[-54.6361,-17.4957],[-54.619,-17.4881],[-54.6074,-17.4871],[-54.5886,-17.4771],[-54.5833,-17.469],[-54.5703,-17.4734],[-54.5542,-17.4887],[-54.5363,-17.4776],[-54.5174,-17.4797],[-54.511,-17.4826],[-54.5023,-17.4807],[-54.4976,-17.4857],[-54.4847,-17.4891],[-54.4831,-17.494],[-54.4742,-17.498],[-54.4776,-17.5135],[-54.4687,-17.5272],[-54.4531,-17.5335],[-54.4468,-17.5325],[-54.4263,-17.537],[-54.414,-17.5446],[-54.4054,-17.5552],[-54.4061,-17.5622],[-54.3962,-17.5652],[-54.392,-17.5706],[-54.3829,-17.5715],[-54.3859,-17.5814],[-54.3802,-17.5942],[-54.3826,-17.5973],[-54.3771,-17.6074],[-54.3827,-17.6273],[-54.3878,-17.6319],[-54.3716,-17.6451],[-54.3434,-17.6556],[-54.3388,-17.6605],[-54.3278,-17.6588],[-54.3157,-17.6616],[-54.3093,-17.6588],[-54.3024,-17.6617],[-54.292,-17.653],[-54.2745,-17.654],[-54.2665,-17.6477],[-54.2517,-17.6412],[-54.2437,-17.6289],[-54.2329,-17.6268],[-54.2232,-17.6211],[-54.2167,-17.6212],[-54.2047,-17.6128],[-54.1998,-17.6146],[-54.1916,-17.6056],[-54.1788,-17.6029],[-54.1697,-17.6074],[-54.1574,-17.605],[-54.1467,-17.615],[-54.1413,-17.6107],[-54.1342,-17.6187],[-54.0995,-17.6131],[-54.0847,-17.619],[-54.0794,-17.6047],[-54.0727,-17.5968],[-54.0733,-17.5878],[-54.0662,-17.5795],[-54.0589,-17.5756],[-54.0516,-17.5628],[-54.0522,-17.5475],[-54.0459,-17.5372],[-54.0549,-17.5273],[-54.0581,-17.5131],[-54.052,-17.5057],[-54.0412,-17.5005],[-54.0376,-17.4864],[-54.0233,-17.4771],[-53.9972,-17.4714],[-53.9841,-17.4738],[-53.9731,-17.4722],[-53.9713,-17.4658],[-53.9639,-17.4613],[-53.9522,-17.4593],[-53.9479,-17.4521],[-53.9311,-17.4395],[-53.9306,-17.4349],[-53.9195,-17.4252],[-53.9146,-17.4144],[-53.8836,-17.3871],[-53.8784,-17.3752],[-53.8694,-17.3692],[-53.8374,-17.359],[-53.8313,-17.355],[-53.8352,-17.3392],[-53.8307,-17.3173],[-53.8261,-17.3127],[-53.8201,-17.2946],[-53.8066,-17.288],[-53.7857,-17.2875],[-53.7799,-17.2771],[-53.7657,-17.2601],[-53.7628,-17.2466],[-53.7591,-17.2431],[-53.747,-17.2426],[-53.7365,-17.2322],[-53.7051,-17.2282],[-53.6945,-17.234],[-53.6925,-17.2465],[-53.6801,-17.2541],[-53.6934,-17.5002],[-53.7039,-17.6613],[-53.72,-17.6688],[-53.7278,-17.6636],[-53.7398,-17.665],[-53.7467,-17.6713],[-53.7572,-17.6728],[-53.7795,-17.6724],[-53.7855,-17.6764],[-53.7988,-17.6705],[-53.8063,-17.6724],[-53.8134,-17.6815],[-53.8251,-17.688],[-53.8389,-17.6901],[-53.8559,-17.7027],[-53.8609,-17.7207],[-53.8663,-17.7272],[-53.877,-17.7319],[-53.8784,-17.7389],[-53.8884,-17.749],[-53.8965,-17.7693],[-53.8955,-17.777],[-53.9063,-17.789],[-53.9132,-17.808],[-53.9208,-17.8184],[-53.9288,-17.8239],[-53.9412,-17.8402],[-53.9435,-17.8498],[-53.9518,-17.8692],[-53.9557,-17.883],[-53.9497,-17.894],[-53.9511,-17.9032],[-53.9474,-17.9085],[-53.9517,-17.9158],[-53.9386,-17.9201],[-53.9324,-17.9132],[-53.9242,-17.92],[-53.9155,-17.9182],[-53.8986,-17.9088],[-53.8845,-17.9163],[-53.8788,-17.9228],[-53.8542,-17.9258],[-53.8236,-17.95],[-53.8216,-17.9589],[-53.8122,-17.9595],[-53.8117,-17.9684],[-53.8043,-17.971],[-53.7903,-17.9848],[-53.7865,-17.9941],[-53.7742,-18.0008],[-53.7506,-17.9986],[-53.7367,-17.9949],[-53.7268,-18.0035],[-53.7193,-17.9981],[-53.7157,-18.0063],[-53.6927,-18.0069],[-53.679,-17.9953],[-53.6764,-17.9899],[-53.6625,-17.986],[-53.6612,-17.9775],[-53.652,-17.9763],[-53.6297,-17.9803],[-53.6162,-17.9787],[-53.6096,-17.984],[-53.607,-17.9955],[-53.5931,-18.0006],[-53.5901,-18.0097],[-53.575,-18.0127],[-53.565,-18.0046],[-53.5576,-18.0118],[-53.5308,-18.0205],[-53.5179,-18.0206],[-53.5135,-18.0269],[-53.5019,-18.0281],[-53.4991,-18.0359],[-53.4861,-18.0404],[-53.4679,-18.0349],[-53.4676,-18.0286],[-53.4602,-18.022],[-53.4565,-18.0108],[-53.4573,-17.9997],[-53.4492,-17.9988],[-53.435,-17.9846],[-53.4179,-17.9948],[-53.4039,-17.9926],[-53.397,-17.9998],[-53.3808,-18.0088],[-53.3602,-18.006],[-53.3357,-18.0069],[-53.3323,-18.0016],[-53.3187,-18.0003],[-53.3076,-17.996],[-53.2919,-17.9959],[-53.2875,-17.9993],[-53.2741,-18.0017],[-53.2415,-18.0047],[-53.2378,-18.0074],[-53.2304,-18.0117],[-53.2176,-18.0136],[-53.2051,-18.0219],[-53.1988,-18.0203],[-53.1905,-18.0363],[-53.1743,-18.0416],[-53.0735,-18.0345],[-53.0723,-18.034],[-53.0718,-18.0211],[-53.0652,-17.9959],[-53.0645,-17.9884],[-53.0713,-17.9659],[-53.081,-17.9595],[-53.0865,-17.9449],[-53.1047,-17.9276],[-53.1104,-17.9273],[-53.1251,-17.9175],[-53.1275,-17.912],[-53.1226,-17.9025],[-53.1283,-17.8905],[-53.1283,-17.8808],[-53.1381,-17.871],[-53.1346,-17.8569],[-53.1372,-17.8516],[-53.1317,-17.8423],[-53.1337,-17.8326],[-53.1416,-17.8264],[-53.1435,-17.8163],[-53.1507,-17.8103],[-53.1571,-17.7968],[-53.1558,-17.7852],[-53.16,-17.7749],[-53.1726,-17.7649],[-53.1721,-17.7569],[-53.1775,-17.751],[-53.1861,-17.7481],[-53.2019,-17.7261],[-53.2192,-17.7211],[-53.2338,-17.713],[-53.2369,-17.7016],[-53.2355,-17.6936],[-53.2421,-17.6907],[-53.2371,-17.6799],[-53.243,-17.6716],[-53.2432,-17.6538],[-53.2467,-17.6494],[-53.2485,-17.6273],[-53.2439,-17.6155],[-53.2471,-17.6054],[-53.2404,-17.6],[-53.2379,-17.568],[-53.245,-17.5629],[-53.2427,-17.5537],[-53.2442,-17.5232],[-53.2384,-17.5162],[-53.242,-17.5042],[-53.2369,-17.4979],[-53.2405,-17.4919],[-53.2324,-17.4811],[-53.2236,-17.4583],[-53.2314,-17.4404],[-53.2221,-17.4165],[-53.2143,-17.4106],[-53.2088,-17.3958],[-53.1972,-17.3783],[-53.2032,-17.368],[-53.2005,-17.3504],[-53.2056,-17.3314],[-53.2118,-17.3273],[-53.2136,-17.3204],[-53.2092,-17.316],[-53.2188,-17.3074],[-53.2173,-17.2968],[-53.2081,-17.2932],[-53.2034,-17.284],[-53.1946,-17.2753],[-53.1974,-17.2605],[-53.1867,-17.2588],[-53.1718,-17.2332],[-53.1715,-17.2233],[-53.166,-17.2214],[-53.1665,-17.2101],[-53.1551,-17.1866],[-53.1569,-17.1712],[-53.1498,-17.1682],[-53.1421,-17.1714],[-53.1394,-17.1618],[-53.1282,-17.1549],[-53.1267,-17.1448],[-53.1197,-17.1315],[-53.1144,-17.1269],[-53.1148,-17.1179],[-53.1107,-17.1081],[-53.1018,-17.1032],[-53.0889,-17.1008],[-53.079,-17.0886],[-53.0717,-17.0852],[-53.055,-17.0644],[-53.0613,-17.0462],[-53.069,-17.0414],[-53.0612,-17.0307],[-53.0601,-17.0209],[-53.0638,-17.0165],[-53.052,-17.0047],[-53.056,-16.9972],[-53.0545,-16.9684],[-53.0468,-16.9636],[-53.0473,-16.9493],[-53.035,-16.9425],[-53.0396,-16.931],[-53.0345,-16.9197],[-53.039,-16.9121],[-53.0192,-16.9002],[-53.0202,-16.8955],[-53.0135,-16.8764],[-53.0141,-16.8643],[-52.9891,-16.867],[-52.9757,-16.864],[-52.9717,-16.8697],[-52.956,-16.8615],[-52.9484,-16.8446],[-52.9291,-16.8376],[-52.9291,-16.8271],[-52.9348,-16.8244],[-52.9412,-16.8143],[-52.9328,-16.8031],[-52.9265,-16.8051],[-52.927,-16.8188],[-52.914,-16.8127],[-52.9085,-16.8109],[-52.9073,-16.7994],[-52.8928,-16.7941],[-52.8851,-16.777],[-52.8681,-16.7812],[-52.8591,-16.7688],[-52.8455,-16.7666],[-52.8324,-16.7722],[-52.8293,-16.7589],[-52.8221,-16.7579],[-52.8172,-16.7494],[-52.8082,-16.7423],[-52.8022,-16.748],[-52.7925,-16.7401],[-52.7862,-16.741],[-52.7893,-16.7248],[-52.7857,-16.7144],[-52.7779,-16.7078],[-52.7616,-16.7068],[-52.7643,-16.6961],[-52.759,-16.6711],[-52.768,-16.6728],[-52.7695,-16.6675],[-52.752,-16.6616],[-52.7411,-16.6521],[-52.7482,-16.6398],[-52.7462,-16.6307],[-52.7339,-16.6332],[-52.7265,-16.6461],[-52.7224,-16.6471],[-52.7153,-16.637],[-52.726,-16.6145],[-52.7379,-16.6135],[-52.7407,-16.605],[-52.731,-16.5975],[-52.7391,-16.5925],[-52.7328,-16.5859],[-52.7264,-16.5868],[-52.7106,-16.5957],[-52.7032,-16.5963],[-52.7078,-16.5753],[-52.7003,-16.5723],[-52.6947,-16.5822],[-52.6882,-16.5853],[-52.6756,-16.5855],[-52.67,-16.5823],[-52.6732,-16.5706],[-52.6596,-16.5702],[-52.6705,-16.5576],[-52.6631,-16.5514],[-52.6545,-16.5607],[-52.6463,-16.5461],[-52.6354,-16.5511],[-52.6351,-16.5398],[-52.6257,-16.5322],[-52.626,-16.5211],[-52.6294,-16.5178],[-52.6342,-16.5138],[-52.6373,-16.5029],[-52.6332,-16.5001],[-52.6203,-16.5052],[-52.6128,-16.5018],[-52.6061,-16.486],[-52.6065,-16.4768],[-52.6132,-16.4688],[-52.6051,-16.4628],[-52.6133,-16.4576],[-52.6192,-16.4463],[-52.6389,-16.4371],[-52.6449,-16.4271],[-52.641,-16.4157],[-52.6533,-16.4086],[-52.6745,-16.4124],[-52.6862,-16.401],[-52.6893,-16.3946],[-52.6807,-16.3881],[-52.6776,-16.381],[-52.6927,-16.3664],[-52.6904,-16.3566],[-52.6922,-16.3483],[-52.6826,-16.3441],[-52.6868,-16.3149],[-52.6812,-16.3017],[-52.6592,-16.2807],[-52.6537,-16.2794],[-52.6467,-16.2853],[-52.6369,-16.2831],[-52.6247,-16.2868],[-52.6189,-16.2834],[-52.6113,-16.2722],[-52.5915,-16.2703],[-52.5873,-16.2681],[-52.5827,-16.2547],[-52.5763,-16.2495],[-52.5701,-16.2541],[-52.5644,-16.2642],[-52.5561,-16.2658],[-52.546,-16.2597],[-52.5546,-16.2524],[-52.5611,-16.24],[-52.5689,-16.2339],[-52.5673,-16.2248],[-52.5491,-16.2253],[-52.5453,-16.2226],[-52.5504,-16.1917],[-52.5491,-16.1844],[-52.5436,-16.1804],[-52.5492,-16.165],[-52.5264,-16.1554],[-52.526,-16.1411],[-52.5137,-16.1336],[-52.5034,-16.1415],[-52.4923,-16.1387],[-52.4898,-16.1317],[-52.4717,-16.1267],[-52.4606,-16.1277],[-52.4493,-16.1169],[-52.4371,-16.1088],[-52.4101,-16.1001],[-52.3989,-16.0933],[-52.3819,-16.0986],[-52.3713,-16.0963],[-52.3673,-16.0833],[-52.361,-16.0816],[-52.3504,-16.0841],[-52.3285,-16.0704],[-52.3243,-16.0397],[-52.3161,-16.0277],[-52.3108,-16.007],[-52.2954,-15.9929],[-52.2891,-15.9794],[-52.2898,-15.9646],[-52.2669,-15.9477],[-52.2646,-15.9362],[-52.2569,-15.9309],[-52.2562,-15.92],[-52.2523,-15.9086],[-52.2543,-15.8937],[-52.248,-15.8902],[-52.235,-15.8893],[-52.2159,-15.8916],[-52.2052,-15.888],[-52.1949,-15.8809],[-52.1784,-15.887],[-52.1527,-15.8889],[-52.1331,-15.8953],[-52.1276,-15.895],[-52.1112,-15.8829],[-52.1005,-15.889],[-52.0932,-15.8834],[-52.0733,-15.8817],[-52.0606,-15.8871],[-52.0467,-15.8882],[-52.0387,-15.8861],[-52.0276,-15.8883],[-52.0095,-15.8858],[-51.994,-15.8686],[-51.987,-15.849],[-51.9813,-15.8425],[-51.9721,-15.8381],[-51.9565,-15.8399],[-51.955,-15.8159],[-51.9485,-15.8101],[-51.9129,-15.8132],[-51.9048,-15.8187],[-51.8923,-15.8311],[-51.8874,-15.8318],[-51.8803,-15.8243],[-51.8782,-15.809],[-51.8733,-15.7981],[-51.8592,-15.7875],[-51.8391,-15.7504],[-51.8233,-15.7314],[-51.8087,-15.7274],[-51.8031,-15.7217],[-51.8057,-15.7112],[-51.8007,-15.7007],[-51.7679,-15.6536],[-51.7571,-15.6334],[-51.754,-15.615],[-51.7703,-15.5736],[-51.7781,-15.5604],[-51.7807,-15.5464],[-51.7773,-15.535],[-51.7684,-15.5298],[-51.7609,-15.5301],[-51.756,-15.54],[-51.7579,-15.5506],[-51.7556,-15.5574],[-51.7468,-15.5617],[-51.7393,-15.5593],[-51.7277,-15.5496],[-51.7256,-15.5441],[-51.7372,-15.5268],[-51.7379,-15.5171],[-51.7319,-15.504],[-51.7249,-15.5005],[-51.7043,-15.4963],[-51.699,-15.4849],[-51.7001,-15.474],[-51.7093,-15.4616],[-51.7031,-15.4441],[-51.6954,-15.4386],[-51.6913,-15.4259],[-51.6976,-15.4151],[-51.696,-15.4059],[-51.6832,-15.3867],[-51.6729,-15.3804],[-51.6695,-15.3744],[-51.6719,-15.3616],[-51.6874,-15.3469],[-51.6915,-15.3249],[-51.6846,-15.2999],[-51.6772,-15.2876],[-51.6507,-15.2731],[-51.6465,-15.2678],[-51.6458,-15.2588],[-51.6531,-15.2539],[-51.6688,-15.2546],[-51.672,-15.2478],[-51.6682,-15.2322],[-51.6497,-15.1998],[-51.6521,-15.1795],[-51.6474,-15.1735],[-51.6234,-15.1647],[-51.6061,-15.1623],[-51.5927,-15.1524],[-51.5864,-15.1336],[-51.583,-15.1284],[-51.5641,-15.1086],[-51.5469,-15.1005],[-51.5341,-15.0652],[-51.5273,-15.0592],[-51.5188,-15.0568],[-51.5021,-15.0577],[-51.479,-15.0506],[-51.462,-15.048],[-51.4413,-15.0313],[-51.4305,-15.0098],[-51.4213,-15.0059],[-51.4017,-15.0029],[-51.3866,-15.0058],[-51.3769,-15.0103],[-51.3682,-15.0096],[-51.3531,-14.9939],[-51.3499,-14.9903],[-51.3413,-14.9805],[-51.3387,-14.9751],[-51.3331,-14.9701],[-51.3248,-14.9704],[-51.3071,-14.981],[-51.3022,-14.9886],[-51.2993,-15.0029],[-51.3006,-15.0142],[-51.295,-15.0302],[-51.2759,-15.0438],[-51.2676,-15.0444],[-51.2531,-15.0345],[-51.2403,-15.0293],[-51.2255,-15.0269],[-51.216,-15.022],[-51.2084,-15.0093],[-51.1918,-14.9996],[-51.157,-14.9856],[-51.1508,-14.978],[-51.1476,-14.9624],[-51.1508,-14.9542],[-51.1449,-14.9434],[-51.1328,-14.9408],[-51.1135,-14.9299],[-51.1028,-14.9265],[-51.099,-14.9253],[-51.0871,-14.9213],[-51.0843,-14.9126],[-51.0855,-14.9036],[-51.0924,-14.8945],[-51.093,-14.8879],[-51.0933,-14.8552],[-51.0896,-14.8402],[-51.0777,-14.8185],[-51.0707,-14.81],[-51.0512,-14.7992],[-51.0448,-14.7928],[-51.0451,-14.7771],[-51.0567,-14.7613],[-51.0582,-14.7517],[-51.0532,-14.7389],[-51.042,-14.7277],[-51.0301,-14.7097],[-51.026,-14.6911],[-51.0318,-14.6779],[-51.0267,-14.6594],[-51.0187,-14.6506],[-51.0114,-14.6469],[-50.9999,-14.63],[-50.9928,-14.6125],[-50.9925,-14.5997],[-50.9976,-14.5818],[-50.9937,-14.5701],[-50.9825,-14.5564],[-50.9712,-14.5365],[-50.9642,-14.5283],[-50.9635,-14.5179],[-50.9723,-14.509],[-50.973,-14.4977],[-50.968,-14.482],[-50.9714,-14.4716],[-50.9845,-14.4608],[-50.989,-14.4536],[-50.9889,-14.4441],[-50.9852,-14.4381],[-50.9862,-14.429],[-50.9961,-14.419],[-50.9979,-14.4138],[-50.9905,-14.3899],[-50.9845,-14.3764],[-50.9873,-14.3577],[-50.9693,-14.3358],[-50.9661,-14.3271],[-50.9685,-14.3166],[-50.9763,-14.307],[-50.977,-14.2935],[-50.9664,-14.269],[-50.9541,-14.2317],[-50.9423,-14.2211],[-50.9215,-14.1734],[-50.9146,-14.1699],[-50.91,-14.1484],[-50.9198,-14.1266],[-50.9195,-14.1186],[-50.9147,-14.1136],[-50.9037,-14.1102],[-50.8987,-14.1149],[-50.8951,-14.1309],[-50.8865,-14.1321],[-50.8739,-14.1198],[-50.868,-14.1177],[-50.8605,-14.1217],[-50.8518,-14.1176],[-50.8415,-14.1043],[-50.8349,-14.0947],[-50.8313,-14.0828],[-50.8329,-14.0709],[-50.8378,-14.0638],[-50.8397,-14.0537],[-50.855,-14.0259],[-50.8562,-14.0193],[-50.8488,-14.0084],[-50.8472,-13.9998],[-50.8647,-13.984],[-50.8673,-13.9683],[-50.8658,-13.9598],[-50.8459,-13.9344],[-50.8402,-13.9237],[-50.8415,-13.8922],[-50.8406,-13.8638],[-50.8454,-13.8516],[-50.8552,-13.8392],[-50.8591,-13.8287],[-50.8544,-13.7998],[-50.8587,-13.7794],[-50.8534,-13.7689],[-50.8553,-13.7574],[-50.8685,-13.7446],[-50.8739,-13.7345],[-50.869,-13.7248],[-50.8613,-13.7186],[-50.8482,-13.7128],[-50.8297,-13.7098],[-50.8088,-13.6974],[-50.8042,-13.6902],[-50.7994,-13.6742],[-50.7866,-13.6466],[-50.7836,-13.6204],[-50.7716,-13.6045],[-50.7664,-13.582],[-50.7686,-13.5688],[-50.7634,-13.5332],[-50.759,-13.5203],[-50.7369,-13.5032],[-50.7236,-13.498],[-50.7148,-13.4915],[-50.694,-13.4696],[-50.6885,-13.4522],[-50.6835,-13.4452],[-50.6727,-13.4415],[-50.6639,-13.435],[-50.6632,-13.4258],[-50.6692,-13.4025],[-50.6695,-13.3952],[-50.6645,-13.3744],[-50.6465,-13.362],[-50.6319,-13.3443],[-50.6236,-13.3305],[-50.6111,-13.3202],[-50.6069,-13.3057],[-50.6072,-13.2828],[-50.6056,-13.2751],[-50.5962,-13.2688],[-50.592,-13.257],[-50.5904,-13.2376],[-50.5845,-13.2225],[-50.585,-13.2153],[-50.6047,-13.1915],[-50.6059,-13.1836],[-50.6027,-13.1754],[-50.5934,-13.1613],[-50.5997,-13.1422],[-50.5983,-13.1313],[-50.5929,-13.1213],[-50.5916,-13.108],[-50.5946,-13.0967],[-50.6039,-13.0866],[-50.6103,-13.0648],[-50.6065,-13.054],[-50.5982,-13.0508],[-50.5798,-13.0549],[-50.5742,-13.0523],[-50.569,-13.0425],[-50.5708,-13.0342],[-50.5825,-13.0251],[-50.5911,-13.014],[-50.5929,-13.0035],[-50.5873,-12.9985],[-50.5734,-12.9968],[-50.5611,-12.9925],[-50.5488,-12.9928],[-50.5398,-12.9795],[-50.5279,-12.9772],[-50.5237,-12.9712],[-50.5276,-12.9507],[-50.5264,-12.9339],[-50.5226,-12.9248],[-50.5135,-12.9129],[-50.511,-12.8868],[-50.4996,-12.8795],[-50.4999,-12.8678],[-50.511,-12.8609],[-50.5131,-12.8446],[-50.5225,-12.8372],[-50.532,-12.8436],[-50.5445,-12.8422],[-50.567,-12.8434],[-50.5916,-12.8307],[-50.6005,-12.8244],[-50.5995,-12.8175],[-50.5876,-12.8124],[-50.58,-12.8048],[-50.5819,-12.7994],[-50.6033,-12.8005],[-50.612,-12.8167],[-50.6227,-12.8197],[-50.6266,-12.8119],[-50.6254,-12.8],[-50.6172,-12.789],[-50.6118,-12.7759],[-50.6168,-12.7717],[-50.6303,-12.7761],[-50.6361,-12.7711],[-50.6272,-12.7609],[-50.623,-12.7346],[-50.6275,-12.7282],[-50.6347,-12.7254],[-50.6366,-12.7152],[-50.63,-12.7065],[-50.6343,-12.7015],[-50.6451,-12.7022],[-50.648,-12.6919],[-50.6548,-12.6792],[-50.6549,-12.6735],[-50.6463,-12.6638],[-50.6469,-12.6511],[-50.6562,-12.646],[-50.6839,-12.6481],[-50.6964,-12.6497],[-50.7013,-12.6435],[-50.7011,-12.6242],[-50.7065,-12.6097],[-50.7001,-12.5951],[-50.6899,-12.5934],[-50.6739,-12.6001],[-50.668,-12.596],[-50.6675,-12.5842],[-50.6722,-12.578],[-50.6848,-12.5727],[-50.6865,-12.5692],[-50.6751,-12.5489],[-50.6655,-12.5403],[-50.6623,-12.5323],[-50.6596,-12.5061],[-50.6551,-12.4953],[-50.6471,-12.4855],[-50.6466,-12.4737],[-50.653,-12.4601],[-50.6423,-12.4525],[-50.6272,-12.4584],[-50.6236,-12.4553],[-50.6183,-12.429],[-50.6337,-12.4139],[-50.6283,-12.3965],[-50.6269,-12.384],[-50.6323,-12.3668],[-50.6397,-12.3586],[-50.6446,-12.3459],[-50.6378,-12.3253],[-50.6436,-12.319],[-50.6489,-12.2991],[-50.642,-12.2903],[-50.6313,-12.2849],[-50.6323,-12.2686],[-50.6464,-12.2561],[-50.6508,-12.245],[-50.6443,-12.2303],[-50.6437,-12.223],[-50.6554,-12.2182],[-50.6664,-12.2198],[-50.6814,-12.2169],[-50.6868,-12.2007],[-50.6792,-12.1881],[-50.679,-12.1553],[-50.6704,-12.1376],[-50.676,-12.1239],[-50.6715,-12.1063],[-50.6702,-12.088],[-50.6674,-12.0817],[-50.6676,-12.0646],[-50.6815,-12.0528],[-50.6866,-12.0451],[-50.6871,-12.0356],[-50.6778,-12.0195],[-50.6841,-12.0108],[-50.6822,-11.9909],[-50.6631,-11.9756],[-50.6568,-11.9668],[-50.6547,-11.948],[-50.668,-11.9301],[-50.6591,-11.9143],[-50.6406,-11.9027],[-50.6393,-11.8846],[-50.6451,-11.8777],[-50.6545,-11.8734],[-50.6654,-11.8645],[-50.6826,-11.8629],[-50.6863,-11.859],[-50.6859,-11.8388],[-50.691,-11.8172],[-50.7006,-11.8035],[-50.7079,-11.7682],[-50.7178,-11.7524],[-50.722,-11.7397],[-50.7173,-11.7274],[-50.7024,-11.7107],[-50.6867,-11.6971],[-50.6741,-11.6927],[-50.6637,-11.6775],[-50.664,-11.6605],[-50.6622,-11.6365],[-50.6646,-11.6266],[-50.6591,-11.6201],[-50.6575,-11.5928],[-50.6701,-11.5816],[-50.6805,-11.5836],[-50.6885,-11.5813],[-50.7093,-11.5817],[-50.716,-11.579],[-50.7243,-11.5672],[-50.7278,-11.5575],[-50.7389,-11.5445],[-50.7404,-11.5317],[-50.7356,-11.5209],[-50.7348,-11.5118],[-50.7393,-11.4992],[-50.7388,-11.4729],[-50.7421,-11.4603],[-50.7393,-11.4354],[-50.7281,-11.4169],[-50.727,-11.4111],[-50.7295,-11.392],[-50.7285,-11.3826],[-50.7123,-11.3598],[-50.7058,-11.3415],[-50.7071,-11.3282],[-50.6999,-11.3131],[-50.6968,-11.3047],[-50.679,-11.2949],[-50.6713,-11.2867],[-50.6676,-11.2776],[-50.6663,-11.2661],[-50.6594,-11.2549],[-50.656,-11.2402],[-50.6547,-11.215],[-50.662,-11.1995],[-50.6599,-11.1874],[-50.6647,-11.1659],[-50.6645,-11.1516],[-50.661,-11.1347],[-50.6576,-11.1278],[-50.6439,-11.1232],[-50.6397,-11.1076],[-50.6348,-11.097],[-50.6199,-11.0876],[-50.6146,-11.0811],[-50.6095,-11.0674],[-50.6115,-11.043],[-50.6156,-11.0376],[-50.6177,-11.0255],[-50.6176,-11.0024],[-50.6248,-10.9838],[-50.6202,-10.9689],[-50.6286,-10.9519],[-50.6326,-10.9319],[-50.6183,-10.9141],[-50.6008,-10.9007],[-50.6,-10.8817],[-50.605,-10.8725],[-50.619,-10.8641],[-50.622,-10.8394],[-50.6117,-10.8215],[-50.6122,-10.8103],[-50.6072,-10.8047],[-50.5969,-10.8047],[-50.5909,-10.7978],[-50.591,-10.7888],[-50.5803,-10.7722],[-50.5706,-10.7525],[-50.5778,-10.7334],[-50.576,-10.7254],[-50.5791,-10.7141],[-50.5839,-10.7093],[-50.5862,-10.692],[-50.591,-10.6806],[-50.6028,-10.6738],[-50.6035,-10.6609],[-50.6033,-10.6598],[-50.5826,-10.6441],[-50.581,-10.6365],[-50.5717,-10.6204],[-50.5632,-10.6113],[-50.5414,-10.6093],[-50.535,-10.6018],[-50.5357,-10.5889],[-50.5253,-10.5737],[-50.5197,-10.5625],[-50.5226,-10.5389],[-50.5147,-10.5227],[-50.5168,-10.5055],[-50.5038,-10.4959],[-50.4878,-10.4946],[-50.4826,-10.49],[-50.4867,-10.4772],[-50.4868,-10.462],[-50.4786,-10.435],[-50.4768,-10.4164],[-50.4737,-10.4049],[-50.4483,-10.3916],[-50.4411,-10.3756],[-50.4291,-10.368],[-50.4181,-10.3546],[-50.4237,-10.3419],[-50.4231,-10.3274],[-50.4147,-10.3118],[-50.4032,-10.279],[-50.3981,-10.2544],[-50.3857,-10.2332],[-50.3816,-10.2189],[-50.382,-10.2121],[-50.3894,-10.1749],[-50.3969,-10.1709],[-50.3983,-10.1555],[-50.3921,-10.134],[-50.3778,-10.1107],[-50.3666,-10.1029],[-50.3573,-10.0903],[-50.3547,-10.0772],[-50.3398,-10.0609],[-50.3283,-10.0528],[-50.3144,-10.0468],[-50.3026,-10.0354],[-50.2943,-10.0161],[-50.292,-9.9954],[-50.2779,-9.9708],[-50.2789,-9.9552],[-50.2672,-9.9347],[-50.2655,-9.9127],[-50.2556,-9.8891],[-50.2438,-9.8712],[-50.2254,-9.854],[-50.2248,-9.8412],[-50.3706,-9.8321],[-50.5006,-9.824],[-50.6963,-9.8108],[-50.846,-9.8006],[-51.058,-9.7879],[-51.3043,-9.7729],[-51.4882,-9.7606],[-51.7243,-9.7446],[-51.9717,-9.7278],[-52.0272,-9.7239],[-52.2567,-9.7077],[-52.3596,-9.7004],[-52.6193,-9.6823],[-52.9213,-9.6609],[-53.0005,-9.6553],[-53.1334,-9.6452],[-53.3253,-9.6309],[-53.5891,-9.611],[-53.6453,-9.6071],[-53.8403,-9.5923],[-54.0011,-9.5798],[-54.1068,-9.5719],[-54.3017,-9.5581],[-54.6135,-9.5358],[-54.758,-9.5243],[-54.9956,-9.5053],[-55.1522,-9.4927],[-55.3779,-9.4743],[-55.4874,-9.4654],[-55.6041,-9.4559],[-55.7157,-9.4467],[-55.8672,-9.4343],[-56.1565,-9.4104],[-56.2723,-9.4008]]]},"properties":{"codarea":"51"}}]}