{"type":"FeatureCollection","features":[{"type":"Feature","geometry":{"type":"Polygon","coordinates":[[[-54.5065,-15.4022],[-54.5039,-15.4031],[-54.5025,-15.4032],[-54.5007,-15.4025],[-54.4989,-15.4028],[-54.498,-15.4037],[-54.4988,-15.4047],[-54.4955,-15.4067],[-54.4951,-15.4092],[-54.4943,-15.4096],[-54.4925,-15.4088],[-54.4909,-15.4094],[-54.4881,-15.4067],[-54.487,-15.4041],[-54.4873,-15.4033],[-54.489,-15.4023],[-54.4893,-15.401],[-54.4872,-15.3989],[-54.4856,-15.3994],[-54.4856,-15.4013],[-54.4846,-15.4024],[-54.4827,-15.4032],[-54.4819,-15.4043],[-54.4795,-15.4053],[-54.4756,-15.4041],[-54.4732,-15.4021],[-54.4734,-15.3998],[-54.4744,-15.3979],[-54.4731,-15.3961],[-54.4728,-15.394],[-54.4711,-15.3935],[-54.4701,-15.3946],[-54.4678,-15.3938],[-54.4668,-15.3941],[-54.4659,-15.3961],[-54.4683,-15.3984],[-54.4684,-15.3995],[-54.4645,-15.4028],[-54.4627,-15.4006],[-54.462,-15.3984],[-54.4605,-15.3977],[-54.4567,-15.3994],[-54.4557,-15.4002],[-54.4555,-15.4025],[-54.4565,-15.404],[-54.4561,-15.4046],[-54.4533,-15.4041],[-54.452,-15.4036],[-54.4487,-15.3999],[-54.4469,-15.3987],[-54.4438,-15.399],[-54.442,-15.3989],[-54.4427,-15.4006],[-54.4414,-15.4016],[-54.4411,-15.4041],[-54.4396,-15.4038],[-54.4368,-15.4067],[-54.4343,-15.4077],[-54.4329,-15.4077],[-54.4304,-15.4092],[-54.4274,-15.4115],[-54.4254,-15.4116],[-54.4206,-15.4085],[-54.42,-15.4077],[-54.4209,-15.4057],[-54.4189,-15.4048],[-54.4156,-15.406],[-54.4143,-15.4062],[-54.4142,-15.4046],[-54.4166,-15.4028],[-54.4167,-15.4014],[-54.4151,-15.3999],[-54.4132,-15.3986],[-54.4137,-15.3974],[-54.4178,-15.3956],[-54.4208,-15.3923],[-54.42,-15.3883],[-54.4191,-15.3875],[-54.4175,-15.3872],[-54.4146,-15.3874],[-54.4138,-15.3866],[-54.4141,-15.3844],[-54.4129,-15.3814],[-54.41,-15.3774],[-54.4069,-15.3763],[-54.4034,-15.3759],[-54.3995,-15.3792],[-54.3982,-15.3794],[-54.3937,-15.3771],[-54.3884,-15.3761],[-54.3862,-15.3752],[-54.3846,-15.3731],[-54.3829,-15.3722],[-54.3806,-15.3717],[-54.377,-15.3702],[-54.3741,-15.3683],[-54.3709,-15.3654],[-54.367,-15.3635],[-54.3622,-15.3595],[-54.3614,-15.3584],[-54.3609,-15.3538],[-54.3611,-15.3496],[-54.3602,-15.3486],[-54.3581,-15.3484],[-54.3568,-15.3494],[-54.355,-15.3495],[-54.3532,-15.3489],[-54.352,-15.3471],[-54.3519,-15.3429],[-54.3514,-15.3412],[-54.3503,-15.341],[-54.3479,-15.3415],[-54.3466,-15.3422],[-54.3451,-15.344],[-54.3445,-15.3462],[-54.3425,-15.3494],[-54.3407,-15.348],[-54.34,-15.3466],[-54.3396,-15.344],[-54.3406,-15.3411],[-54.3388,-15.341],[-54.3378,-15.3423],[-54.3371,-15.3457],[-54.3353,-15.3462],[-54.3339,-15.3455],[-54.3326,-15.3418],[-54.33,-15.3383],[-54.3286,-15.3379],[-54.3256,-15.3383],[-54.3235,-15.3374],[-54.3228,-15.3363],[-54.3217,-15.3332],[-54.3208,-15.3325],[-54.3189,-15.3327],[-54.3148,-15.3339],[-54.3131,-15.3333],[-54.3141,-15.3313],[-54.3129,-15.3284],[-54.3118,-15.327],[-54.3082,-15.3259],[-54.3064,-15.3262],[-54.3058,-15.3275],[-54.3061,-15.3287],[-54.3086,-15.3313],[-54.308,-15.3323],[-54.3051,-15.3313],[-54.3032,-15.3299],[-54.3012,-15.3292],[-54.2994,-15.3281],[-54.2961,-15.3282],[-54.2951,-15.3289],[-54.295,-15.3304],[-54.297,-15.3312],[-54.2985,-15.3342],[-54.2986,-15.3356],[-54.2975,-15.3371],[-54.2957,-15.337],[-54.2943,-15.3353],[-54.2927,-15.3346],[-54.2898,-15.3356],[-54.288,-15.3353],[-54.2858,-15.3314],[-54.2822,-15.3285],[-54.2784,-15.3272],[-54.2763,-15.3271],[-54.2747,-15.3287],[-54.2752,-15.3299],[-54.2774,-15.3301],[-54.2783,-15.3311],[-54.278,-15.3326],[-54.2769,-15.334],[-54.2743,-15.335],[-54.272,-15.3348],[-54.2702,-15.3353],[-54.2665,-15.3345],[-54.2652,-15.3334],[-54.2656,-15.3309],[-54.2653,-15.3304],[-54.2631,-15.3307],[-54.2615,-15.3314],[-54.2605,-15.333],[-54.2606,-15.3345],[-54.2626,-15.336],[-54.2643,-15.3379],[-54.2646,-15.3392],[-54.2642,-15.3406],[-54.2629,-15.3406],[-54.2616,-15.3415],[-54.2612,-15.3435],[-54.2618,-15.3455],[-54.2608,-15.3462],[-54.2603,-15.3486],[-54.2612,-15.3501],[-54.2604,-15.3528],[-54.2615,-15.3544],[-54.2616,-15.3558],[-54.2629,-15.3563],[-54.2623,-15.3587],[-54.2638,-15.3596],[-54.2647,-15.3628],[-54.2677,-15.3642],[-54.2684,-15.3654],[-54.2688,-15.3681],[-54.2701,-15.3706],[-54.2701,-15.3723],[-54.2717,-15.3742],[-54.2732,-15.3738],[-54.2742,-15.3744],[-54.2771,-15.3781],[-54.2781,-15.3802],[-54.2782,-15.3827],[-54.2793,-15.3845],[-54.2806,-15.3893],[-54.2803,-15.3911],[-54.2806,-15.3947],[-54.2811,-15.3974],[-54.2803,-15.3989],[-54.2804,-15.4008],[-54.2812,-15.4027],[-54.2808,-15.4039],[-54.2795,-15.4039],[-54.2793,-15.4061],[-54.2787,-15.4071],[-54.2798,-15.4085],[-54.2778,-15.4128],[-54.2798,-15.4149],[-54.2807,-15.4152],[-54.2814,-15.4166],[-54.2816,-15.4186],[-54.2806,-15.4192],[-54.2816,-15.4204],[-54.2834,-15.4208],[-54.2867,-15.4236],[-54.2887,-15.4241],[-54.291,-15.4252],[-54.2925,-15.4253],[-54.2931,-15.4262],[-54.2961,-15.4281],[-54.299,-15.4318],[-54.2998,-15.4345],[-54.3029,-15.4355],[-54.3036,-15.4366],[-54.3058,-15.4385],[-54.3088,-15.4395],[-54.3106,-15.4397],[-54.3117,-15.4405],[-54.3133,-15.4403],[-54.3169,-15.4417],[-54.3174,-15.4432],[-54.3185,-15.4439],[-54.3204,-15.4434],[-54.3219,-15.4443],[-54.3218,-15.4459],[-54.3229,-15.446],[-54.3248,-15.4447],[-54.3263,-15.4442],[-54.3287,-15.4457],[-54.3312,-15.4462],[-54.3346,-15.4445],[-54.3367,-15.4468],[-54.3393,-15.4469],[-54.3416,-15.4457],[-54.3423,-15.447],[-54.3439,-15.447],[-54.3444,-15.4478],[-54.3459,-15.447],[-54.3469,-15.4479],[-54.3479,-15.4475],[-54.3498,-15.45],[-54.3529,-15.4518],[-54.3539,-15.453],[-54.3549,-15.4529],[-54.3578,-15.4548],[-54.3589,-15.4567],[-54.3589,-15.4583],[-54.36,-15.4598],[-54.36,-15.4611],[-54.3612,-15.4623],[-54.3619,-15.4639],[-54.3632,-15.4641],[-54.3641,-15.4659],[-54.3635,-15.4676],[-54.3643,-15.4713],[-54.3661,-15.4709],[-54.368,-15.4716],[-54.3695,-15.4731],[-54.3703,-15.4756],[-54.3721,-15.4774],[-54.3711,-15.4794],[-54.3707,-15.4824],[-54.3709,-15.4836],[-54.3735,-15.4877],[-54.3758,-15.4898],[-54.3771,-15.4926],[-54.3808,-15.4963],[-54.383,-15.4961],[-54.386,-15.4963],[-54.3902,-15.4962],[-54.3933,-15.4992],[-54.3983,-15.501],[-54.4008,-15.5025],[-54.4029,-15.5061],[-54.4046,-15.5082],[-54.4083,-15.5116],[-54.4111,-15.5148],[-54.413,-15.5176],[-54.4147,-15.5186],[-54.4164,-15.5206],[-54.4187,-15.5245],[-54.4195,-15.5267],[-54.4212,-15.5332],[-54.4208,-15.5365],[-54.4219,-15.5404],[-54.4223,-15.5449],[-54.4237,-15.5481],[-54.4262,-15.553],[-54.4289,-15.5567],[-54.4302,-15.5597],[-54.4748,-15.5895],[-54.4702,-15.5883],[-54.4701,-15.5878],[-54.4673,-15.5871],[-54.4665,-15.586],[-54.4648,-15.587],[-54.4638,-15.5868],[-54.4609,-15.5876],[-54.4572,-15.5866],[-54.4553,-15.5868],[-54.4524,-15.585],[-54.4488,-15.5859],[-54.4462,-15.5849],[-54.4445,-15.5847],[-54.4425,-15.5853],[-54.4405,-15.5848],[-54.4395,-15.586],[-54.4381,-15.5867],[-54.4337,-15.5873],[-54.434,-15.5898],[-54.4329,-15.5912],[-54.4312,-15.591],[-54.4293,-15.5893],[-54.428,-15.5896],[-54.4263,-15.5881],[-54.4243,-15.5882],[-54.4236,-15.5903],[-54.4238,-15.5926],[-54.4249,-15.5954],[-54.4258,-15.5959],[-54.4256,-15.5975],[-54.4221,-15.5972],[-54.4197,-15.5965],[-54.4185,-15.5955],[-54.4183,-15.5923],[-54.4194,-15.591],[-54.4192,-15.5902],[-54.4203,-15.588],[-54.4198,-15.5865],[-54.4172,-15.586],[-54.4164,-15.5854],[-54.4131,-15.5848],[-54.4123,-15.5837],[-54.4091,-15.5836],[-54.4082,-15.5824],[-54.4072,-15.5822],[-54.4045,-15.583],[-54.4024,-15.5832],[-54.4017,-15.5846],[-54.4019,-15.5864],[-54.4033,-15.5885],[-54.4022,-15.5902],[-54.4011,-15.5898],[-54.4004,-15.5884],[-54.3986,-15.5885],[-54.3964,-15.5893],[-54.3942,-15.5909],[-54.3926,-15.591],[-54.3897,-15.5876],[-54.3887,-15.5904],[-54.3872,-15.5895],[-54.3863,-15.5898],[-54.3857,-15.5915],[-54.3839,-15.5918],[-54.382,-15.5909],[-54.3804,-15.5914],[-54.3799,-15.5929],[-54.378,-15.5926],[-54.3756,-15.5943],[-54.3747,-15.5955],[-54.3716,-15.5955],[-54.368,-15.5972],[-54.3667,-15.6],[-54.3647,-15.5997],[-54.3647,-15.5978],[-54.3628,-15.5966],[-54.3596,-15.5958],[-54.3566,-15.5939],[-54.3541,-15.5927],[-54.3507,-15.5894],[-54.35,-15.5892],[-54.3466,-15.5897],[-54.3449,-15.5888],[-54.3425,-15.5885],[-54.3399,-15.5864],[-54.3363,-15.5857],[-54.3352,-15.5846],[-54.3333,-15.5838],[-54.3315,-15.5835],[-54.3291,-15.5823],[-54.328,-15.5824],[-54.3265,-15.5816],[-54.3252,-15.5799],[-54.3233,-15.5805],[-54.3205,-15.5797],[-54.3189,-15.5785],[-54.3169,-15.5782],[-54.3142,-15.5766],[-54.3109,-15.577],[-54.3089,-15.5747],[-54.3078,-15.5744],[-54.3068,-15.5753],[-54.3058,-15.5746],[-54.2992,-15.571],[-54.2978,-15.572],[-54.2912,-15.5685],[-54.2896,-15.5671],[-54.2872,-15.567],[-54.2873,-15.5651],[-54.2861,-15.5646],[-54.2836,-15.5646],[-54.2803,-15.5631],[-54.2814,-15.5611],[-54.284,-15.5607],[-54.2867,-15.5608],[-54.2901,-15.5596],[-54.2811,-15.558],[-54.2796,-15.5595],[-54.2774,-15.5611],[-54.2769,-15.5631],[-54.278,-15.5651],[-54.2786,-15.5684],[-54.277,-15.5691],[-54.2762,-15.5672],[-54.2762,-15.5661],[-54.2755,-15.5629],[-54.2731,-15.56],[-54.2709,-15.5586],[-54.2698,-15.5585],[-54.2668,-15.561],[-54.2638,-15.5614],[-54.262,-15.5607],[-54.2597,-15.5611],[-54.2591,-15.5622],[-54.2572,-15.563],[-54.254,-15.5612],[-54.2534,-15.5585],[-54.2525,-15.5576],[-54.2548,-15.5545],[-54.2539,-15.553],[-54.2524,-15.5529],[-54.2513,-15.5522],[-54.2495,-15.5521],[-54.2483,-15.5529],[-54.2452,-15.5529],[-54.2432,-15.5546],[-54.2423,-15.5564],[-54.2409,-15.5565],[-54.24,-15.5556],[-54.2351,-15.5564],[-54.2341,-15.5541],[-54.2344,-15.5514],[-54.233,-15.5501],[-54.2316,-15.5499],[-54.2297,-15.5482],[-54.2296,-15.5467],[-54.2284,-15.5454],[-54.2264,-15.5451],[-54.2269,-15.5436],[-54.227,-15.5413],[-54.2278,-15.5399],[-54.2277,-15.5386],[-54.2249,-15.5376],[-54.2219,-15.5384],[-54.2199,-15.5373],[-54.2187,-15.5386],[-54.2161,-15.5392],[-54.2149,-15.5402],[-54.2137,-15.5389],[-54.212,-15.5382],[-54.2127,-15.5362],[-54.2122,-15.5349],[-54.2125,-15.5324],[-54.2115,-15.5296],[-54.2102,-15.5296],[-54.2088,-15.5309],[-54.2067,-15.5311],[-54.2055,-15.5318],[-54.2038,-15.5321],[-54.2027,-15.5331],[-54.2033,-15.5351],[-54.2016,-15.5391],[-54.2003,-15.5384],[-54.1979,-15.5384],[-54.197,-15.5379],[-54.1938,-15.5423],[-54.1928,-15.5454],[-54.1923,-15.5498],[-54.1924,-15.556],[-54.1919,-15.562],[-54.1954,-15.5618],[-54.1977,-15.5647],[-54.1995,-15.565],[-54.2018,-15.5683],[-54.2031,-15.5681],[-54.2046,-15.5666],[-54.2049,-15.5643],[-54.2062,-15.5646],[-54.2075,-15.564],[-54.2089,-15.5651],[-54.2096,-15.5667],[-54.2109,-15.5671],[-54.2121,-15.5687],[-54.2123,-15.5701],[-54.2137,-15.5719],[-54.2148,-15.5743],[-54.2164,-15.5748],[-54.2153,-15.5712],[-54.2157,-15.5695],[-54.2175,-15.5703],[-54.2173,-15.5727],[-54.2184,-15.574],[-54.2197,-15.5742],[-54.2208,-15.5753],[-54.2213,-15.5796],[-54.2211,-15.5813],[-54.222,-15.5833],[-54.2204,-15.585],[-54.2205,-15.5866],[-54.2191,-15.5892],[-54.2201,-15.5924],[-54.2189,-15.5935],[-54.2188,-15.5946],[-54.2197,-15.5959],[-54.2193,-15.5978],[-54.2199,-15.5995],[-54.2217,-15.6012],[-54.2227,-15.6013],[-54.2249,-15.5999],[-54.2264,-15.6003],[-54.2264,-15.6014],[-54.2253,-15.6022],[-54.2247,-15.6039],[-54.2249,-15.6054],[-54.2266,-15.6074],[-54.2288,-15.6085],[-54.2282,-15.6095],[-54.226,-15.6092],[-54.2251,-15.6098],[-54.2229,-15.6096],[-54.2212,-15.6106],[-54.2204,-15.6122],[-54.2211,-15.615],[-54.2225,-15.6162],[-54.2226,-15.6176],[-54.2201,-15.6217],[-54.2202,-15.624],[-54.221,-15.6254],[-54.2227,-15.6266],[-54.2249,-15.6295],[-54.2245,-15.6328],[-54.2227,-15.6334],[-54.2223,-15.6351],[-54.2234,-15.6373],[-54.2235,-15.6386],[-54.2252,-15.6422],[-54.2247,-15.6445],[-54.2225,-15.6449],[-54.2192,-15.6451],[-54.2153,-15.6451],[-54.2127,-15.6419],[-54.2119,-15.6403],[-54.211,-15.6399],[-54.2063,-15.6396],[-54.199,-15.6411],[-54.1943,-15.6407],[-54.1931,-15.6418],[-54.1928,-15.644],[-54.1931,-15.6451],[-54.1949,-15.6469],[-54.1939,-15.6491],[-54.1924,-15.6504],[-54.19,-15.6512],[-54.1879,-15.651],[-54.1867,-15.6493],[-54.1854,-15.6482],[-54.1848,-15.6468],[-54.1827,-15.6455],[-54.1805,-15.6453],[-54.1788,-15.6465],[-54.1748,-15.6471],[-54.1727,-15.6479],[-54.1716,-15.6492],[-54.1708,-15.6515],[-54.1712,-15.6529],[-54.1751,-15.6541],[-54.1773,-15.6552],[-54.184,-15.6603],[-54.1867,-15.6613],[-54.1879,-15.6612],[-54.1938,-15.6635],[-54.196,-15.6625],[-54.2001,-15.664],[-54.2025,-15.6658],[-54.2008,-15.6668],[-54.1986,-15.665],[-54.197,-15.6662],[-54.1949,-15.6668],[-54.193,-15.6681],[-54.1938,-15.6714],[-54.1938,-15.6736],[-54.1957,-15.6753],[-54.1976,-15.6751],[-54.1999,-15.6728],[-54.2004,-15.6715],[-54.2021,-15.6721],[-54.202,-15.6732],[-54.2007,-15.6735],[-54.2009,-15.6761],[-54.1838,-15.6758],[-54.1824,-15.6744],[-54.1747,-15.6679],[-54.1725,-15.6664],[-54.1688,-15.6661],[-54.1681,-15.6673],[-54.1666,-15.6658],[-54.1624,-15.661],[-54.1588,-15.6575],[-54.1533,-15.6533],[-54.149,-15.6503],[-54.1467,-15.649],[-54.1439,-15.648],[-54.1416,-15.6463],[-54.138,-15.6428],[-54.1354,-15.639],[-54.1342,-15.636],[-54.1326,-15.6334],[-54.1333,-15.6277],[-54.1332,-15.624],[-54.1318,-15.624],[-54.1178,-15.6284],[-54.1149,-15.6285],[-54.0881,-15.6236],[-54.044,-15.6156],[-54.0443,-15.6103],[-54.0449,-15.6082],[-54.0465,-15.6067],[-54.0473,-15.6044],[-54.0487,-15.6016],[-54.0493,-15.598],[-54.0489,-15.5955],[-54.0491,-15.5935],[-54.0477,-15.59],[-54.047,-15.5861],[-54.0481,-15.5819],[-54.0467,-15.5777],[-54.0446,-15.5764],[-54.0435,-15.5751],[-54.0404,-15.568],[-54.0392,-15.5637],[-54.0381,-15.5612],[-54.037,-15.5573],[-54.0361,-15.5558],[-54.0355,-15.5536],[-54.0341,-15.5516],[-54.0333,-15.5492],[-54.0327,-15.545],[-54.0314,-15.5433],[-54.0301,-15.5422],[-54.0298,-15.54],[-54.0306,-15.5374],[-54.0301,-15.5353],[-54.0291,-15.534],[-54.0289,-15.5321],[-54.0298,-15.53],[-54.0299,-15.5272],[-54.0308,-15.5246],[-54.0303,-15.5197],[-54.0291,-15.5142],[-54.0311,-15.5113],[-54.0307,-15.5072],[-54.032,-15.5057],[-54.0321,-15.5022],[-54.0314,-15.4988],[-54.032,-15.497],[-54.0311,-15.4936],[-54.0317,-15.492],[-54.0331,-15.4904],[-54.0344,-15.4861],[-54.0336,-15.4838],[-54.0334,-15.4821],[-54.0323,-15.4797],[-54.0322,-15.4768],[-54.033,-15.4748],[-54.0333,-15.4722],[-54.033,-15.4682],[-54.035,-15.4655],[-54.0358,-15.4624],[-54.0369,-15.4606],[-54.0377,-15.4582],[-54.0393,-15.4551],[-54.0404,-15.4541],[-54.0408,-15.4525],[-54.0399,-15.4502],[-54.0417,-15.4475],[-54.0426,-15.4454],[-54.0417,-15.4434],[-54.0428,-15.4402],[-54.0441,-15.4377],[-54.0439,-15.4355],[-54.0462,-15.4303],[-54.0486,-15.4279],[-54.0497,-15.4231],[-54.0498,-15.4208],[-54.0507,-15.4189],[-54.0525,-15.417],[-54.054,-15.4138],[-54.0559,-15.4121],[-54.0572,-15.4097],[-54.056,-15.4073],[-54.0567,-15.4052],[-54.0551,-15.4028],[-54.0555,-15.4008],[-54.0552,-15.3996],[-54.0561,-15.3974],[-54.0572,-15.3961],[-54.0566,-15.3942],[-54.0583,-15.3912],[-54.0567,-15.3908],[-54.0558,-15.3895],[-54.0541,-15.389],[-54.0533,-15.3882],[-54.053,-15.3865],[-54.0519,-15.3853],[-54.052,-15.3844],[-54.0504,-15.3807],[-54.0486,-15.3789],[-54.0463,-15.3788],[-54.0463,-15.3769],[-54.0447,-15.3764],[-54.0443,-15.3724],[-54.0422,-15.3704],[-54.0417,-15.3691],[-54.0413,-15.366],[-54.04,-15.3636],[-54.0401,-15.3623],[-54.0375,-15.3601],[-54.0374,-15.3585],[-54.0358,-15.3566],[-54.0352,-15.3529],[-54.0344,-15.3513],[-54.0344,-15.3483],[-54.0357,-15.3459],[-54.0372,-15.3438],[-54.0362,-15.3423],[-54.0347,-15.3381],[-54.0344,-15.3355],[-54.0346,-15.3337],[-54.0323,-15.3317],[-54.0321,-15.3307],[-54.0305,-15.3294],[-54.0251,-15.3281],[-54.0241,-15.3263],[-54.0235,-15.3242],[-54.0213,-15.323],[-54.0203,-15.3211],[-54.0205,-15.3193],[-54.0197,-15.3176],[-54.0182,-15.3171],[-54.0169,-15.316],[-54.0164,-15.3145],[-54.0153,-15.3136],[-54.0141,-15.3137],[-54.0134,-15.312],[-54.0119,-15.3123],[-54.0082,-15.3112],[-54.0074,-15.3093],[-54.0061,-15.3088],[-54.0046,-15.3062],[-54.0038,-15.3059],[-54.0006,-15.307],[-53.9993,-15.3066],[-53.9974,-15.3045],[-53.9954,-15.3055],[-53.9913,-15.3068],[-53.9894,-15.3054],[-53.985,-15.304],[-53.9839,-15.3032],[-53.9814,-15.3031],[-53.9787,-15.3018],[-53.9763,-15.3023],[-53.974,-15.3003],[-53.9722,-15.2998],[-53.9689,-15.2994],[-53.9649,-15.2995],[-53.9626,-15.2988],[-53.9613,-15.2967],[-53.9597,-15.2955],[-53.9564,-15.2945],[-53.9539,-15.2931],[-53.953,-15.291],[-53.9521,-15.2906],[-53.9484,-15.2904],[-53.9473,-15.29],[-53.9447,-15.2878],[-53.9428,-15.2868],[-53.9421,-15.2851],[-53.9405,-15.2845],[-53.9396,-15.2836],[-53.9394,-15.2819],[-53.9362,-15.2813],[-53.9347,-15.2815],[-53.9332,-15.2811],[-53.9324,-15.2817],[-53.9309,-15.2815],[-53.9266,-15.2787],[-53.9237,-15.2754],[-53.9222,-15.2742],[-53.9208,-15.274],[-53.9192,-15.2752],[-53.9161,-15.2741],[-53.9148,-15.2745],[-53.9147,-15.2757],[-53.9134,-15.2761],[-53.911,-15.2742],[-53.9098,-15.2715],[-53.9089,-15.2709],[-53.907,-15.2721],[-53.9055,-15.272],[-53.904,-15.2697],[-53.9028,-15.2701],[-53.9018,-15.2722],[-53.9005,-15.272],[-53.9007,-15.2679],[-53.8996,-15.2651],[-53.899,-15.2612],[-53.9002,-15.2621],[-53.9013,-15.2616],[-53.9025,-15.2596],[-53.9121,-15.2592],[-53.9146,-15.2584],[-53.9151,-15.2565],[-53.914,-15.2538],[-53.9105,-15.2506],[-53.9084,-15.2503],[-53.9072,-15.2491],[-53.9083,-15.2458],[-53.9097,-15.2449],[-53.9122,-15.245],[-53.9155,-15.246],[-53.9181,-15.2463],[-53.9204,-15.2452],[-53.9226,-15.245],[-53.9236,-15.2461],[-53.9227,-15.2481],[-53.9243,-15.2512],[-53.9256,-15.2523],[-53.9275,-15.2524],[-53.9292,-15.2519],[-53.9301,-15.2508],[-53.932,-15.2459],[-53.9325,-15.2438],[-53.9332,-15.2427],[-53.9348,-15.2418],[-53.9364,-15.242],[-53.9388,-15.2444],[-53.9411,-15.2446],[-53.9429,-15.2435],[-53.9443,-15.2434],[-53.9463,-15.2453],[-53.9474,-15.2479],[-53.9491,-15.2474],[-53.95,-15.246],[-53.9495,-15.2438],[-53.9476,-15.2414],[-53.947,-15.24],[-53.9471,-15.238],[-53.9483,-15.2361],[-53.9491,-15.2357],[-53.949,-15.234],[-53.9467,-15.2334],[-53.945,-15.2347],[-53.9437,-15.2331],[-53.9444,-15.2314],[-53.9426,-15.2291],[-53.9426,-15.2276],[-53.9418,-15.2256],[-53.9428,-15.2249],[-53.9438,-15.2261],[-53.9449,-15.2253],[-53.9441,-15.2242],[-53.942,-15.2233],[-53.942,-15.2217],[-53.9433,-15.221],[-53.9436,-15.2194],[-53.9457,-15.2177],[-53.9452,-15.2157],[-53.9438,-15.2153],[-53.9432,-15.2142],[-53.9414,-15.2129],[-53.9419,-15.211],[-53.9413,-15.2087],[-53.9402,-15.2075],[-53.9379,-15.2074],[-53.9369,-15.2063],[-53.9362,-15.2032],[-53.9346,-15.2017],[-53.9364,-15.2003],[-53.936,-15.1986],[-53.9348,-15.1981],[-53.9349,-15.1957],[-53.9341,-15.1946],[-53.9327,-15.1961],[-53.9313,-15.1966],[-53.9301,-15.1953],[-53.9315,-15.1935],[-53.9312,-15.1913],[-53.9301,-15.1901],[-53.9277,-15.1906],[-53.9272,-15.1889],[-53.9289,-15.1862],[-53.9272,-15.1828],[-53.9281,-15.1806],[-53.9274,-15.1787],[-53.9306,-15.1783],[-53.9324,-15.1785],[-53.9337,-15.1776],[-53.9331,-15.1747],[-53.9339,-15.1737],[-53.9356,-15.1731],[-53.936,-15.1718],[-53.9353,-15.1702],[-53.9363,-15.1689],[-53.9377,-15.1686],[-53.9382,-15.1677],[-53.9396,-15.1677],[-53.9403,-15.1669],[-53.9399,-15.1646],[-53.9405,-15.1628],[-53.9396,-15.1615],[-53.9392,-15.159],[-53.94,-15.1576],[-53.939,-15.1564],[-53.9399,-15.1553],[-53.9368,-15.1543],[-53.9368,-15.1535],[-53.9381,-15.1515],[-53.938,-15.15],[-53.9354,-15.1486],[-53.9348,-15.147],[-53.9347,-15.1442],[-53.9337,-15.1431],[-53.9333,-15.1409],[-53.9366,-15.1394],[-53.9386,-15.1393],[-53.9394,-15.1377],[-53.9405,-15.1375],[-53.9419,-15.1363],[-53.9427,-15.1341],[-53.9426,-15.1328],[-53.944,-15.1324],[-53.9441,-15.1306],[-53.9418,-15.1292],[-53.9426,-15.1278],[-53.9415,-15.1273],[-53.9399,-15.1255],[-53.9402,-15.1237],[-53.9384,-15.1218],[-53.9386,-15.119],[-53.9398,-15.1162],[-53.9397,-15.1146],[-53.9434,-15.1124],[-53.9427,-15.1111],[-53.9413,-15.1108],[-53.9408,-15.1099],[-53.9415,-15.1082],[-53.9409,-15.1067],[-53.9393,-15.1066],[-53.9387,-15.1052],[-53.9391,-15.1043],[-53.937,-15.1028],[-53.9387,-15.1015],[-53.9375,-15.1],[-53.9347,-15.0995],[-53.935,-15.0973],[-53.9333,-15.0957],[-53.9316,-15.0957],[-53.9291,-15.0944],[-53.9284,-15.0932],[-53.9284,-15.0917],[-53.9261,-15.0893],[-53.9244,-15.0883],[-53.9247,-15.0869],[-53.9262,-15.0862],[-53.9248,-15.0832],[-53.9253,-15.0822],[-53.9306,-15.0798],[-53.933,-15.0801],[-53.9341,-15.0799],[-53.9339,-15.0778],[-53.9353,-15.0776],[-53.9369,-15.0782],[-53.9401,-15.0776],[-53.9414,-15.0783],[-53.9408,-15.0799],[-53.9426,-15.0805],[-53.945,-15.0774],[-53.9448,-15.0755],[-53.9464,-15.0732],[-53.9456,-15.072],[-53.9451,-15.0687],[-53.9454,-15.0656],[-53.9434,-15.0654],[-53.9438,-15.0638],[-53.9433,-15.0626],[-53.9415,-15.0614],[-53.9416,-15.0599],[-53.9411,-15.0587],[-53.9415,-15.0573],[-53.9427,-15.0567],[-53.9431,-15.0553],[-53.9419,-15.0544],[-53.9424,-15.0531],[-53.9437,-15.0523],[-53.9443,-15.0509],[-53.9451,-15.047],[-53.9439,-15.0459],[-53.9447,-15.0443],[-53.9469,-15.0441],[-53.9467,-15.0425],[-53.9449,-15.0418],[-53.9472,-15.0394],[-53.946,-15.0379],[-53.9458,-15.0367],[-53.9446,-15.0354],[-53.9439,-15.0329],[-53.9445,-15.0295],[-53.943,-15.0285],[-53.9427,-15.0267],[-53.9415,-15.0261],[-53.9394,-15.023],[-53.9401,-15.021],[-53.9388,-15.0185],[-53.9389,-15.0148],[-53.9368,-15.0112],[-53.9351,-15.0064],[-53.9356,-15.0027],[-53.9354,-14.9995],[-53.9366,-14.9989],[-53.9364,-14.9978],[-53.9348,-14.9968],[-53.9344,-14.9948],[-53.9332,-14.9939],[-53.9328,-14.9917],[-53.9343,-14.9906],[-53.938,-14.9884],[-53.9403,-14.9857],[-53.9433,-14.9851],[-53.9462,-14.9859],[-53.9483,-14.985],[-53.9497,-14.9829],[-53.9511,-14.9834],[-53.9552,-14.9816],[-53.9576,-14.9798],[-53.9598,-14.9778],[-53.9636,-14.9762],[-53.9692,-14.9748],[-53.9718,-14.9736],[-53.9741,-14.9714],[-53.9745,-14.9696],[-53.9773,-14.9666],[-53.9785,-14.9661],[-53.9811,-14.9661],[-53.9831,-14.9655],[-53.9847,-14.9633],[-53.9851,-14.9614],[-53.9844,-14.9609],[-53.9841,-14.9587],[-53.9847,-14.9577],[-53.9847,-14.9557],[-53.9873,-14.9538],[-53.9878,-14.9526],[-53.9893,-14.952],[-53.9906,-14.9488],[-53.9916,-14.9483],[-53.9929,-14.9455],[-53.9953,-14.9448],[-53.998,-14.9451],[-53.9994,-14.9435],[-53.9997,-14.9417],[-53.9989,-14.9408],[-53.9984,-14.9391],[-53.9994,-14.9377],[-53.9984,-14.9358],[-53.9992,-14.9341],[-54.0012,-14.932],[-54.0014,-14.9311],[-54.0031,-14.929],[-54.005,-14.9279],[-54.0084,-14.9272],[-54.0112,-14.9287],[-54.0142,-14.9282],[-54.0174,-14.926],[-54.0195,-14.9228],[-54.0198,-14.9214],[-54.0181,-14.9186],[-54.0163,-14.9174],[-54.0148,-14.9143],[-54.0169,-14.9107],[-54.019,-14.909],[-54.0203,-14.9062],[-54.0205,-14.9049],[-54.0233,-14.9014],[-54.0256,-14.9001],[-54.0266,-14.8982],[-54.0308,-14.8975],[-54.0371,-14.8949],[-54.0385,-14.8938],[-54.042,-14.8928],[-54.0443,-14.8913],[-54.048,-14.8884],[-54.0503,-14.8873],[-54.0566,-14.8849],[-54.0587,-14.8837],[-54.0611,-14.8817],[-54.0659,-14.8808],[-54.0685,-14.8799],[-54.0699,-14.8797],[-54.0739,-14.8801],[-54.0752,-14.8798],[-54.0765,-14.8767],[-54.0793,-14.8764],[-54.0886,-14.8737],[-54.0939,-14.8718],[-54.0968,-14.8699],[-54.1003,-14.8692],[-54.1014,-14.8687],[-54.1036,-14.8661],[-54.1068,-14.8643],[-54.1074,-14.8616],[-54.1088,-14.8606],[-54.1096,-14.8586],[-54.1117,-14.8581],[-54.1137,-14.8581],[-54.1159,-14.8571],[-54.1183,-14.8548],[-54.1215,-14.8558],[-54.1254,-14.8541],[-54.1271,-14.8542],[-54.1282,-14.8535],[-54.1325,-14.8521],[-54.1365,-14.8505],[-54.1387,-14.8503],[-54.1412,-14.8488],[-54.1427,-14.8487],[-54.1451,-14.8475],[-54.1469,-14.8481],[-54.149,-14.8475],[-54.1541,-14.8486],[-54.1586,-14.8487],[-54.1634,-14.8478],[-54.1646,-14.8473],[-54.1666,-14.8456],[-54.1676,-14.8453],[-54.1715,-14.8424],[-54.1729,-14.8399],[-54.1755,-14.8383],[-54.1789,-14.8358],[-54.1839,-14.8335],[-54.1889,-14.8318],[-54.1916,-14.8294],[-54.1965,-14.826],[-54.1974,-14.8249],[-54.1274,-14.825],[-54.093,-14.825],[-54.0889,-14.8248],[-54.0855,-14.8255],[-54.0809,-14.8275],[-54.0786,-14.8281],[-54.0757,-14.8282],[-54.0711,-14.8269],[-54.0673,-14.8246],[-54.0651,-14.8218],[-54.0637,-14.8208],[-54.0596,-14.8211],[-54.0542,-14.8191],[-54.0458,-14.8197],[-54.0436,-14.8195],[-54.0416,-14.8187],[-54.0402,-14.8172],[-54.0392,-14.815],[-54.0346,-14.8141],[-54.0337,-14.8135],[-54.0334,-14.8106],[-54.0311,-14.8102],[-54.0278,-14.8076],[-54.0267,-14.8059],[-54.0267,-14.8013],[-54.0221,-14.799],[-54.0211,-14.7981],[-54.0197,-14.7951],[-54.0179,-14.7925],[-54.0149,-14.7936],[-54.0134,-14.7946],[-54.0121,-14.7947],[-54.0104,-14.7931],[-54.0107,-14.7918],[-54.0091,-14.7902],[-54.0067,-14.7895],[-53.9999,-14.7866],[-53.9982,-14.7857],[-53.9926,-14.7856],[-53.99,-14.7846],[-53.9887,-14.7818],[-53.9884,-14.7803],[-53.9867,-14.7808],[-53.986,-14.7792],[-53.9866,-14.7775],[-53.9859,-14.7759],[-53.9837,-14.7753],[-53.9831,-14.7738],[-53.9815,-14.7733],[-53.9837,-14.7712],[-53.9826,-14.7703],[-53.9808,-14.7699],[-53.9791,-14.7679],[-53.9771,-14.7674],[-53.9756,-14.7679],[-53.9751,-14.77],[-53.9739,-14.7708],[-53.9701,-14.7699],[-53.967,-14.7683],[-53.9647,-14.7679],[-53.9611,-14.7677],[-53.9594,-14.7667],[-53.9592,-14.7654],[-53.9579,-14.7635],[-53.9559,-14.7615],[-53.9543,-14.7605],[-53.9521,-14.7597],[-53.9445,-14.7586],[-53.9406,-14.7566],[-53.936,-14.7556],[-53.9331,-14.7557],[-53.9314,-14.7544],[-53.9297,-14.7512],[-53.9296,-14.7481],[-53.9275,-14.7474],[-53.9264,-14.7478],[-53.9245,-14.7456],[-53.9202,-14.744],[-53.9196,-14.7455],[-53.9175,-14.7456],[-53.9143,-14.7467],[-53.911,-14.7466],[-53.9091,-14.7448],[-53.9079,-14.7444],[-53.9067,-14.7416],[-53.9054,-14.7404],[-53.9035,-14.74],[-53.9023,-14.7389],[-53.9017,-14.7369],[-53.9005,-14.7355],[-53.8992,-14.7358],[-53.8985,-14.7372],[-53.8967,-14.7377],[-53.8966,-14.7366],[-53.8949,-14.7346],[-53.8931,-14.7344],[-53.8934,-14.7329],[-53.8925,-14.7312],[-53.8901,-14.7296],[-53.8889,-14.7293],[-53.8882,-14.726],[-53.8851,-14.7268],[-53.8833,-14.7269],[-53.8818,-14.7277],[-53.8783,-14.7257],[-53.8787,-14.7242],[-53.8755,-14.7217],[-53.8738,-14.7222],[-53.8713,-14.7206],[-53.8685,-14.7214],[-53.868,-14.7196],[-53.8668,-14.7182],[-53.867,-14.717],[-53.8661,-14.7155],[-53.8662,-14.7141],[-53.8646,-14.7126],[-53.8645,-14.7098],[-53.8632,-14.7087],[-53.8623,-14.7063],[-53.8618,-14.7033],[-53.8607,-14.7024],[-53.8588,-14.702],[-53.856,-14.6996],[-53.8545,-14.6987],[-53.8528,-14.6984],[-53.8518,-14.6976],[-53.8492,-14.6967],[-53.8477,-14.6941],[-53.8433,-14.6923],[-53.8401,-14.69],[-53.839,-14.6882],[-53.8355,-14.6886],[-53.8335,-14.6865],[-53.8312,-14.6873],[-53.8297,-14.6868],[-53.8287,-14.6851],[-53.8268,-14.6827],[-53.825,-14.6819],[-53.8251,-14.6805],[-53.824,-14.6772],[-53.8227,-14.6752],[-53.8219,-14.6733],[-53.8198,-14.6746],[-53.8175,-14.6745],[-53.8132,-14.6755],[-53.812,-14.6746],[-53.8095,-14.674],[-53.8073,-14.6719],[-53.8038,-14.6722],[-53.8002,-14.6712],[-53.7996,-14.672],[-53.7978,-14.6714],[-53.795,-14.6711],[-53.7946,-14.6689],[-53.7937,-14.669],[-53.7929,-14.6675],[-53.7911,-14.6667],[-53.7914,-14.6654],[-53.7899,-14.6638],[-53.7896,-14.6629],[-53.7907,-14.6612],[-53.7896,-14.6606],[-53.7894,-14.6592],[-53.7876,-14.6579],[-53.7854,-14.6554],[-53.7855,-14.6542],[-53.7841,-14.6541],[-53.7827,-14.6525],[-53.7823,-14.6507],[-53.7786,-14.6491],[-53.7782,-14.6477],[-53.7789,-14.6456],[-53.7773,-14.6446],[-53.7767,-14.6413],[-53.7768,-14.6395],[-53.7758,-14.6389],[-53.7768,-14.6378],[-53.7764,-14.6366],[-53.7772,-14.6352],[-53.778,-14.6354],[-53.7801,-14.6342],[-53.7818,-14.6339],[-53.7828,-14.6331],[-53.7848,-14.6332],[-53.7866,-14.6339],[-53.7897,-14.6332],[-53.7906,-14.6311],[-53.7928,-14.6315],[-53.7957,-14.6303],[-53.7973,-14.6306],[-53.7973,-14.6291],[-53.7984,-14.6284],[-53.7999,-14.6287],[-53.8004,-14.6276],[-53.8036,-14.6269],[-53.8058,-14.6254],[-53.8073,-14.6258],[-53.808,-14.6251],[-53.8108,-14.6241],[-53.813,-14.6216],[-53.815,-14.6211],[-53.8159,-14.6219],[-53.8179,-14.6221],[-53.8194,-14.6205],[-53.8229,-14.6197],[-53.826,-14.6197],[-53.8266,-14.62],[-53.8297,-14.6174],[-53.8317,-14.6169],[-53.8345,-14.6176],[-53.835,-14.6188],[-53.8364,-14.6184],[-53.8373,-14.6196],[-53.8409,-14.6211],[-53.8434,-14.6206],[-53.8465,-14.619],[-53.8471,-14.6182],[-53.8492,-14.6175],[-53.8557,-14.6195],[-53.8563,-14.6207],[-53.8598,-14.6203],[-53.8607,-14.621],[-53.862,-14.6207],[-53.8628,-14.6216],[-53.8653,-14.6224],[-53.8662,-14.6248],[-53.8682,-14.6248],[-53.869,-14.6243],[-53.8693,-14.6207],[-53.8711,-14.6201],[-53.8727,-14.6209],[-53.8745,-14.6209],[-53.8779,-14.6217],[-53.8782,-14.6228],[-53.877,-14.6246],[-53.8773,-14.6262],[-53.8759,-14.6267],[-53.8759,-14.6251],[-53.8748,-14.6251],[-53.8751,-14.6281],[-53.8762,-14.6285],[-53.8792,-14.6267],[-53.8814,-14.625],[-53.882,-14.6232],[-53.8847,-14.6237],[-53.8863,-14.6236],[-53.8899,-14.624],[-53.8935,-14.6262],[-53.8967,-14.627],[-53.8967,-14.6281],[-53.8996,-14.6296],[-53.9015,-14.6283],[-53.9032,-14.6289],[-53.9049,-14.6286],[-53.9078,-14.6303],[-53.9106,-14.6305],[-53.9124,-14.6317],[-53.912,-14.6334],[-53.9137,-14.6342],[-53.9187,-14.6349],[-53.9207,-14.6345],[-53.9222,-14.6361],[-53.9231,-14.6363],[-53.9242,-14.6347],[-53.9238,-14.6317],[-53.9247,-14.6307],[-53.9254,-14.6279],[-53.9296,-14.6279],[-53.9293,-14.627],[-53.9293,-14.6234],[-53.9274,-14.6229],[-53.9277,-14.622],[-53.9303,-14.621],[-53.9323,-14.6193],[-53.9347,-14.62],[-53.935,-14.6186],[-53.9362,-14.6179],[-53.939,-14.6176],[-53.9416,-14.6168],[-53.9424,-14.614],[-53.942,-14.612],[-53.9425,-14.6115],[-53.9454,-14.6112],[-53.947,-14.6115],[-53.9475,-14.6099],[-53.9487,-14.6099],[-53.9512,-14.6082],[-53.9514,-14.6069],[-53.9528,-14.6073],[-53.9573,-14.6054],[-53.9588,-14.6051],[-53.961,-14.6039],[-53.9617,-14.6045],[-53.9646,-14.604],[-53.9656,-14.6045],[-53.968,-14.604],[-53.9694,-14.6048],[-53.9736,-14.6085],[-53.9749,-14.6084],[-53.977,-14.6096],[-53.9824,-14.6093],[-53.984,-14.61],[-53.9885,-14.6105],[-53.9901,-14.611],[-53.9901,-14.6094],[-53.9927,-14.6111],[-53.9944,-14.6112],[-53.9955,-14.6129],[-53.9966,-14.6129],[-53.9971,-14.6118],[-53.9988,-14.6113],[-53.9999,-14.6125],[-54.0013,-14.6129],[-54.0034,-14.6119],[-54.0059,-14.6129],[-54.0069,-14.6124],[-54.0092,-14.6123],[-54.0106,-14.6117],[-54.0141,-14.6123],[-54.0144,-14.6148],[-54.0171,-14.6164],[-54.0175,-14.6155],[-54.0157,-14.6139],[-54.0158,-14.613],[-54.0174,-14.6124],[-54.0198,-14.6105],[-54.0221,-14.61],[-54.0244,-14.6089],[-54.0257,-14.6064],[-54.0311,-14.6051],[-54.0314,-14.6062],[-54.0304,-14.6069],[-54.0324,-14.6089],[-54.0333,-14.6107],[-54.0353,-14.6112],[-54.0368,-14.6106],[-54.037,-14.6091],[-54.0387,-14.6102],[-54.0389,-14.6111],[-54.0408,-14.6116],[-54.0404,-14.6138],[-54.0416,-14.6143],[-54.043,-14.6137],[-54.0472,-14.6129],[-54.0465,-14.6148],[-54.0487,-14.6162],[-54.0494,-14.6132],[-54.0511,-14.6133],[-54.0508,-14.6119],[-54.0528,-14.6118],[-54.0534,-14.6146],[-54.0563,-14.6169],[-54.0605,-14.6172],[-54.0628,-14.6164],[-54.0639,-14.6183],[-54.0661,-14.6183],[-54.0685,-14.6146],[-54.0698,-14.6143],[-54.0713,-14.6154],[-54.0728,-14.6155],[-54.0734,-14.6162],[-54.0758,-14.6164],[-54.0782,-14.6184],[-54.0804,-14.6182],[-54.0817,-14.6169],[-54.0827,-14.6175],[-54.0839,-14.6172],[-54.0874,-14.6175],[-54.0882,-14.6187],[-54.0904,-14.6181],[-54.0914,-14.6206],[-54.0922,-14.6199],[-54.0936,-14.6211],[-54.0959,-14.6206],[-54.0967,-14.6194],[-54.098,-14.6185],[-54.0993,-14.6167],[-54.1016,-14.6168],[-54.1027,-14.6146],[-54.1035,-14.6143],[-54.1054,-14.6155],[-54.1065,-14.6151],[-54.1076,-14.6158],[-54.109,-14.6143],[-54.1098,-14.6153],[-54.1091,-14.6178],[-54.1093,-14.6201],[-54.1111,-14.6208],[-54.1145,-14.6195],[-54.1156,-14.6198],[-54.1181,-14.6224],[-54.119,-14.6226],[-54.1202,-14.6251],[-54.1214,-14.6256],[-54.1229,-14.6252],[-54.1235,-14.6264],[-54.1249,-14.6266],[-54.1258,-14.6255],[-54.1279,-14.6266],[-54.1284,-14.6273],[-54.1305,-14.6273],[-54.1339,-14.6281],[-54.1351,-14.6303],[-54.1349,-14.6313],[-54.1359,-14.6329],[-54.1368,-14.6327],[-54.1395,-14.6341],[-54.14,-14.6357],[-54.1419,-14.6377],[-54.1401,-14.6381],[-54.1398,-14.6391],[-54.1425,-14.6406],[-54.1423,-14.6413],[-54.1437,-14.6423],[-54.1446,-14.6442],[-54.1456,-14.6446],[-54.1476,-14.6429],[-54.1481,-14.644],[-54.1503,-14.6444],[-54.1512,-14.6453],[-54.1535,-14.6462],[-54.1546,-14.6487],[-54.1559,-14.6484],[-54.1565,-14.6496],[-54.1578,-14.6504],[-54.161,-14.6508],[-54.164,-14.652],[-54.1658,-14.651],[-54.1669,-14.6519],[-54.1688,-14.6524],[-54.1709,-14.6515],[-54.1725,-14.6519],[-54.1757,-14.6511],[-54.1777,-14.6524],[-54.1799,-14.6528],[-54.1809,-14.6525],[-54.1841,-14.6531],[-54.1839,-14.655],[-54.1861,-14.6581],[-54.1885,-14.6575],[-54.1892,-14.6604],[-54.1906,-14.6618],[-54.191,-14.6648],[-54.1902,-14.6662],[-54.1912,-14.6697],[-54.1931,-14.6708],[-54.1941,-14.6723],[-54.1947,-14.6759],[-54.1956,-14.6775],[-54.1961,-14.6797],[-54.1956,-14.6812],[-54.1971,-14.6825],[-54.1964,-14.6844],[-54.1968,-14.6852],[-54.1983,-14.6855],[-54.1993,-14.6875],[-54.2009,-14.6888],[-54.2032,-14.6891],[-54.2054,-14.6907],[-54.207,-14.6902],[-54.2087,-14.691],[-54.2114,-14.6939],[-54.2186,-14.6945],[-54.2235,-14.6954],[-54.2272,-14.6971],[-54.2285,-14.6972],[-54.2292,-14.6985],[-54.2308,-14.6997],[-54.2349,-14.7016],[-54.2375,-14.7032],[-54.24,-14.7042],[-54.2419,-14.7045],[-54.2435,-14.7062],[-54.2451,-14.7065],[-54.2488,-14.7058],[-54.2495,-14.7073],[-54.2516,-14.7078],[-54.2531,-14.7087],[-54.2572,-14.7088],[-54.2581,-14.7093],[-54.2619,-14.7087],[-54.2634,-14.7077],[-54.2642,-14.7092],[-54.2677,-14.7123],[-54.268,-14.7133],[-54.2703,-14.7134],[-54.2716,-14.7126],[-54.2738,-14.7138],[-54.2783,-14.7157],[-54.2813,-14.7157],[-54.2835,-14.7167],[-54.2868,-14.7176],[-54.2896,-14.717],[-54.2904,-14.7172],[-54.2909,-14.7188],[-54.2925,-14.7202],[-54.2946,-14.7205],[-54.2949,-14.7213],[-54.2977,-14.7204],[-54.2998,-14.7211],[-54.3012,-14.7207],[-54.3033,-14.7218],[-54.3081,-14.7233],[-54.3106,-14.7243],[-54.312,-14.7245],[-54.3144,-14.727],[-54.3164,-14.7284],[-54.3185,-14.7292],[-54.3207,-14.7293],[-54.3224,-14.7301],[-54.3236,-14.7289],[-54.325,-14.7289],[-54.3324,-14.732],[-54.3359,-14.7321],[-54.3375,-14.7328],[-54.3401,-14.7348],[-54.3415,-14.7346],[-54.344,-14.7384],[-54.3454,-14.7398],[-54.3464,-14.7414],[-54.3473,-14.744],[-54.3483,-14.7447],[-54.3553,-14.7461],[-54.3563,-14.7459],[-54.3594,-14.7463],[-54.3616,-14.7471],[-54.3666,-14.7476],[-54.3682,-14.7475],[-54.3721,-14.748],[-54.3737,-14.7494],[-54.3762,-14.7521],[-54.3793,-14.7537],[-54.3818,-14.7536],[-54.3839,-14.7543],[-54.3874,-14.7563],[-54.3891,-14.7578],[-54.392,-14.7593],[-54.3943,-14.7614],[-54.3987,-14.7632],[-54.4019,-14.7636],[-54.4044,-14.763],[-54.4077,-14.7629],[-54.4102,-14.7625],[-54.4131,-14.7629],[-54.4149,-14.7622],[-54.4169,-14.7624],[-54.4202,-14.761],[-54.4224,-14.7616],[-54.4236,-14.7607],[-54.4252,-14.7603],[-54.4264,-14.7607],[-54.4296,-14.76],[-54.4309,-14.7603],[-54.4329,-14.7616],[-54.4354,-14.7625],[-54.438,-14.7629],[-54.4422,-14.7659],[-54.4458,-14.7666],[-54.4499,-14.7672],[-54.4507,-14.7688],[-54.4529,-14.7684],[-54.4545,-14.7693],[-54.4568,-14.7715],[-54.4612,-14.7716],[-54.4669,-14.7724],[-54.4698,-14.7733],[-54.4718,-14.7731],[-54.4731,-14.7736],[-54.4757,-14.7729],[-54.4784,-14.7737],[-54.481,-14.7762],[-54.4832,-14.7759],[-54.4866,-14.778],[-54.4873,-14.7793],[-54.4896,-14.7794],[-54.4908,-14.7804],[-54.4934,-14.7794],[-54.4971,-14.78],[-54.4985,-14.7806],[-54.5006,-14.7808],[-54.5026,-14.782],[-54.5034,-14.7834],[-54.5064,-14.7839],[-54.508,-14.7831],[-54.5103,-14.7827],[-54.5125,-14.7816],[-54.5149,-14.7818],[-54.519,-14.7803],[-54.5232,-14.7807],[-54.5265,-14.7803],[-54.5283,-14.7796],[-54.5192,-14.7891],[-54.5147,-14.7928],[-54.5126,-14.797],[-54.512,-14.8051],[-54.5102,-14.8151],[-54.5069,-14.8227],[-54.5046,-14.8297],[-54.5036,-14.8315],[-54.4994,-14.8344],[-54.4966,-14.8418],[-54.497,-14.8459],[-54.4991,-14.8593],[-54.4983,-14.863],[-54.5072,-14.8698],[-54.5128,-14.8692],[-54.5179,-14.8708],[-54.5466,-14.8808],[-54.5794,-14.8922],[-54.584,-14.8938],[-54.585,-14.895],[-54.5985,-14.8988],[-54.6206,-14.9066],[-54.6282,-14.9092],[-54.6476,-14.9158],[-54.6552,-14.9167],[-54.6563,-14.917],[-54.6612,-14.9214],[-54.6678,-14.9271],[-54.6688,-14.9277],[-54.6743,-14.9304],[-54.6757,-14.9338],[-54.6769,-14.9353],[-54.6855,-14.9423],[-54.6939,-14.9492],[-54.697,-14.9528],[-54.6968,-14.964],[-54.695,-14.9636],[-54.6919,-14.9635],[-54.6854,-14.9609],[-54.6791,-14.9595],[-54.6747,-14.9593],[-54.6672,-14.9576],[-54.6652,-14.9576],[-54.6621,-14.9588],[-54.6577,-14.9585],[-54.6541,-14.9592],[-54.6526,-14.9607],[-54.652,-14.9637],[-54.6509,-14.9645],[-54.6492,-14.9649],[-54.6485,-14.9668],[-54.6469,-14.9678],[-54.6455,-14.9702],[-54.6438,-14.9709],[-54.6416,-14.9709],[-54.6404,-14.9714],[-54.6396,-14.9726],[-54.6375,-14.9741],[-54.6364,-14.9759],[-54.6346,-14.9766],[-54.6323,-14.9788],[-54.6308,-14.9786],[-54.6293,-14.9774],[-54.6283,-14.9773],[-54.625,-14.9799],[-54.6199,-14.9813],[-54.6183,-14.981],[-54.6144,-14.9794],[-54.6128,-14.9782],[-54.6087,-14.9769],[-54.6066,-14.9759],[-54.6015,-14.9747],[-54.5998,-14.974],[-54.5925,-14.975],[-54.5886,-14.9745],[-54.5851,-14.9734],[-54.5807,-14.9708],[-54.579,-14.9703],[-54.5757,-14.97],[-54.5666,-14.9684],[-54.5633,-14.9687],[-54.5614,-14.9697],[-54.5598,-14.9712],[-54.559,-14.9727],[-54.556,-14.9795],[-54.5541,-14.9824],[-54.5521,-14.9841],[-54.5493,-14.9873],[-54.5472,-14.9906],[-54.5457,-14.9917],[-54.542,-14.9937],[-54.5395,-14.9956],[-54.5373,-14.9979],[-54.5372,-15.0011],[-54.5363,-15.0029],[-54.5346,-15.0041],[-54.5333,-15.0043],[-54.5326,-15.0057],[-54.5315,-15.0061],[-54.5299,-15.008],[-54.5279,-15.0073],[-54.5264,-15.0087],[-54.5243,-15.0093],[-54.5249,-15.0107],[-54.523,-15.0124],[-54.5203,-15.0133],[-54.5206,-15.0151],[-54.5199,-15.0161],[-54.5184,-15.0159],[-54.5182,-15.0172],[-54.5169,-15.0172],[-54.5158,-15.0185],[-54.5158,-15.0206],[-54.5139,-15.0234],[-54.5153,-15.0248],[-54.5154,-15.0259],[-54.5131,-15.0278],[-54.511,-15.0315],[-54.5102,-15.0305],[-54.5084,-15.0314],[-54.5076,-15.0331],[-54.5061,-15.0353],[-54.5036,-15.0359],[-54.5029,-15.0349],[-54.5004,-15.0334],[-54.497,-15.0326],[-54.4957,-15.0315],[-54.4961,-15.0293],[-54.4944,-15.0291],[-54.4923,-15.0283],[-54.4877,-15.0272],[-54.4849,-15.0283],[-54.4827,-15.033],[-54.4809,-15.0358],[-54.4807,-15.0368],[-54.4791,-15.0372],[-54.4782,-15.0365],[-54.4756,-15.036],[-54.4747,-15.0369],[-54.4728,-15.0374],[-54.4706,-15.0387],[-54.4707,-15.0399],[-54.4674,-15.0407],[-54.4669,-15.0417],[-54.4646,-15.0417],[-54.4622,-15.0427],[-54.4601,-15.0418],[-54.4579,-15.044],[-54.4559,-15.0456],[-54.4549,-15.0457],[-54.4523,-15.0488],[-54.451,-15.0511],[-54.4513,-15.0527],[-54.4508,-15.0542],[-54.4483,-15.0551],[-54.4479,-15.0571],[-54.4463,-15.0584],[-54.4456,-15.06],[-54.4441,-15.0622],[-54.4426,-15.0632],[-54.4414,-15.0652],[-54.4403,-15.0654],[-54.4407,-15.0679],[-54.4408,-15.0727],[-54.4389,-15.0745],[-54.4395,-15.0779],[-54.4427,-15.0802],[-54.4429,-15.0814],[-54.4443,-15.0828],[-54.4436,-15.084],[-54.4435,-15.0879],[-54.4439,-15.0883],[-54.4438,-15.0911],[-54.4425,-15.092],[-54.4429,-15.0948],[-54.4421,-15.0965],[-54.4431,-15.098],[-54.4423,-15.1014],[-54.4428,-15.1021],[-54.4407,-15.1053],[-54.4401,-15.108],[-54.4385,-15.1104],[-54.4413,-15.112],[-54.4445,-15.1119],[-54.4463,-15.1123],[-54.4478,-15.1135],[-54.4509,-15.1134],[-54.4551,-15.1137],[-54.4619,-15.1131],[-54.4638,-15.1139],[-54.4671,-15.1168],[-54.4718,-15.1189],[-54.4745,-15.1186],[-54.4765,-15.1193],[-54.4793,-15.1196],[-54.4816,-15.1213],[-54.4835,-15.1238],[-54.4873,-15.1254],[-54.4895,-15.1277],[-54.4924,-15.1303],[-54.4939,-15.1322],[-54.4945,-15.1339],[-54.4945,-15.1372],[-54.4875,-15.1592],[-54.4853,-15.1621],[-54.4832,-15.1638],[-54.4816,-15.1645],[-54.478,-15.1652],[-54.4764,-15.1662],[-54.4722,-15.1699],[-54.4702,-15.1726],[-54.4691,-15.1746],[-54.4676,-15.1789],[-54.465,-15.183],[-54.4641,-15.1871],[-54.4624,-15.19],[-54.4602,-15.197],[-54.4591,-15.2014],[-54.4583,-15.2032],[-54.4565,-15.2057],[-54.4584,-15.2074],[-54.4611,-15.2081],[-54.4637,-15.2096],[-54.4667,-15.2108],[-54.4695,-15.2122],[-54.4712,-15.2139],[-54.4725,-15.2145],[-54.4741,-15.2144],[-54.4758,-15.2157],[-54.4795,-15.2178],[-54.4823,-15.2186],[-54.4858,-15.2206],[-54.4889,-15.2214],[-54.4927,-15.2253],[-54.497,-15.2272],[-54.5007,-15.2279],[-54.5059,-15.23],[-54.5095,-15.2323],[-54.5114,-15.2337],[-54.5151,-15.2355],[-54.5169,-15.2369],[-54.5194,-15.2376],[-54.5218,-15.2376],[-54.5255,-15.2389],[-54.5281,-15.2408],[-54.5329,-15.2438],[-54.5374,-15.2451],[-54.5351,-15.2458],[-54.4868,-15.2561],[-54.4873,-15.2587],[-54.489,-15.2615],[-54.4899,-15.2643],[-54.4911,-15.2667],[-54.4926,-15.2683],[-54.4932,-15.2698],[-54.4956,-15.2722],[-54.4976,-15.2726],[-54.5007,-15.2739],[-54.5021,-15.2748],[-54.504,-15.275],[-54.5111,-15.2788],[-54.5143,-15.2814],[-54.5162,-15.2825],[-54.5196,-15.2835],[-54.5211,-15.2845],[-54.5213,-15.287],[-54.523,-15.29],[-54.5236,-15.2918],[-54.5248,-15.2935],[-54.5306,-15.2996],[-54.5312,-15.3028],[-54.531,-15.3085],[-54.5325,-15.3108],[-54.5361,-15.3141],[-54.539,-15.3171],[-54.5419,-15.3193],[-54.5448,-15.3221],[-54.5463,-15.3244],[-54.5487,-15.3294],[-54.5501,-15.3313],[-54.5508,-15.3342],[-54.5516,-15.3365],[-54.5518,-15.3393],[-54.5532,-15.3434],[-54.5533,-15.3466],[-54.5541,-15.3499],[-54.5541,-15.3546],[-54.5555,-15.3578],[-54.5555,-15.3597],[-54.5547,-15.3624],[-54.5531,-15.3641],[-54.5524,-15.3655],[-54.5525,-15.3665],[-54.5538,-15.3676],[-54.5542,-15.369],[-54.5534,-15.371],[-54.5537,-15.3724],[-54.5529,-15.374],[-54.5509,-15.3751],[-54.5496,-15.3752],[-54.5464,-15.3715],[-54.5437,-15.3704],[-54.5428,-15.371],[-54.5428,-15.3724],[-54.5415,-15.3743],[-54.5387,-15.3752],[-54.5336,-15.3758],[-54.5322,-15.3765],[-54.5308,-15.3783],[-54.5311,-15.3809],[-54.5309,-15.3828],[-54.5295,-15.3845],[-54.5295,-15.3855],[-54.5305,-15.3871],[-54.5295,-15.388],[-54.5293,-15.3892],[-54.5303,-15.3904],[-54.5321,-15.3915],[-54.5309,-15.3953],[-54.5293,-15.3972],[-54.527,-15.3987],[-54.5276,-15.4009],[-54.5268,-15.4015],[-54.5254,-15.4009],[-54.523,-15.4011],[-54.5199,-15.4002],[-54.5177,-15.4014],[-54.5163,-15.4012],[-54.5142,-15.3998],[-54.5132,-15.3974],[-54.5119,-15.3957],[-54.5104,-15.3953],[-54.5096,-15.3966],[-54.512,-15.3988],[-54.5122,-15.4001],[-54.5111,-15.4008],[-54.5093,-15.401],[-54.5065,-15.4022]]]},"properties":{"codarea":"5107040"}}]}