{"type":"FeatureCollection","features":[{"type":"Feature","geometry":{"type":"Polygon","coordinates":[[[-55.7694,-13.3425],[-55.7679,-13.343],[-55.767,-13.3424],[-55.7653,-13.3435],[-55.7631,-13.3422],[-55.7612,-13.3419],[-55.7595,-13.3426],[-55.7569,-13.3419],[-55.7557,-13.3424],[-55.7539,-13.3442],[-55.7531,-13.3475],[-55.7513,-13.3494],[-55.7475,-13.3524],[-55.7443,-13.3554],[-55.7424,-13.3591],[-55.7399,-13.3612],[-55.739,-13.3598],[-55.737,-13.3605],[-55.7359,-13.3593],[-55.735,-13.3592],[-55.7308,-13.36],[-55.729,-13.361],[-55.7264,-13.3613],[-55.7246,-13.3622],[-55.7234,-13.3615],[-55.7222,-13.3623],[-55.7223,-13.3643],[-55.7206,-13.3661],[-55.7189,-13.3667],[-55.7174,-13.3681],[-55.7144,-13.3692],[-55.7135,-13.3684],[-55.7115,-13.3642],[-55.7087,-13.3609],[-55.7068,-13.3593],[-55.7035,-13.3579],[-55.7013,-13.3561],[-55.6979,-13.3549],[-55.6929,-13.3547],[-55.6912,-13.3543],[-55.6892,-13.3546],[-55.6868,-13.3559],[-55.6846,-13.3581],[-55.6814,-13.36],[-55.6793,-13.3608],[-55.6748,-13.362],[-55.6723,-13.363],[-55.6706,-13.3641],[-55.6678,-13.3668],[-55.6643,-13.3682],[-55.6617,-13.3697],[-55.6594,-13.3706],[-55.6507,-13.3768],[-55.6466,-13.378],[-55.6443,-13.3792],[-55.6322,-13.3671],[-55.6323,-13.3642],[-55.6336,-13.3593],[-55.6317,-13.3551],[-55.6302,-13.3533],[-55.6288,-13.3497],[-55.6269,-13.3478],[-55.6248,-13.3472],[-55.624,-13.3431],[-55.6232,-13.3421],[-55.6193,-13.34],[-55.6158,-13.336],[-55.6112,-13.3344],[-55.6102,-13.333],[-55.6077,-13.3316],[-55.6056,-13.3322],[-55.6047,-13.3318],[-55.6044,-13.3303],[-55.6022,-13.3276],[-55.6012,-13.3271],[-55.6006,-13.3255],[-55.598,-13.3229],[-55.5937,-13.3221],[-55.5929,-13.3216],[-55.5915,-13.3194],[-55.5913,-13.3153],[-55.5901,-13.3138],[-55.5872,-13.3115],[-55.5857,-13.3116],[-55.5841,-13.311],[-55.5825,-13.3115],[-55.5813,-13.3104],[-55.5803,-13.3127],[-55.5776,-13.3149],[-55.5742,-13.3151],[-55.5682,-13.3143],[-55.5625,-13.3138],[-55.5607,-13.3128],[-55.5595,-13.3115],[-55.5581,-13.3119],[-55.5562,-13.3135],[-55.5541,-13.3165],[-55.5533,-13.3184],[-55.5533,-13.3208],[-55.5539,-13.3241],[-55.5527,-13.3257],[-55.545,-13.3277],[-55.5422,-13.3281],[-55.5391,-13.328],[-55.5349,-13.3275],[-55.5324,-13.328],[-55.5294,-13.3294],[-55.5215,-13.332],[-55.5178,-13.3325],[-55.5108,-13.3328],[-55.5059,-13.3338],[-55.5005,-13.334],[-55.4986,-13.3351],[-55.4965,-13.337],[-55.496,-13.338],[-55.4957,-13.3414],[-55.4983,-13.3479],[-55.4982,-13.3512],[-55.4973,-13.3554],[-55.4972,-13.3577],[-55.4979,-13.362],[-55.4978,-13.3664],[-55.4968,-13.3688],[-55.4943,-13.3711],[-55.49,-13.3747],[-55.484,-13.3812],[-55.4799,-13.386],[-55.4773,-13.39],[-55.4758,-13.391],[-55.4706,-13.3926],[-55.4675,-13.3944],[-55.4662,-13.3943],[-55.4643,-13.3933],[-55.4624,-13.3915],[-55.4601,-13.3885],[-55.4569,-13.3868],[-55.456,-13.3859],[-55.455,-13.3837],[-55.4548,-13.3809],[-55.4566,-13.3806],[-55.4598,-13.3825],[-55.4614,-13.3824],[-55.4615,-13.3802],[-55.4604,-13.3782],[-55.4571,-13.3752],[-55.4522,-13.373],[-55.4502,-13.3728],[-55.4478,-13.3736],[-55.4455,-13.3763],[-55.4425,-13.3816],[-55.4409,-13.3833],[-55.4387,-13.3843],[-55.4359,-13.3839],[-55.4334,-13.383],[-55.4318,-13.3834],[-55.4292,-13.3848],[-55.4275,-13.3866],[-55.4272,-13.3884],[-55.4277,-13.3905],[-55.4289,-13.3935],[-55.431,-13.3975],[-55.4315,-13.4009],[-55.4326,-13.406],[-55.4342,-13.4113],[-55.4355,-13.4131],[-55.4408,-13.4162],[-55.4413,-13.4189],[-55.4405,-13.4212],[-55.4389,-13.423],[-55.4355,-13.4251],[-55.434,-13.4263],[-55.4307,-13.4298],[-55.4285,-13.4304],[-55.4241,-13.4287],[-55.4225,-13.4273],[-55.4217,-13.4251],[-55.4209,-13.4207],[-55.42,-13.4189],[-55.4178,-13.4171],[-55.416,-13.4166],[-55.4126,-13.4168],[-55.4097,-13.4179],[-55.4076,-13.4183],[-55.4054,-13.418],[-55.4015,-13.4167],[-55.3997,-13.4169],[-55.3969,-13.4188],[-55.3945,-13.42],[-55.3916,-13.421],[-55.3907,-13.4233],[-55.3928,-13.4306],[-55.3928,-13.4371],[-55.3933,-13.4399],[-55.3946,-13.4458],[-55.3947,-13.4494],[-55.3938,-13.4538],[-55.3949,-13.4568],[-55.3942,-13.4596],[-55.3938,-13.4624],[-55.392,-13.4658],[-55.3907,-13.4675],[-55.3894,-13.4681],[-55.3864,-13.4677],[-55.3851,-13.4679],[-55.3832,-13.4691],[-55.3817,-13.4709],[-55.3811,-13.4743],[-55.3821,-13.476],[-55.3875,-13.4799],[-55.3913,-13.4835],[-55.3941,-13.4882],[-55.3959,-13.4936],[-55.3954,-13.4949],[-55.3938,-13.4966],[-55.3908,-13.4984],[-55.3868,-13.5004],[-55.3817,-13.5008],[-55.3789,-13.5006],[-55.3749,-13.4998],[-55.3705,-13.4972],[-55.366,-13.4944],[-55.3583,-13.488],[-55.3572,-13.4839],[-55.3563,-13.4819],[-55.3546,-13.4814],[-55.3507,-13.4816],[-55.3472,-13.4814],[-55.3455,-13.4818],[-55.3442,-13.4828],[-55.3402,-13.4875],[-55.3398,-13.4889],[-55.3419,-13.4901],[-55.3457,-13.4895],[-55.3475,-13.4903],[-55.3479,-13.4924],[-55.3473,-13.4949],[-55.3463,-13.4967],[-55.344,-13.4993],[-55.3425,-13.5022],[-55.3421,-13.5054],[-55.3421,-13.5076],[-55.3427,-13.5117],[-55.3434,-13.5139],[-55.3438,-13.5177],[-55.3431,-13.5197],[-55.341,-13.5225],[-55.3403,-13.525],[-55.34,-13.5293],[-55.3395,-13.5309],[-55.3396,-13.5354],[-55.3404,-13.5398],[-55.3405,-13.5418],[-55.3393,-13.5444],[-55.337,-13.5467],[-55.3332,-13.5517],[-55.3349,-13.5539],[-55.3357,-13.5566],[-55.335,-13.5584],[-55.3324,-13.5617],[-55.3297,-13.5636],[-55.3269,-13.5644],[-55.325,-13.5643],[-55.3218,-13.5634],[-55.3199,-13.5635],[-55.3182,-13.5642],[-55.3154,-13.5673],[-55.3133,-13.5684],[-55.3112,-13.5688],[-55.3085,-13.5686],[-55.3053,-13.5688],[-55.3001,-13.5708],[-55.2982,-13.5708],[-55.2947,-13.5705],[-55.293,-13.571],[-55.2919,-13.5737],[-55.2938,-13.5777],[-55.2938,-13.5789],[-55.293,-13.581],[-55.2926,-13.5844],[-55.2928,-13.5892],[-55.2912,-13.5908],[-55.2835,-13.5935],[-55.2802,-13.5936],[-55.2779,-13.5922],[-55.2748,-13.5897],[-55.2735,-13.5882],[-55.2717,-13.5854],[-55.2724,-13.5831],[-55.2724,-13.5815],[-55.2716,-13.5801],[-55.2681,-13.5782],[-55.2657,-13.578],[-55.2648,-13.5788],[-55.2618,-13.5825],[-55.2602,-13.5851],[-55.2602,-13.5875],[-55.2622,-13.5902],[-55.2636,-13.5909],[-55.2659,-13.5913],[-55.2676,-13.593],[-55.2677,-13.5946],[-55.2671,-13.5972],[-55.2656,-13.5995],[-55.2623,-13.6023],[-55.261,-13.6038],[-55.259,-13.6072],[-55.2569,-13.6096],[-55.2552,-13.6107],[-55.2535,-13.6109],[-55.2496,-13.6079],[-55.2465,-13.6064],[-55.2439,-13.6042],[-55.2423,-13.6034],[-55.24,-13.6039],[-55.2372,-13.6072],[-55.2347,-13.6095],[-55.2309,-13.6112],[-55.2285,-13.6112],[-55.2278,-13.6099],[-55.2272,-13.6037],[-55.2262,-13.6017],[-55.2238,-13.6003],[-55.2197,-13.5991],[-55.2177,-13.599],[-55.2164,-13.5994],[-55.2147,-13.6011],[-55.2113,-13.6058],[-55.2094,-13.6076],[-55.2067,-13.6095],[-55.2039,-13.6108],[-55.1956,-13.6113],[-55.1941,-13.612],[-55.1926,-13.6133],[-55.1891,-13.6173],[-55.1868,-13.619],[-55.1848,-13.6199],[-55.1824,-13.6201],[-55.1783,-13.62],[-55.1771,-13.6203],[-55.1761,-13.6217],[-55.176,-13.6245],[-55.1752,-13.6261],[-55.1728,-13.6281],[-55.1721,-13.6303],[-55.1725,-13.6338],[-55.1717,-13.6362],[-55.1693,-13.6401],[-55.1657,-13.6431],[-55.1637,-13.646],[-55.1625,-13.6472],[-55.1609,-13.6477],[-55.1595,-13.6474],[-55.1582,-13.6465],[-55.1547,-13.6422],[-55.1526,-13.641],[-55.1501,-13.6419],[-55.1495,-13.6438],[-55.1515,-13.6468],[-55.1523,-13.6491],[-55.1524,-13.6511],[-55.1511,-13.6526],[-55.1456,-13.6529],[-55.1442,-13.6524],[-55.1425,-13.6509],[-55.14,-13.6495],[-55.1373,-13.6492],[-55.1334,-13.6497],[-55.1311,-13.6507],[-55.1295,-13.6521],[-55.1282,-13.6546],[-55.1277,-13.6564],[-55.1273,-13.6594],[-55.1266,-13.6609],[-55.1239,-13.6632],[-55.1208,-13.6653],[-55.1191,-13.666],[-55.1167,-13.6661],[-55.1145,-13.6656],[-55.1128,-13.664],[-55.1122,-13.6618],[-55.1133,-13.6563],[-55.1129,-13.6537],[-55.111,-13.6518],[-55.1085,-13.6511],[-55.1055,-13.6513],[-55.1035,-13.6521],[-55.0964,-13.6561],[-55.0925,-13.6586],[-55.0868,-13.6619],[-55.0851,-13.6634],[-55.1474,-13.5358],[-55.1483,-13.5323],[-55.1497,-13.5304],[-55.1522,-13.5281],[-55.154,-13.5259],[-55.1547,-13.5243],[-55.155,-13.5219],[-55.155,-13.5186],[-55.1564,-13.5144],[-55.1578,-13.5119],[-55.1587,-13.5092],[-55.1593,-13.505],[-55.1593,-13.5014],[-55.1586,-13.4954],[-55.1584,-13.4906],[-55.1579,-13.487],[-55.158,-13.4849],[-55.1601,-13.4765],[-55.1611,-13.4735],[-55.161,-13.4723],[-55.1598,-13.4697],[-55.1572,-13.4618],[-55.1568,-13.4581],[-55.156,-13.4528],[-55.1521,-13.4479],[-55.1482,-13.4446],[-55.1454,-13.443],[-55.1452,-13.4414],[-55.1452,-13.4379],[-55.1439,-13.4338],[-55.1447,-13.4312],[-55.1466,-13.4295],[-55.1466,-13.4286],[-55.1452,-13.4278],[-55.1453,-13.4257],[-55.1478,-13.4242],[-55.1495,-13.4216],[-55.15,-13.4188],[-55.1514,-13.4166],[-55.155,-13.4142],[-55.1569,-13.4137],[-55.1596,-13.4134],[-55.1605,-13.4124],[-55.1595,-13.4087],[-55.1608,-13.4073],[-55.1614,-13.4058],[-55.1616,-13.4031],[-55.1621,-13.4021],[-55.1654,-13.4007],[-55.1667,-13.3995],[-55.1672,-13.3981],[-55.1682,-13.3973],[-55.17,-13.397],[-55.1737,-13.3916],[-55.1742,-13.3896],[-55.1754,-13.3872],[-55.1751,-13.3836],[-55.1761,-13.3807],[-55.1764,-13.3773],[-55.1763,-13.3753],[-55.1753,-13.3705],[-55.1753,-13.3685],[-55.1745,-13.3665],[-55.1741,-13.3634],[-55.1722,-13.36],[-55.1703,-13.3535],[-55.2412,-13.3547],[-55.2427,-13.3546],[-55.2457,-13.3534],[-55.2481,-13.3514],[-55.2501,-13.3484],[-55.2512,-13.3445],[-55.2526,-13.3417],[-55.2529,-13.3361],[-55.2539,-13.333],[-55.2536,-13.3311],[-55.2544,-13.3274],[-55.2546,-13.3254],[-55.257,-13.3231],[-55.2578,-13.3212],[-55.2591,-13.3201],[-55.2602,-13.3199],[-55.2657,-13.3198],[-55.2715,-13.3185],[-55.273,-13.3177],[-55.2754,-13.3173],[-55.2772,-13.3138],[-55.2805,-13.3098],[-55.2819,-13.3047],[-55.2819,-13.3032],[-55.2811,-13.301],[-55.2814,-13.2986],[-55.2826,-13.2968],[-55.2854,-13.2939],[-55.2894,-13.2912],[-55.2903,-13.2899],[-55.2908,-13.2881],[-55.292,-13.2866],[-55.2937,-13.2862],[-55.2973,-13.2877],[-55.2993,-13.2881],[-55.3048,-13.2873],[-55.3068,-13.2872],[-55.3081,-13.2866],[-55.3092,-13.2853],[-55.3097,-13.2818],[-55.3107,-13.2779],[-55.3126,-13.2734],[-55.3141,-13.2713],[-55.3162,-13.2693],[-55.3176,-13.2673],[-55.3183,-13.2649],[-55.3197,-13.2637],[-55.3206,-13.2611],[-55.3231,-13.2561],[-55.3236,-13.2545],[-55.3237,-13.2516],[-55.3226,-13.2495],[-55.3225,-13.2479],[-55.3234,-13.2473],[-55.324,-13.2457],[-55.3236,-13.2441],[-55.322,-13.2424],[-55.3222,-13.2391],[-55.3207,-13.2368],[-55.321,-13.2356],[-55.3225,-13.2348],[-55.3234,-13.2334],[-55.3239,-13.2304],[-55.325,-13.2292],[-55.3258,-13.2274],[-55.3263,-13.2249],[-55.3258,-13.2223],[-55.3274,-13.2162],[-55.3272,-13.2141],[-55.3244,-13.205],[-55.3246,-13.2026],[-55.3242,-13.1998],[-55.3233,-13.1978],[-55.3227,-13.1943],[-55.3226,-13.1919],[-55.323,-13.1883],[-55.3228,-13.1857],[-55.3212,-13.1825],[-55.3182,-13.1783],[-55.318,-13.1757],[-55.3148,-13.1706],[-55.3136,-13.1671],[-55.3101,-13.1635],[-55.3087,-13.163],[-55.3067,-13.1604],[-55.305,-13.1597],[-55.3024,-13.1607],[-55.301,-13.1606],[-55.2998,-13.1591],[-55.299,-13.157],[-55.2974,-13.1538],[-55.2967,-13.1486],[-55.2965,-13.1422],[-55.2958,-13.1396],[-55.2941,-13.1376],[-55.2947,-13.1344],[-55.2937,-13.1331],[-55.2935,-13.1312],[-55.2946,-13.1277],[-55.2945,-13.1263],[-55.2953,-13.1234],[-55.2979,-13.1198],[-55.2995,-13.1181],[-55.3029,-13.1162],[-55.3045,-13.1148],[-55.3059,-13.1126],[-55.3068,-13.1133],[-55.308,-13.1131],[-55.3097,-13.1113],[-55.3114,-13.1105],[-55.3133,-13.1092],[-55.3173,-13.1056],[-55.3183,-13.1037],[-55.3194,-13.1024],[-55.3196,-13.1002],[-55.3227,-13.0991],[-55.325,-13.0968],[-55.3263,-13.0971],[-55.3265,-13.0945],[-55.3279,-13.0941],[-55.3275,-13.0926],[-55.328,-13.0914],[-55.3296,-13.0905],[-55.3304,-13.0888],[-55.3322,-13.09],[-55.3335,-13.0892],[-55.3369,-13.0883],[-55.3394,-13.0897],[-55.3408,-13.0892],[-55.3429,-13.089],[-55.3447,-13.0861],[-55.3439,-13.0838],[-55.3436,-13.0813],[-55.3413,-13.0795],[-55.3398,-13.0762],[-55.3409,-13.0743],[-55.3394,-13.0738],[-55.3393,-13.0727],[-55.3406,-13.0718],[-55.3428,-13.0725],[-55.345,-13.0724],[-55.3457,-13.0717],[-55.3445,-13.068],[-55.3468,-13.0664],[-55.3499,-13.0659],[-55.3511,-13.0647],[-55.3515,-13.0631],[-55.3534,-13.0615],[-55.3543,-13.0599],[-55.354,-13.0585],[-55.3526,-13.0557],[-55.3529,-13.0535],[-55.3551,-13.0536],[-55.3559,-13.0522],[-55.3545,-13.05],[-55.3544,-13.0478],[-55.3557,-13.0471],[-55.3557,-13.0458],[-55.3548,-13.0447],[-55.3544,-13.0431],[-55.3547,-13.041],[-55.3539,-13.0405],[-55.3543,-13.0376],[-55.3539,-13.0362],[-55.3548,-13.0355],[-55.3571,-13.0369],[-55.358,-13.0361],[-55.3579,-13.0342],[-55.3568,-13.0322],[-55.3558,-13.0311],[-55.3523,-13.0291],[-55.3525,-13.0277],[-55.3557,-13.0278],[-55.3559,-13.0261],[-55.3582,-13.0269],[-55.3585,-13.0244],[-55.3603,-13.0184],[-55.3615,-13.015],[-55.3621,-13.0123],[-55.3619,-13.0094],[-55.3605,-13.0085],[-55.3575,-13.0089],[-55.3563,-13.0074],[-55.3591,-13.0059],[-55.3582,-13.0039],[-55.355,-13.0047],[-55.3541,-13.0043],[-55.3534,-13.0026],[-55.3538,-13.0017],[-55.3559,-13.0004],[-55.3559,-12.9996],[-55.3546,-12.9983],[-55.3543,-12.9971],[-55.3528,-12.9968],[-55.3527,-12.9959],[-55.3515,-12.995],[-55.3522,-12.993],[-55.3524,-12.991],[-55.3516,-12.9895],[-55.3525,-12.9885],[-55.3539,-12.9882],[-55.3548,-12.9862],[-55.3567,-12.9858],[-55.3576,-12.9833],[-55.3599,-12.9823],[-55.3589,-12.981],[-55.3598,-12.9794],[-55.362,-12.9793],[-55.3632,-12.9804],[-55.3645,-12.9788],[-55.3662,-12.9777],[-55.366,-12.9763],[-55.368,-12.9762],[-55.3696,-12.9757],[-55.3708,-12.9743],[-55.3724,-12.9748],[-55.3739,-12.9697],[-55.3758,-12.9692],[-55.3766,-12.967],[-55.3781,-12.9656],[-55.3785,-12.9638],[-55.3774,-12.9633],[-55.3757,-12.9636],[-55.3751,-12.9628],[-55.3759,-12.9613],[-55.3771,-12.9618],[-55.3783,-12.9612],[-55.3774,-12.9587],[-55.3781,-12.9578],[-55.3793,-12.9577],[-55.3803,-12.9587],[-55.3831,-12.9574],[-55.3836,-12.956],[-55.3869,-12.9524],[-55.3895,-12.9492],[-55.393,-12.9473],[-55.3944,-12.9454],[-55.3945,-12.944],[-55.3932,-12.9431],[-55.3955,-12.9421],[-55.396,-12.9407],[-55.3972,-12.9398],[-55.3998,-12.9362],[-55.4019,-12.9344],[-55.4025,-12.9319],[-55.4037,-12.9306],[-55.4042,-12.9269],[-55.4029,-12.9265],[-55.4026,-12.9254],[-55.4038,-12.9238],[-55.406,-12.9263],[-55.4083,-12.9257],[-55.4083,-12.9247],[-55.4097,-12.9238],[-55.4103,-12.9223],[-55.4125,-12.9208],[-55.4153,-12.9177],[-55.4179,-12.9154],[-55.4187,-12.9135],[-55.4205,-12.9116],[-55.4212,-12.9097],[-55.4222,-12.9094],[-55.4223,-12.907],[-55.4239,-12.9058],[-55.4257,-12.9059],[-55.427,-12.9048],[-55.4267,-12.9031],[-55.4258,-12.9023],[-55.428,-12.9008],[-55.4284,-12.9001],[-55.4261,-12.8983],[-55.4276,-12.8977],[-55.4287,-12.8981],[-55.4305,-12.8978],[-55.4326,-12.8982],[-55.4332,-12.8965],[-55.4347,-12.8952],[-55.4358,-12.8915],[-55.437,-12.8929],[-55.4383,-12.8923],[-55.4394,-12.8925],[-55.4423,-12.8889],[-55.443,-12.8909],[-55.4447,-12.8904],[-55.446,-12.8873],[-55.4447,-12.8847],[-55.4485,-12.8788],[-55.4482,-12.8776],[-55.4486,-12.8761],[-55.4476,-12.8756],[-55.449,-12.8737],[-55.4511,-12.8749],[-55.4516,-12.8736],[-55.4511,-12.8723],[-55.4511,-12.8694],[-55.4529,-12.8661],[-55.4519,-12.8652],[-55.4532,-12.8636],[-55.4555,-12.8621],[-55.455,-12.8609],[-55.4565,-12.8605],[-55.458,-12.859],[-55.456,-12.8571],[-55.4567,-12.8562],[-55.4583,-12.8562],[-55.4596,-12.8539],[-55.4669,-12.8519],[-55.4679,-12.8513],[-55.4673,-12.8498],[-55.466,-12.849],[-55.4662,-12.8479],[-55.4683,-12.8469],[-55.4689,-12.8454],[-55.4686,-12.8438],[-55.4673,-12.8424],[-55.4676,-12.8414],[-55.4692,-12.8405],[-55.4678,-12.8397],[-55.4678,-12.8376],[-55.4697,-12.8374],[-55.4703,-12.8346],[-55.4688,-12.8341],[-55.4682,-12.833],[-55.4691,-12.831],[-55.4689,-12.8294],[-55.4677,-12.8286],[-55.4678,-12.8277],[-55.4692,-12.8273],[-55.4696,-12.8265],[-55.4687,-12.8244],[-55.4659,-12.8229],[-55.4646,-12.8206],[-55.4661,-12.8196],[-55.4678,-12.8213],[-55.4683,-12.819],[-55.4675,-12.8183],[-55.4668,-12.8162],[-55.465,-12.8147],[-55.4642,-12.8131],[-55.4631,-12.8126],[-55.4637,-12.8114],[-55.4607,-12.8102],[-55.46,-12.809],[-55.4571,-12.8093],[-55.4575,-12.8072],[-55.4556,-12.805],[-55.4558,-12.8028],[-55.4546,-12.8021],[-55.4563,-12.8003],[-55.4554,-12.7992],[-55.4522,-12.7982],[-55.4515,-12.7974],[-55.4518,-12.7937],[-55.4528,-12.7932],[-55.4535,-12.7945],[-55.455,-12.7919],[-55.4536,-12.7888],[-55.4525,-12.7895],[-55.4507,-12.7897],[-55.4499,-12.7886],[-55.4503,-12.7874],[-55.4489,-12.7862],[-55.4482,-12.7843],[-55.4488,-12.7821],[-55.4474,-12.7813],[-55.4453,-12.7812],[-55.4447,-12.7804],[-55.4458,-12.7783],[-55.4466,-12.778],[-55.4506,-12.7792],[-55.451,-12.778],[-55.4496,-12.7769],[-55.4483,-12.7778],[-55.4477,-12.7756],[-55.4463,-12.775],[-55.4472,-12.7723],[-55.4482,-12.7721],[-55.4516,-12.7703],[-55.4515,-12.7687],[-55.4494,-12.7688],[-55.4495,-12.7679],[-55.4518,-12.7665],[-55.4527,-12.7665],[-55.454,-12.7647],[-55.4564,-12.7628],[-55.4588,-12.7619],[-55.4602,-12.7597],[-55.4615,-12.7605],[-55.4635,-12.7597],[-55.4638,-12.7582],[-55.4656,-12.7565],[-55.4655,-12.7554],[-55.4676,-12.754],[-55.4692,-12.7518],[-55.4716,-12.7507],[-55.4736,-12.7518],[-55.4755,-12.7509],[-55.4758,-12.7498],[-55.4771,-12.7495],[-55.4778,-12.7482],[-55.477,-12.7459],[-55.4784,-12.7451],[-55.4808,-12.7463],[-55.4815,-12.7456],[-55.4804,-12.744],[-55.4816,-12.7418],[-55.4838,-12.7403],[-55.4859,-12.7383],[-55.4878,-12.7387],[-55.4887,-12.7375],[-55.4902,-12.738],[-55.4911,-12.737],[-55.4904,-12.734],[-55.4917,-12.7327],[-55.4917,-12.7317],[-55.4903,-12.7302],[-55.4905,-12.728],[-55.4868,-12.7257],[-55.4861,-12.7246],[-55.4862,-12.7226],[-55.4868,-12.7211],[-55.4879,-12.7201],[-55.4868,-12.7183],[-55.4881,-12.716],[-55.4873,-12.7146],[-55.4895,-12.7131],[-55.4902,-12.7134],[-55.493,-12.7112],[-55.4953,-12.7128],[-55.4958,-12.7121],[-55.4997,-12.7122],[-55.4992,-12.7111],[-55.5023,-12.7098],[-55.5016,-12.7091],[-55.5016,-12.7071],[-55.5009,-12.7059],[-55.503,-12.7037],[-55.5043,-12.7033],[-55.5051,-12.7019],[-55.5051,-12.7003],[-55.5039,-12.6983],[-55.5056,-12.6953],[-55.5041,-12.6943],[-55.504,-12.6924],[-55.5043,-12.69],[-55.5031,-12.6889],[-55.5034,-12.6873],[-55.5042,-12.6864],[-55.5036,-12.6853],[-55.5051,-12.6834],[-55.5068,-12.6822],[-55.5076,-12.6806],[-55.5097,-12.6803],[-55.5114,-12.6811],[-55.5126,-12.6808],[-55.5124,-12.6794],[-55.5109,-12.6793],[-55.5128,-12.677],[-55.5142,-12.6779],[-55.5172,-12.6743],[-55.5184,-12.6744],[-55.52,-12.6725],[-55.5215,-12.6716],[-55.5217,-12.6705],[-55.5231,-12.6696],[-55.525,-12.6703],[-55.5264,-12.6688],[-55.5265,-12.6667],[-55.5272,-12.6659],[-55.5304,-12.6657],[-55.53,-12.6645],[-55.5302,-12.6621],[-55.5319,-12.664],[-55.5336,-12.6632],[-55.5334,-12.6619],[-55.5354,-12.6604],[-55.5358,-12.6592],[-55.5389,-12.6595],[-55.5414,-12.6607],[-55.5434,-12.66],[-55.544,-12.6584],[-55.541,-12.6589],[-55.5404,-12.6581],[-55.5427,-12.6569],[-55.5439,-12.6575],[-55.5453,-12.6539],[-55.5475,-12.6527],[-55.5494,-12.6525],[-55.5506,-12.6506],[-55.5547,-12.6507],[-55.5551,-12.6496],[-55.5542,-12.6484],[-55.5556,-12.6468],[-55.5567,-12.6471],[-55.5578,-12.6463],[-55.5595,-12.6467],[-55.5602,-12.6443],[-55.5615,-12.6446],[-55.5624,-12.6431],[-55.5618,-12.6415],[-55.5633,-12.6406],[-55.5637,-12.6391],[-55.5646,-12.638],[-55.5664,-12.6373],[-55.5666,-12.6354],[-55.5681,-12.634],[-55.5685,-12.6328],[-55.5681,-12.6288],[-55.5693,-12.6278],[-55.5693,-12.6265],[-55.5677,-12.6268],[-55.5691,-12.6241],[-55.5694,-12.6197],[-55.5703,-12.6202],[-55.5716,-12.6181],[-55.5711,-12.6171],[-55.5716,-12.616],[-55.571,-12.6149],[-55.5717,-12.6141],[-55.5718,-12.6124],[-55.5741,-12.61],[-55.5748,-12.6085],[-55.5751,-12.6066],[-55.5743,-12.6057],[-55.5758,-12.6034],[-55.5783,-12.6036],[-55.5797,-12.6015],[-55.5783,-12.6004],[-55.579,-12.5991],[-55.5767,-12.5965],[-55.5765,-12.5952],[-55.5783,-12.5919],[-55.5799,-12.5922],[-55.5806,-12.5907],[-55.578,-12.5885],[-55.5783,-12.5846],[-55.5771,-12.5835],[-55.5767,-12.5824],[-55.5779,-12.581],[-55.5784,-12.579],[-55.5778,-12.5781],[-55.5783,-12.5759],[-55.5763,-12.5749],[-55.5785,-12.5741],[-55.5798,-12.5719],[-55.5794,-12.568],[-55.5808,-12.5668],[-55.5796,-12.5658],[-55.5821,-12.5646],[-55.5826,-12.5624],[-55.5806,-12.56],[-55.5822,-12.5584],[-55.5823,-12.5574],[-55.5813,-12.5564],[-55.582,-12.5548],[-55.5809,-12.554],[-55.5812,-12.5525],[-55.5808,-12.5509],[-55.5794,-12.5515],[-55.5791,-12.5498],[-55.5802,-12.5473],[-55.5793,-12.5453],[-55.5782,-12.5453],[-55.5776,-12.5436],[-55.5787,-12.5412],[-55.5783,-12.54],[-55.5794,-12.5389],[-55.5775,-12.5375],[-55.5766,-12.5358],[-55.5755,-12.5359],[-55.5723,-12.535],[-55.5705,-12.5352],[-55.5689,-12.5328],[-55.5706,-12.5318],[-55.5717,-12.5324],[-55.5722,-12.5312],[-55.5701,-12.53],[-55.5687,-12.5298],[-55.5687,-12.5284],[-55.5669,-12.5274],[-55.5641,-12.529],[-55.5643,-12.5279],[-55.5633,-12.527],[-55.564,-12.5248],[-55.5633,-12.5232],[-55.5643,-12.5223],[-55.5614,-12.5197],[-55.5617,-12.5181],[-55.5602,-12.5181],[-55.5587,-12.5175],[-55.5575,-12.5177],[-55.5549,-12.517],[-55.5534,-12.5171],[-55.5517,-12.5144],[-55.5526,-12.512],[-55.5511,-12.5109],[-55.5491,-12.5101],[-55.5481,-12.5076],[-55.5466,-12.5071],[-55.5459,-12.5057],[-55.5434,-12.5042],[-55.5428,-12.503],[-55.544,-12.5012],[-55.5447,-12.4995],[-55.5422,-12.499],[-55.5433,-12.4979],[-55.5439,-12.4958],[-55.543,-12.4946],[-55.5417,-12.4946],[-55.5407,-12.4934],[-55.5406,-12.4922],[-55.5394,-12.4913],[-55.5396,-12.4901],[-55.5392,-12.4874],[-55.538,-12.4854],[-55.5387,-12.4833],[-55.5376,-12.4812],[-55.5357,-12.4804],[-55.5348,-12.4775],[-55.5371,-12.4767],[-55.5374,-12.4758],[-55.5367,-12.4732],[-55.5369,-12.4718],[-55.5358,-12.4704],[-55.5332,-12.4688],[-55.533,-12.4679],[-55.5338,-12.4667],[-55.532,-12.4636],[-55.5328,-12.4621],[-55.5314,-12.4615],[-55.5302,-12.4587],[-55.5284,-12.4571],[-55.5279,-12.4558],[-55.5267,-12.4554],[-55.5242,-12.4538],[-55.523,-12.4538],[-55.5233,-12.4516],[-55.5244,-12.4472],[-55.5266,-12.4459],[-55.5268,-12.4449],[-55.5252,-12.4441],[-55.5254,-12.4424],[-55.5247,-12.4399],[-55.5269,-12.4379],[-55.5281,-12.4352],[-55.5278,-12.4331],[-55.5285,-12.4303],[-55.5274,-12.4283],[-55.5271,-12.4266],[-55.528,-12.4226],[-55.5272,-12.4204],[-55.5249,-12.4201],[-55.5236,-12.4176],[-55.525,-12.4168],[-55.526,-12.4153],[-55.5271,-12.4147],[-55.527,-12.4129],[-55.5257,-12.4125],[-55.5263,-12.4107],[-55.5279,-12.4105],[-55.53,-12.4091],[-55.5306,-12.406],[-55.5318,-12.4073],[-55.5332,-12.4064],[-55.5332,-12.4047],[-55.5339,-12.4034],[-55.5338,-12.4009],[-55.5361,-12.3984],[-55.5386,-12.3981],[-55.5404,-12.3971],[-55.5408,-12.3956],[-55.5406,-12.3929],[-55.5424,-12.3895],[-55.5438,-12.388],[-55.5456,-12.388],[-55.5489,-12.3868],[-55.5496,-12.3855],[-55.5472,-12.3846],[-55.548,-12.3818],[-55.5493,-12.38],[-55.5523,-12.3793],[-55.5527,-12.3785],[-55.551,-12.3776],[-55.5507,-12.3765],[-55.5486,-12.3749],[-55.5498,-12.3725],[-55.5508,-12.3715],[-55.5527,-12.3707],[-55.5517,-12.3667],[-55.5524,-12.3649],[-55.5559,-12.3594],[-55.5567,-12.3596],[-55.5567,-12.3615],[-55.5588,-12.3622],[-55.5576,-12.3599],[-55.5578,-12.3586],[-55.559,-12.3566],[-55.5607,-12.3571],[-55.562,-12.3566],[-55.5619,-12.3548],[-55.5611,-12.354],[-55.5613,-12.3526],[-55.5622,-12.3515],[-55.562,-12.3496],[-55.5622,-12.347],[-55.5616,-12.3459],[-55.5616,-12.3444],[-55.5631,-12.3429],[-55.564,-12.3409],[-55.5651,-12.3398],[-55.5674,-12.3389],[-55.5675,-12.3357],[-55.5664,-12.3337],[-55.569,-12.3318],[-55.5697,-12.3289],[-55.5677,-12.3275],[-55.568,-12.326],[-55.5702,-12.326],[-55.5709,-12.3254],[-55.5704,-12.3223],[-55.5706,-12.3201],[-55.5704,-12.3183],[-55.5691,-12.3174],[-55.569,-12.3145],[-55.568,-12.3138],[-55.5687,-12.3126],[-55.5671,-12.3107],[-55.5685,-12.3095],[-55.5689,-12.3085],[-55.5678,-12.3071],[-55.5653,-12.3065],[-55.5654,-12.3052],[-55.5665,-12.3031],[-55.5671,-12.3005],[-55.5683,-12.2989],[-55.5681,-12.2958],[-55.5662,-12.2938],[-55.566,-12.2928],[-55.5682,-12.2918],[-55.5686,-12.2911],[-55.568,-12.2895],[-55.5668,-12.2884],[-55.5665,-12.2873],[-55.5668,-12.2845],[-55.5665,-12.2823],[-55.5672,-12.2815],[-55.5694,-12.2817],[-55.5701,-12.2799],[-55.5683,-12.2773],[-55.5642,-12.2754],[-55.5644,-12.2744],[-55.5677,-12.2716],[-55.5692,-12.2709],[-55.5705,-12.2689],[-55.5726,-12.2684],[-55.5744,-12.2662],[-55.5742,-12.2633],[-55.5731,-12.2626],[-55.5731,-12.2612],[-55.5741,-12.2608],[-55.5771,-12.2638],[-55.5772,-12.2651],[-55.5792,-12.2648],[-55.5813,-12.2636],[-55.5825,-12.2636],[-55.5839,-12.2644],[-55.5863,-12.2651],[-55.5869,-12.2661],[-55.5885,-12.2659],[-55.5894,-12.2641],[-55.5889,-12.2624],[-55.5895,-12.2594],[-55.5911,-12.2581],[-55.5901,-12.2568],[-55.5894,-12.2545],[-55.59,-12.2511],[-55.5895,-12.2406],[-55.589,-12.2325],[-55.5881,-12.2302],[-55.5856,-12.2266],[-55.5851,-12.2231],[-55.5865,-12.2149],[-55.5857,-12.2104],[-55.5841,-12.2069],[-55.5836,-12.2013],[-55.5836,-12.1998],[-55.5851,-12.1943],[-55.5858,-12.1902],[-55.5859,-12.186],[-55.5855,-12.1836],[-55.5839,-12.181],[-55.5788,-12.1783],[-55.5742,-12.1765],[-55.5708,-12.1765],[-55.5659,-12.1769],[-55.5612,-12.1768],[-55.5574,-12.1777],[-55.5528,-12.1796],[-55.5494,-12.1802],[-55.5468,-12.1803],[-55.5404,-12.1798],[-55.538,-12.1794],[-55.5353,-12.1783],[-55.5332,-12.177],[-55.5321,-12.1759],[-55.5313,-12.174],[-55.5308,-12.1693],[-55.5296,-12.1636],[-55.5281,-12.1608],[-55.5212,-12.1531],[-55.5195,-12.1511],[-55.5184,-12.1481],[-55.5193,-12.1456],[-55.5205,-12.1441],[-55.5229,-12.142],[-55.5271,-12.1399],[-55.5294,-12.1397],[-55.5317,-12.1406],[-55.5344,-12.1402],[-55.5364,-12.1389],[-55.5421,-12.1347],[-55.5459,-12.1316],[-55.5475,-12.1301],[-55.5522,-12.1239],[-55.5557,-12.1212],[-55.5604,-12.1187],[-55.564,-12.1174],[-55.5714,-12.1169],[-55.574,-12.1162],[-55.5782,-12.1142],[-55.5815,-12.1108],[-55.5828,-12.1081],[-55.5841,-12.1035],[-55.5879,-12.0913],[-55.5892,-12.0858],[-55.59,-12.0838],[-55.5929,-12.0788],[-55.5944,-12.077],[-55.5966,-12.0754],[-55.5987,-12.0732],[-55.5996,-12.0717],[-55.6011,-12.0674],[-55.6021,-12.0625],[-55.6018,-12.06],[-55.5995,-12.0511],[-55.5992,-12.0494],[-55.6,-12.0458],[-55.601,-12.0435],[-55.6051,-12.0367],[-55.6053,-12.0352],[-55.6043,-12.0333],[-55.5989,-12.0308],[-55.5977,-12.0292],[-55.5976,-12.0264],[-55.5991,-12.024],[-55.603,-12.0201],[-55.6099,-12.015],[-55.6165,-12.0095],[-55.6188,-12.0063],[-55.6195,-12.0034],[-55.6194,-12.0004],[-55.6188,-11.9948],[-55.6193,-11.9918],[-55.6201,-11.9895],[-55.6215,-11.9876],[-55.6232,-11.9862],[-55.6275,-11.9835],[-55.6317,-11.982],[-55.6345,-11.9819],[-55.6405,-11.9823],[-55.6438,-11.9828],[-55.6468,-11.9823],[-55.6479,-11.9805],[-55.6477,-11.9786],[-55.646,-11.9768],[-55.6425,-11.9744],[-55.6416,-11.9724],[-55.6418,-11.9709],[-55.6429,-11.9673],[-55.6446,-11.965],[-55.6473,-11.9636],[-55.6519,-11.9623],[-55.6534,-11.9614],[-55.6543,-11.9602],[-55.6548,-11.9584],[-55.6553,-11.9545],[-55.656,-11.953],[-55.657,-11.9523],[-55.6591,-11.952],[-55.6607,-11.9525],[-55.6648,-11.9549],[-55.6675,-11.9542],[-55.6694,-11.9514],[-55.6697,-11.9486],[-55.6692,-11.9472],[-55.6673,-11.9452],[-55.6619,-11.9414],[-55.6582,-11.938],[-55.6577,-11.9361],[-55.6579,-11.9346],[-55.659,-11.9316],[-55.6626,-11.9267],[-55.6698,-11.9207],[-55.6737,-11.9184],[-55.6772,-11.9158],[-55.6771,-11.9143],[-55.674,-11.9125],[-55.6713,-11.9104],[-55.6681,-11.906],[-55.6666,-11.9031],[-55.6631,-11.8995],[-55.6594,-11.8978],[-55.6579,-11.8966],[-55.6577,-11.893],[-55.6587,-11.8895],[-55.6594,-11.8882],[-55.6623,-11.8863],[-55.6642,-11.8844],[-55.6692,-11.88],[-55.6706,-11.8791],[-55.6821,-11.8768],[-55.6889,-11.8748],[-55.6919,-11.8753],[-55.6999,-11.8788],[-55.7037,-11.88],[-55.7057,-11.8799],[-55.7099,-11.8785],[-55.7114,-11.8775],[-55.7126,-11.8753],[-55.7126,-11.873],[-55.7116,-11.8707],[-55.7083,-11.8665],[-55.7053,-11.8642],[-55.7029,-11.8611],[-55.6997,-11.8566],[-55.6984,-11.8552],[-55.6955,-11.853],[-55.6904,-11.85],[-55.6843,-11.8478],[-55.6803,-11.8469],[-55.6752,-11.8464],[-55.67,-11.8466],[-55.6697,-11.8438],[-55.6702,-11.8424],[-55.6715,-11.8409],[-55.6781,-11.8361],[-55.6821,-11.834],[-55.6854,-11.8327],[-55.6893,-11.8316],[-55.6907,-11.8302],[-55.6915,-11.828],[-55.6919,-11.8247],[-55.6902,-11.8222],[-55.6881,-11.821],[-55.6852,-11.8186],[-55.6824,-11.8159],[-55.6775,-11.813],[-55.6746,-11.8103],[-55.6736,-11.8089],[-55.6737,-11.8067],[-55.6747,-11.8052],[-55.6803,-11.7993],[-55.6856,-11.795],[-55.6897,-11.7904],[-55.6935,-11.7856],[-55.7007,-11.7799],[-55.7015,-11.7789],[-55.7019,-11.7771],[-55.7017,-11.7754],[-55.6999,-11.7735],[-55.6967,-11.7735],[-55.6946,-11.7743],[-55.6894,-11.7781],[-55.6863,-11.7808],[-55.6837,-11.7825],[-55.6819,-11.782],[-55.6818,-11.7797],[-55.6834,-11.7751],[-55.6847,-11.7729],[-55.6861,-11.7717],[-55.6882,-11.7712],[-55.6935,-11.7712],[-55.6961,-11.77],[-55.698,-11.7678],[-55.6989,-11.7659],[-55.7001,-11.7613],[-55.7023,-11.7585],[-55.7073,-11.755],[-55.7081,-11.7537],[-55.7082,-11.7522],[-55.707,-11.7495],[-55.7059,-11.7488],[-55.7034,-11.7487],[-55.7008,-11.7498],[-55.699,-11.7497],[-55.6985,-11.7482],[-55.6993,-11.7466],[-55.7014,-11.7463],[-55.7089,-11.7476],[-55.7151,-11.7499],[-55.7167,-11.7496],[-55.7182,-11.7477],[-55.7184,-11.745],[-55.7173,-11.7436],[-55.715,-11.7425],[-55.7132,-11.7422],[-55.7114,-11.7412],[-55.7113,-11.7396],[-55.7129,-11.7381],[-55.7146,-11.7375],[-55.7197,-11.7371],[-55.7248,-11.7382],[-55.7273,-11.7395],[-55.7312,-11.7427],[-55.7339,-11.7432],[-55.7357,-11.7426],[-55.7376,-11.7409],[-55.7381,-11.7395],[-55.7375,-11.7377],[-55.7366,-11.7369],[-55.7343,-11.736],[-55.7304,-11.7355],[-55.7282,-11.7345],[-55.726,-11.7329],[-55.7248,-11.7313],[-55.7244,-11.7298],[-55.7246,-11.728],[-55.7263,-11.7257],[-55.7277,-11.7246],[-55.7309,-11.7246],[-55.7334,-11.7259],[-55.7321,-11.7286],[-55.732,-11.7307],[-55.7325,-11.7319],[-55.7346,-11.7341],[-55.736,-11.7349],[-55.7391,-11.7356],[-55.7405,-11.7355],[-55.7429,-11.7346],[-55.7458,-11.7343],[-55.7472,-11.7326],[-55.7491,-11.7283],[-55.7512,-11.7257],[-55.7543,-11.723],[-55.7567,-11.7221],[-55.7605,-11.7216],[-55.7633,-11.7224],[-55.7671,-11.7247],[-55.7718,-11.7253],[-55.7734,-11.7266],[-55.7752,-11.7291],[-55.7783,-11.7321],[-55.7817,-11.737],[-55.7827,-11.7382],[-55.7847,-11.7385],[-55.7887,-11.7368],[-55.7917,-11.7364],[-55.7973,-11.7378],[-55.8002,-11.7396],[-55.8012,-11.7421],[-55.8009,-11.7441],[-55.7989,-11.7474],[-55.7973,-11.7482],[-55.7929,-11.7484],[-55.7916,-11.749],[-55.7914,-11.7503],[-55.7926,-11.7519],[-55.7952,-11.7519],[-55.8011,-11.7495],[-55.8032,-11.7494],[-55.8094,-11.7508],[-55.8109,-11.7505],[-55.8115,-11.7495],[-55.8123,-11.7463],[-55.8129,-11.7451],[-55.8167,-11.7412],[-55.8184,-11.7414],[-55.8207,-11.7429],[-55.8215,-11.744],[-55.8218,-11.7466],[-55.8215,-11.7485],[-55.819,-11.7512],[-55.8179,-11.7534],[-55.8162,-11.7555],[-55.815,-11.7587],[-55.8156,-11.7606],[-55.8183,-11.7615],[-55.82,-11.7601],[-55.8217,-11.7559],[-55.8251,-11.7528],[-55.8273,-11.7519],[-55.8298,-11.7522],[-55.8315,-11.7534],[-55.8313,-11.7558],[-55.8294,-11.7587],[-55.8291,-11.7602],[-55.8293,-11.7647],[-55.8286,-11.7699],[-55.8256,-11.7753],[-55.8243,-11.7788],[-55.8241,-11.781],[-55.8245,-11.782],[-55.8265,-11.7846],[-55.8286,-11.7866],[-55.8298,-11.7867],[-55.8315,-11.7854],[-55.8337,-11.7829],[-55.8344,-11.7803],[-55.836,-11.7793],[-55.8386,-11.7795],[-55.8396,-11.7799],[-55.8413,-11.7816],[-55.8428,-11.7865],[-55.8429,-11.7882],[-55.8424,-11.7917],[-55.841,-11.7956],[-55.8394,-11.797],[-55.8344,-11.7991],[-55.8323,-11.7996],[-55.8297,-11.8009],[-55.8273,-11.8027],[-55.8244,-11.8045],[-55.8235,-11.8055],[-55.823,-11.8089],[-55.8223,-11.8115],[-55.8224,-11.8128],[-55.8239,-11.8144],[-55.8252,-11.8151],[-55.827,-11.8153],[-55.8277,-11.8145],[-55.8278,-11.8117],[-55.8285,-11.8105],[-55.8308,-11.8091],[-55.8319,-11.8092],[-55.8337,-11.8133],[-55.8346,-11.8181],[-55.8356,-11.8208],[-55.8381,-11.8239],[-55.8389,-11.8259],[-55.8396,-11.832],[-55.8396,-11.8335],[-55.8387,-11.8363],[-55.8367,-11.8403],[-55.8368,-11.8422],[-55.8381,-11.8438],[-55.8423,-11.8471],[-55.8447,-11.8504],[-55.846,-11.8512],[-55.8482,-11.851],[-55.8533,-11.8483],[-55.8542,-11.8476],[-55.8556,-11.845],[-55.858,-11.8452],[-55.8624,-11.8479],[-55.8639,-11.85],[-55.865,-11.8536],[-55.8649,-11.8551],[-55.8633,-11.8561],[-55.8606,-11.8565],[-55.8594,-11.8576],[-55.8592,-11.8607],[-55.8602,-11.8623],[-55.8642,-11.8639],[-55.8683,-11.8639],[-55.8708,-11.8644],[-55.8728,-11.8657],[-55.8747,-11.8676],[-55.8765,-11.8707],[-55.8768,-11.8733],[-55.8765,-11.8756],[-55.8768,-11.8772],[-55.8785,-11.8792],[-55.8796,-11.8814],[-55.8793,-11.8836],[-55.8781,-11.8844],[-55.8766,-11.8838],[-55.8746,-11.8817],[-55.8706,-11.8802],[-55.8693,-11.8802],[-55.8687,-11.8824],[-55.8699,-11.8858],[-55.8703,-11.8881],[-55.8701,-11.89],[-55.8708,-11.8911],[-55.8726,-11.8912],[-55.8759,-11.8899],[-55.8778,-11.8913],[-55.8792,-11.8961],[-55.8797,-11.8987],[-55.8797,-11.9011],[-55.8786,-11.9037],[-55.8785,-11.9055],[-55.8789,-11.9078],[-55.8789,-11.9122],[-55.8835,-11.9133],[-55.886,-11.9133],[-55.8894,-11.9112],[-55.8914,-11.9115],[-55.8918,-11.9126],[-55.8897,-11.9195],[-55.8896,-11.9213],[-55.8906,-11.9222],[-55.8935,-11.9233],[-55.8933,-11.9245],[-55.8912,-11.9243],[-55.8891,-11.9246],[-55.887,-11.9262],[-55.8858,-11.9285],[-55.8852,-11.9329],[-55.8839,-11.9351],[-55.8801,-11.9384],[-55.8797,-11.9405],[-55.8806,-11.9415],[-55.8827,-11.9412],[-55.8884,-11.9388],[-55.89,-11.9397],[-55.8869,-11.945],[-55.886,-11.9461],[-55.8808,-11.951],[-55.8794,-11.9533],[-55.8797,-11.9545],[-55.8822,-11.9557],[-55.884,-11.9573],[-55.8843,-11.9592],[-55.8837,-11.9622],[-55.884,-11.9641],[-55.8871,-11.9665],[-55.8917,-11.9682],[-55.8925,-11.969],[-55.8923,-11.9736],[-55.8901,-11.9789],[-55.8882,-11.9829],[-55.8875,-11.9868],[-55.8877,-11.9881],[-55.889,-11.9902],[-55.8916,-11.9925],[-55.8936,-11.9954],[-55.8949,-11.996],[-55.8986,-11.9971],[-55.9003,-11.9984],[-55.9003,-12.0004],[-55.8979,-12.0034],[-55.8974,-12.0051],[-55.8976,-12.0083],[-55.8972,-12.0099],[-55.8952,-12.0124],[-55.8947,-12.0137],[-55.895,-12.0151],[-55.8968,-12.016],[-55.8989,-12.0156],[-55.9,-12.0147],[-55.8995,-12.01],[-55.901,-12.0061],[-55.9028,-12.0054],[-55.9067,-12.0062],[-55.9075,-12.0077],[-55.9077,-12.0095],[-55.9074,-12.0112],[-55.9066,-12.0123],[-55.9037,-12.0147],[-55.9013,-12.0177],[-55.9004,-12.0236],[-55.8988,-12.0274],[-55.8973,-12.0289],[-55.8973,-12.0299],[-55.8992,-12.0301],[-55.9013,-12.028],[-55.9026,-12.0271],[-55.9047,-12.0271],[-55.9066,-12.0281],[-55.9082,-12.0299],[-55.909,-12.032],[-55.9086,-12.0337],[-55.9061,-12.0353],[-55.9016,-12.0359],[-55.9009,-12.037],[-55.9027,-12.0387],[-55.9057,-12.0451],[-55.9068,-12.0486],[-55.9059,-12.0526],[-55.9061,-12.0546],[-55.9096,-12.0583],[-55.9115,-12.0587],[-55.9113,-12.0601],[-55.9062,-12.0628],[-55.9055,-12.0634],[-55.9054,-12.0652],[-55.9069,-12.0675],[-55.9072,-12.0696],[-55.909,-12.0717],[-55.909,-12.0727],[-55.9078,-12.074],[-55.9066,-12.0745],[-55.9046,-12.0743],[-55.9006,-12.072],[-55.8988,-12.0722],[-55.8977,-12.0747],[-55.8976,-12.0764],[-55.8982,-12.0778],[-55.9031,-12.0831],[-55.9057,-12.085],[-55.9108,-12.0851],[-55.9112,-12.0871],[-55.9104,-12.088],[-55.9067,-12.0893],[-55.9034,-12.0915],[-55.9027,-12.093],[-55.9025,-12.0947],[-55.9033,-12.0982],[-55.9043,-12.0993],[-55.9059,-12.0994],[-55.9097,-12.0989],[-55.9117,-12.1006],[-55.9119,-12.1023],[-55.9112,-12.1042],[-55.9098,-12.1048],[-55.9064,-12.1046],[-55.9032,-12.1055],[-55.8994,-12.1083],[-55.8978,-12.1102],[-55.8973,-12.113],[-55.8991,-12.1158],[-55.9001,-12.1165],[-55.9029,-12.1164],[-55.9071,-12.1119],[-55.9096,-12.1107],[-55.9109,-12.1115],[-55.9114,-12.1145],[-55.9109,-12.1156],[-55.9093,-12.1161],[-55.9053,-12.1164],[-55.9023,-12.1176],[-55.8977,-12.1177],[-55.8948,-12.119],[-55.895,-12.1208],[-55.8962,-12.1216],[-55.9017,-12.122],[-55.904,-12.1232],[-55.9053,-12.1249],[-55.9052,-12.1271],[-55.9031,-12.1275],[-55.8988,-12.1253],[-55.8971,-12.125],[-55.8946,-12.1253],[-55.8913,-12.1266],[-55.8898,-12.1278],[-55.8893,-12.1297],[-55.8896,-12.1324],[-55.8887,-12.1362],[-55.8875,-12.1382],[-55.8872,-12.14],[-55.8889,-12.1414],[-55.8909,-12.1409],[-55.8948,-12.139],[-55.8994,-12.1385],[-55.9008,-12.1374],[-55.902,-12.1375],[-55.9032,-12.1384],[-55.9032,-12.1403],[-55.9003,-12.143],[-55.8991,-12.1445],[-55.8971,-12.1483],[-55.896,-12.1509],[-55.896,-12.1537],[-55.8964,-12.155],[-55.9001,-12.1574],[-55.9016,-12.159],[-55.9034,-12.1617],[-55.9043,-12.1654],[-55.9042,-12.1694],[-55.9035,-12.1711],[-55.9006,-12.1735],[-55.9004,-12.1755],[-55.9021,-12.1776],[-55.903,-12.1804],[-55.903,-12.1821],[-55.9021,-12.1829],[-55.8981,-12.1833],[-55.8961,-12.1842],[-55.8949,-12.186],[-55.895,-12.1878],[-55.8966,-12.1938],[-55.8966,-12.196],[-55.8956,-12.198],[-55.893,-12.1998],[-55.8924,-12.2026],[-55.8934,-12.2047],[-55.8954,-12.2057],[-55.8977,-12.206],[-55.9001,-12.2059],[-55.9023,-12.2048],[-55.9033,-12.2034],[-55.9034,-12.2019],[-55.9022,-12.1986],[-55.9019,-12.1969],[-55.9034,-12.1947],[-55.9061,-12.1948],[-55.9089,-12.196],[-55.9121,-12.1984],[-55.9136,-12.2009],[-55.9135,-12.2027],[-55.9124,-12.2039],[-55.9104,-12.2047],[-55.907,-12.2055],[-55.9043,-12.2078],[-55.9045,-12.209],[-55.9061,-12.21],[-55.9081,-12.2104],[-55.9128,-12.2128],[-55.9181,-12.2136],[-55.9207,-12.2152],[-55.9237,-12.2178],[-55.9244,-12.2203],[-55.9242,-12.2233],[-55.9206,-12.2293],[-55.9189,-12.2312],[-55.9165,-12.2325],[-55.9162,-12.234],[-55.9177,-12.2354],[-55.9232,-12.2367],[-55.9262,-12.2358],[-55.9287,-12.2359],[-55.9313,-12.2388],[-55.9321,-12.2401],[-55.933,-12.2441],[-55.9345,-12.247],[-55.937,-12.2469],[-55.9398,-12.2482],[-55.9405,-12.2498],[-55.9412,-12.2542],[-55.9427,-12.2561],[-55.9438,-12.2566],[-55.9482,-12.2574],[-55.9504,-12.2586],[-55.9516,-12.2603],[-55.9515,-12.263],[-55.9497,-12.2667],[-55.9496,-12.2689],[-55.9507,-12.2707],[-55.9557,-12.2743],[-55.9604,-12.2762],[-55.9602,-12.2776],[-55.9583,-12.2806],[-55.9575,-12.2836],[-55.9586,-12.2847],[-55.9618,-12.2854],[-55.9636,-12.2865],[-55.9652,-12.289],[-55.9686,-12.2924],[-55.9697,-12.2948],[-55.9707,-12.2977],[-55.9721,-12.2982],[-55.9761,-12.2984],[-55.9812,-12.3023],[-55.9839,-12.3047],[-55.986,-12.308],[-55.9879,-12.3098],[-55.9895,-12.3105],[-55.9913,-12.3104],[-55.9924,-12.3096],[-55.9926,-12.3083],[-55.9913,-12.3044],[-55.9921,-12.3029],[-55.9943,-12.3013],[-55.9958,-12.302],[-55.9976,-12.3058],[-56.0005,-12.3105],[-56.0012,-12.315],[-56.002,-12.3177],[-56.0039,-12.3196],[-56.006,-12.3192],[-56.0085,-12.3172],[-56.01,-12.3166],[-56.0112,-12.3169],[-56.0128,-12.3198],[-56.0147,-12.324],[-56.0175,-12.3276],[-56.0177,-12.3287],[-56.017,-12.3312],[-56.0161,-12.3324],[-56.0138,-12.3342],[-56.0124,-12.336],[-56.0121,-12.3385],[-56.0125,-12.3417],[-56.013,-12.3432],[-56.0155,-12.3486],[-56.0189,-12.3526],[-56.0214,-12.3564],[-56.0219,-12.3589],[-56.0209,-12.3613],[-56.0181,-12.3625],[-56.0165,-12.3637],[-56.0164,-12.3658],[-56.017,-12.3668],[-56.0195,-12.3676],[-56.0239,-12.3695],[-56.0249,-12.3702],[-56.0263,-12.3726],[-56.0275,-12.3737],[-56.0296,-12.3738],[-56.0326,-12.3705],[-56.0343,-12.3692],[-56.0368,-12.3698],[-56.0378,-12.3712],[-56.0381,-12.3735],[-56.0356,-12.3773],[-56.0357,-12.3784],[-56.0393,-12.3829],[-56.0415,-12.3836],[-56.0457,-12.3819],[-56.0472,-12.3819],[-56.0489,-12.3831],[-56.05,-12.3853],[-56.0497,-12.3869],[-56.0489,-12.3879],[-56.0453,-12.39],[-56.0445,-12.3912],[-56.0445,-12.3929],[-56.0431,-12.396],[-56.0415,-12.398],[-56.0424,-12.3995],[-56.0447,-12.3991],[-56.0475,-12.3983],[-56.0495,-12.3973],[-56.0521,-12.3947],[-56.0564,-12.3929],[-56.0584,-12.393],[-56.0602,-12.3939],[-56.0611,-12.3968],[-56.0612,-12.3995],[-56.0603,-12.4008],[-56.0575,-12.4024],[-56.0557,-12.4036],[-56.0545,-12.4059],[-56.0543,-12.408],[-56.0548,-12.4107],[-56.0558,-12.4134],[-56.0574,-12.4167],[-56.0576,-12.4181],[-56.0563,-12.419],[-56.0521,-12.4199],[-56.0505,-12.4207],[-56.05,-12.4221],[-56.0511,-12.4242],[-56.055,-12.4261],[-56.0576,-12.427],[-56.0597,-12.4286],[-56.0606,-12.43],[-56.0607,-12.4318],[-56.0582,-12.4354],[-56.0585,-12.4368],[-56.06,-12.4368],[-56.063,-12.4345],[-56.0646,-12.4342],[-56.066,-12.4351],[-56.0662,-12.4406],[-56.0658,-12.4428],[-56.0644,-12.4457],[-56.0644,-12.4492],[-56.0635,-12.4504],[-56.0614,-12.4514],[-56.0598,-12.4531],[-56.0592,-12.4544],[-56.0595,-12.4562],[-56.061,-12.4588],[-56.063,-12.4587],[-56.0654,-12.4557],[-56.0689,-12.4565],[-56.0707,-12.4554],[-56.0726,-12.4552],[-56.0757,-12.4564],[-56.0763,-12.4583],[-56.0745,-12.4597],[-56.0719,-12.4609],[-56.0705,-12.4622],[-56.07,-12.4641],[-56.0706,-12.4667],[-56.0721,-12.4666],[-56.0737,-12.4659],[-56.0755,-12.4656],[-56.0764,-12.4661],[-56.0793,-12.4685],[-56.0798,-12.4695],[-56.0796,-12.471],[-56.0788,-12.4724],[-56.0765,-12.4737],[-56.0738,-12.4735],[-56.0715,-12.4739],[-56.0694,-12.4748],[-56.0683,-12.4768],[-56.0687,-12.4783],[-56.07,-12.479],[-56.072,-12.4792],[-56.074,-12.4788],[-56.0795,-12.4787],[-56.0842,-12.4807],[-56.0859,-12.4824],[-56.0849,-12.4833],[-56.082,-12.4841],[-56.0801,-12.4855],[-56.0776,-12.4867],[-56.0761,-12.4887],[-56.0773,-12.4906],[-56.0823,-12.4905],[-56.0836,-12.4916],[-56.0847,-12.4971],[-56.0859,-12.4981],[-56.0907,-12.4994],[-56.0928,-12.5011],[-56.0933,-12.5031],[-56.0925,-12.5059],[-56.0926,-12.5096],[-56.0919,-12.5122],[-56.0928,-12.5153],[-56.0939,-12.5175],[-56.0942,-12.5192],[-56.0937,-12.5205],[-56.0909,-12.5224],[-56.09,-12.5245],[-56.09,-12.5266],[-56.0895,-12.528],[-56.0875,-12.5299],[-56.0826,-12.5315],[-56.081,-12.5339],[-56.0814,-12.5352],[-56.0849,-12.5368],[-56.0864,-12.5392],[-56.086,-12.5404],[-56.0833,-12.5427],[-56.0809,-12.5444],[-56.0794,-12.5448],[-56.0761,-12.5443],[-56.075,-12.5447],[-56.0739,-12.5461],[-56.0738,-12.5473],[-56.075,-12.5498],[-56.0758,-12.5546],[-56.0766,-12.5572],[-56.0766,-12.5585],[-56.0754,-12.5606],[-56.0713,-12.563],[-56.0701,-12.5644],[-56.0693,-12.5667],[-56.0694,-12.5679],[-56.0723,-12.5712],[-56.0739,-12.5741],[-56.0765,-12.5751],[-56.0808,-12.5758],[-56.0829,-12.5769],[-56.0844,-12.5797],[-56.0837,-12.5818],[-56.0825,-12.5838],[-56.0822,-12.5851],[-56.0821,-12.5886],[-56.0816,-12.5908],[-56.0822,-12.5914],[-56.0853,-12.5912],[-56.0873,-12.5919],[-56.0907,-12.5946],[-56.0919,-12.5952],[-56.0942,-12.5953],[-56.0958,-12.595],[-56.0971,-12.5957],[-56.097,-12.5994],[-56.0945,-12.6055],[-56.095,-12.6071],[-56.0994,-12.6064],[-56.1035,-12.6069],[-56.1046,-12.6059],[-56.1054,-12.6044],[-56.1088,-12.6025],[-56.1096,-12.6007],[-56.1114,-12.601],[-56.1125,-12.6051],[-56.1129,-12.6077],[-56.1123,-12.6084],[-56.1097,-12.6088],[-56.1078,-12.6075],[-56.1058,-12.6076],[-56.1034,-12.6099],[-56.1032,-12.6108],[-56.1043,-12.6135],[-56.1052,-12.6146],[-56.1076,-12.6149],[-56.1113,-12.6144],[-56.1136,-12.6155],[-56.1139,-12.6174],[-56.1128,-12.6191],[-56.1104,-12.62],[-56.1092,-12.621],[-56.1077,-12.6238],[-56.1068,-12.6263],[-56.1048,-12.6294],[-56.1039,-12.633],[-56.1037,-12.639],[-56.1048,-12.6395],[-56.1088,-12.6349],[-56.1105,-12.635],[-56.113,-12.6363],[-56.1157,-12.637],[-56.1167,-12.6382],[-56.1163,-12.6413],[-56.1154,-12.643],[-56.1122,-12.6451],[-56.111,-12.6464],[-56.1097,-12.6467],[-56.1075,-12.6456],[-56.1059,-12.6463],[-56.1046,-12.6487],[-56.1055,-12.6519],[-56.1058,-12.6541],[-56.1046,-12.6554],[-56.1029,-12.6554],[-56.1006,-12.654],[-56.0991,-12.6537],[-56.0973,-12.6539],[-56.0949,-12.6558],[-56.093,-12.6598],[-56.0891,-12.6635],[-56.0892,-12.6646],[-56.0904,-12.6674],[-56.0919,-12.6688],[-56.0938,-12.6696],[-56.0951,-12.6713],[-56.0953,-12.6743],[-56.0947,-12.6823],[-56.0914,-12.6845],[-56.0887,-12.6878],[-56.0866,-12.689],[-56.0838,-12.6931],[-56.0822,-12.6933],[-56.0816,-12.6925],[-56.0803,-12.6889],[-56.0773,-12.6873],[-56.0761,-12.6859],[-56.0759,-12.6842],[-56.0782,-12.6839],[-56.0828,-12.6846],[-56.0839,-12.6841],[-56.084,-12.683],[-56.0779,-12.6794],[-56.0765,-12.6778],[-56.075,-12.6774],[-56.0728,-12.6778],[-56.0708,-12.6789],[-56.0688,-12.6811],[-56.0661,-12.6837],[-56.0628,-12.6843],[-56.0605,-12.6855],[-56.0588,-12.684],[-56.0572,-12.6843],[-56.0555,-12.6857],[-56.0547,-12.6877],[-56.0548,-12.6919],[-56.054,-12.6928],[-56.0509,-12.6944],[-56.0517,-12.6965],[-56.0539,-12.6984],[-56.0552,-12.7001],[-56.0552,-12.7021],[-56.0539,-12.7034],[-56.0519,-12.7039],[-56.0475,-12.7026],[-56.0457,-12.6997],[-56.0431,-12.6986],[-56.0416,-12.6986],[-56.0405,-12.7005],[-56.0407,-12.7021],[-56.0402,-12.7037],[-56.0378,-12.706],[-56.0382,-12.7086],[-56.0395,-12.7103],[-56.0407,-12.7135],[-56.0408,-12.7152],[-56.0402,-12.717],[-56.0384,-12.7188],[-56.0377,-12.722],[-56.0354,-12.7266],[-56.0353,-12.7275],[-56.0366,-12.7328],[-56.034,-12.7357],[-56.0327,-12.736],[-56.0299,-12.7353],[-56.0283,-12.7353],[-56.0273,-12.7341],[-56.026,-12.7341],[-56.0237,-12.7361],[-56.0232,-12.7381],[-56.0257,-12.7406],[-56.0306,-12.7417],[-56.0327,-12.7437],[-56.0325,-12.7459],[-56.033,-12.7479],[-56.0327,-12.7501],[-56.0329,-12.7525],[-56.0341,-12.7545],[-56.0342,-12.7566],[-56.0332,-12.7576],[-56.0334,-12.7589],[-56.0351,-12.7604],[-56.0349,-12.7626],[-56.0354,-12.7644],[-56.0369,-12.7666],[-56.0393,-12.7685],[-56.0397,-12.7702],[-56.0389,-12.7724],[-56.0404,-12.7743],[-56.0399,-12.7765],[-56.0378,-12.7768],[-56.0361,-12.7764],[-56.0361,-12.7737],[-56.0352,-12.772],[-56.0337,-12.771],[-56.0335,-12.7695],[-56.0314,-12.7659],[-56.028,-12.7669],[-56.0257,-12.7659],[-56.0224,-12.768],[-56.0218,-12.7689],[-56.0219,-12.7723],[-56.0203,-12.7726],[-56.0175,-12.7691],[-56.0148,-12.7692],[-56.0126,-12.7712],[-56.0119,-12.7732],[-56.0113,-12.777],[-56.0114,-12.7793],[-56.0125,-12.7844],[-56.0116,-12.7866],[-56.0115,-12.789],[-56.0125,-12.7911],[-56.0126,-12.7931],[-56.0087,-12.793],[-56.0056,-12.7945],[-56.0037,-12.795],[-56.0007,-12.7943],[-55.998,-12.7958],[-55.9967,-12.7946],[-55.9957,-12.7944],[-55.9959,-12.7981],[-55.997,-12.7996],[-55.9984,-12.7995],[-55.9995,-12.8028],[-55.9984,-12.8037],[-55.9991,-12.8058],[-56.0001,-12.8076],[-56.0001,-12.8089],[-55.9985,-12.8118],[-55.9983,-12.8132],[-55.999,-12.8144],[-55.9983,-12.8161],[-55.9971,-12.8164],[-55.9941,-12.8165],[-55.9918,-12.8191],[-55.9918,-12.821],[-55.9948,-12.8238],[-55.9973,-12.8265],[-55.9998,-12.8301],[-55.9996,-12.8364],[-55.9989,-12.8377],[-55.9975,-12.8383],[-55.9951,-12.8378],[-55.9932,-12.8386],[-55.9918,-12.8425],[-55.9922,-12.844],[-55.9944,-12.8461],[-55.9953,-12.8478],[-55.9951,-12.8502],[-55.9922,-12.8496],[-55.9897,-12.8496],[-55.9875,-12.8502],[-55.9855,-12.8497],[-55.9846,-12.8502],[-55.9838,-12.8518],[-55.984,-12.8537],[-55.9851,-12.8559],[-55.987,-12.8567],[-55.9887,-12.8564],[-55.9894,-12.8572],[-55.9905,-12.8617],[-55.9922,-12.8643],[-55.9922,-12.8682],[-55.9931,-12.8704],[-55.9949,-12.8695],[-55.9988,-12.8717],[-55.9986,-12.8734],[-55.9974,-12.8737],[-55.995,-12.8732],[-55.9929,-12.8734],[-55.9899,-12.8768],[-55.9868,-12.8787],[-55.9847,-12.8797],[-55.9809,-12.8823],[-55.9802,-12.8833],[-55.9767,-12.8851],[-55.9746,-12.8867],[-55.9742,-12.8883],[-55.9747,-12.8896],[-55.9743,-12.8912],[-55.9748,-12.8926],[-55.9773,-12.8938],[-55.9791,-12.8941],[-55.9816,-12.8954],[-55.9812,-12.8974],[-55.978,-12.9],[-55.9763,-12.8997],[-55.974,-12.8983],[-55.9727,-12.8983],[-55.9703,-12.897],[-55.9674,-12.897],[-55.9654,-12.9004],[-55.9629,-12.9005],[-55.9615,-12.9011],[-55.9605,-12.9047],[-55.9585,-12.9064],[-55.958,-12.908],[-55.9585,-12.9091],[-55.9608,-12.9102],[-55.9621,-12.9112],[-55.9623,-12.9133],[-55.9599,-12.9165],[-55.9584,-12.9162],[-55.9568,-12.9143],[-55.9581,-12.9123],[-55.9574,-12.9115],[-55.9559,-12.9116],[-55.9538,-12.9129],[-55.952,-12.9157],[-55.9504,-12.9166],[-55.9481,-12.9166],[-55.9465,-12.9177],[-55.9456,-12.9195],[-55.9453,-12.9224],[-55.9459,-12.9242],[-55.9474,-12.9255],[-55.9474,-12.9274],[-55.9481,-12.9287],[-55.9477,-12.9301],[-55.9458,-12.9311],[-55.9445,-12.9343],[-55.9435,-12.9349],[-55.9397,-12.9363],[-55.9368,-12.9381],[-55.9379,-12.9403],[-55.9395,-12.942],[-55.9379,-12.9452],[-55.9375,-12.9511],[-55.9354,-12.9533],[-55.9353,-12.9554],[-55.9323,-12.9571],[-55.932,-12.9598],[-55.9291,-12.963],[-55.9243,-12.9667],[-55.9209,-12.9678],[-55.9209,-12.9686],[-55.9242,-12.9694],[-55.9232,-12.9707],[-55.9229,-12.978],[-55.9218,-12.9828],[-55.9202,-12.9862],[-55.9201,-12.9875],[-55.9206,-12.9894],[-55.9194,-12.9909],[-55.9174,-12.9907],[-55.9146,-12.9908],[-55.914,-12.9917],[-55.9141,-12.9934],[-55.9136,-12.9966],[-55.912,-12.9994],[-55.9118,-13.0004],[-55.9094,-13.003],[-55.9085,-13.0045],[-55.9064,-13.0059],[-55.906,-13.0073],[-55.907,-13.0097],[-55.907,-13.0122],[-55.9074,-13.0142],[-55.9071,-13.0166],[-55.9078,-13.0204],[-55.9082,-13.0233],[-55.9079,-13.0253],[-55.9069,-13.0273],[-55.9068,-13.0288],[-55.9088,-13.033],[-55.9092,-13.0361],[-55.9081,-13.0382],[-55.9082,-13.0414],[-55.9074,-13.0429],[-55.9075,-13.0441],[-55.9095,-13.0469],[-55.9097,-13.0487],[-55.9084,-13.0516],[-55.9064,-13.0522],[-55.9042,-13.0512],[-55.9035,-13.0498],[-55.9039,-13.0471],[-55.9037,-13.0455],[-55.9027,-13.0442],[-55.9008,-13.0444],[-55.8997,-13.0463],[-55.8981,-13.047],[-55.8963,-13.0461],[-55.8951,-13.0449],[-55.8946,-13.0431],[-55.8929,-13.0428],[-55.8903,-13.0461],[-55.8898,-13.0501],[-55.8901,-13.0531],[-55.8926,-13.0519],[-55.8953,-13.0536],[-55.896,-13.057],[-55.8951,-13.0585],[-55.8938,-13.0575],[-55.8941,-13.0564],[-55.8922,-13.055],[-55.8893,-13.0559],[-55.8889,-13.0569],[-55.8905,-13.0597],[-55.8898,-13.0618],[-55.8863,-13.0634],[-55.885,-13.0647],[-55.8852,-13.0658],[-55.8863,-13.0676],[-55.8862,-13.0684],[-55.8875,-13.073],[-55.8892,-13.0739],[-55.8897,-13.0754],[-55.8881,-13.0771],[-55.8837,-13.0788],[-55.8832,-13.0781],[-55.8835,-13.0764],[-55.8816,-13.0741],[-55.8806,-13.0734],[-55.8772,-13.0734],[-55.8748,-13.0758],[-55.8743,-13.0776],[-55.876,-13.0818],[-55.876,-13.0846],[-55.8784,-13.085],[-55.8838,-13.0835],[-55.8872,-13.0817],[-55.8888,-13.079],[-55.8902,-13.078],[-55.8917,-13.0778],[-55.8935,-13.0792],[-55.8929,-13.0806],[-55.8901,-13.0822],[-55.8893,-13.0833],[-55.8895,-13.0844],[-55.8918,-13.088],[-55.8933,-13.0914],[-55.8931,-13.0945],[-55.8885,-13.0989],[-55.888,-13.1005],[-55.8887,-13.102],[-55.8914,-13.1026],[-55.8927,-13.1023],[-55.8947,-13.101],[-55.8966,-13.1013],[-55.8971,-13.1025],[-55.897,-13.105],[-55.8947,-13.107],[-55.8943,-13.1091],[-55.8887,-13.1083],[-55.8863,-13.1105],[-55.885,-13.114],[-55.8849,-13.1167],[-55.8859,-13.1202],[-55.886,-13.1242],[-55.8878,-13.1269],[-55.8863,-13.1278],[-55.883,-13.1266],[-55.8818,-13.1268],[-55.8808,-13.1283],[-55.8809,-13.13],[-55.8829,-13.1318],[-55.8848,-13.1366],[-55.8875,-13.1386],[-55.889,-13.1405],[-55.8891,-13.1424],[-55.885,-13.1467],[-55.8835,-13.1498],[-55.8839,-13.1515],[-55.8836,-13.1529],[-55.8808,-13.1551],[-55.8807,-13.1574],[-55.8797,-13.1612],[-55.88,-13.1626],[-55.883,-13.1643],[-55.8854,-13.1682],[-55.8853,-13.1721],[-55.886,-13.1741],[-55.8859,-13.1769],[-55.8875,-13.1799],[-55.889,-13.18],[-55.8901,-13.1811],[-55.8899,-13.1824],[-55.8901,-13.1869],[-55.8906,-13.1885],[-55.8921,-13.1911],[-55.8929,-13.1916],[-55.8966,-13.1901],[-55.8974,-13.1915],[-55.8965,-13.1927],[-55.893,-13.1942],[-55.8905,-13.1965],[-55.8894,-13.1997],[-55.8887,-13.2003],[-55.8843,-13.2026],[-55.8851,-13.2051],[-55.8815,-13.2086],[-55.8792,-13.2125],[-55.8791,-13.2137],[-55.8803,-13.2171],[-55.8781,-13.2189],[-55.8772,-13.2203],[-55.8772,-13.2222],[-55.8778,-13.2237],[-55.8811,-13.2261],[-55.8824,-13.2279],[-55.8842,-13.2318],[-55.8847,-13.2347],[-55.884,-13.2359],[-55.8821,-13.2375],[-55.8788,-13.2393],[-55.8769,-13.2417],[-55.876,-13.2433],[-55.8762,-13.2443],[-55.8802,-13.2477],[-55.8828,-13.2509],[-55.8848,-13.2523],[-55.8849,-13.254],[-55.8832,-13.256],[-55.8792,-13.2566],[-55.8748,-13.2563],[-55.8733,-13.2572],[-55.8724,-13.2602],[-55.8708,-13.26],[-55.8688,-13.2581],[-55.8656,-13.2575],[-55.8636,-13.2588],[-55.862,-13.2619],[-55.8594,-13.2629],[-55.8567,-13.2665],[-55.8561,-13.2683],[-55.8556,-13.2726],[-55.8529,-13.2747],[-55.852,-13.2772],[-55.85,-13.2789],[-55.8481,-13.2787],[-55.8462,-13.2761],[-55.8452,-13.2764],[-55.8443,-13.2779],[-55.8452,-13.2794],[-55.8468,-13.2803],[-55.8514,-13.2807],[-55.853,-13.2824],[-55.8508,-13.2842],[-55.8503,-13.2864],[-55.8494,-13.2868],[-55.8459,-13.2868],[-55.8447,-13.2871],[-55.8448,-13.2895],[-55.8433,-13.2894],[-55.8424,-13.288],[-55.8444,-13.2849],[-55.8434,-13.2843],[-55.8424,-13.2849],[-55.8409,-13.2869],[-55.8396,-13.2871],[-55.8386,-13.2889],[-55.8393,-13.2899],[-55.8407,-13.29],[-55.8409,-13.2911],[-55.8381,-13.2924],[-55.8368,-13.2936],[-55.8368,-13.2949],[-55.8355,-13.2951],[-55.8344,-13.2931],[-55.8333,-13.2929],[-55.8323,-13.2946],[-55.8311,-13.2954],[-55.8292,-13.2959],[-55.8277,-13.2969],[-55.8284,-13.3003],[-55.8266,-13.3013],[-55.8258,-13.2997],[-55.8208,-13.2983],[-55.8192,-13.297],[-55.8167,-13.2973],[-55.815,-13.2986],[-55.8139,-13.2988],[-55.8114,-13.3044],[-55.8113,-13.3079],[-55.8083,-13.3099],[-55.808,-13.3109],[-55.8095,-13.3128],[-55.8091,-13.3147],[-55.8108,-13.3149],[-55.8104,-13.3171],[-55.8076,-13.32],[-55.8067,-13.3215],[-55.8068,-13.3231],[-55.8097,-13.3241],[-55.8083,-13.3293],[-55.805,-13.3307],[-55.8042,-13.33],[-55.8063,-13.3276],[-55.8047,-13.3268],[-55.8025,-13.3279],[-55.8011,-13.3298],[-55.8002,-13.3336],[-55.7986,-13.3346],[-55.7969,-13.3334],[-55.7948,-13.3346],[-55.7925,-13.334],[-55.7888,-13.3337],[-55.7863,-13.3344],[-55.7845,-13.334],[-55.7838,-13.3318],[-55.782,-13.3321],[-55.7821,-13.3336],[-55.7831,-13.3354],[-55.7822,-13.3369],[-55.7784,-13.337],[-55.7778,-13.3379],[-55.7785,-13.3395],[-55.777,-13.341],[-55.7735,-13.3417],[-55.7735,-13.3432],[-55.7726,-13.3435],[-55.7716,-13.3423],[-55.7694,-13.3425]]]},"properties":{"codarea":"5107925"}}]}